,Unnamed: 0,address_1,city,state,zip_code
0,0,RICHARDS RD,ANTIOCH,TN,37013
1,1,616 BELL RD,ANTIOCH,TN,37013
2,2,504 COLLINS PARK DR,ANTIOCH,TN,37013
3,3,940 RICHARDS ROAD,ANTIOCH,TN,37013
4,4,2711 MURFREESBORO RD.,ANTIOCH,TN,37013
5,5,5252 HICKORY HOLLOW PARKWAY,ANTIOCH,TN,37013
6,6,5352 HICKORY HOLLOW PARKWAY,ANTIOCH,TN,37013
7,7,6438 NOLENSVILLE PIKE,ANTIOCH,TN,37013
8,8,424 EDENCREST CT,ANTIOCH,TN,37013
9,12,5357 MOUNT VIEW RD,ANTIOCH,TN,37013
10,13,3538 MURFREESBORO PIKE,ANTIOCH,TN,37013
11,14,3538 MURFREESBORO PIKE STE 305,ANTIOCH,TN,37013
12,15,601 BAKERTOWN RD,ANTIOCH,TN,37013
13,19,609 BAKERTOWN RD,ANTIOCH,TN,37013
14,20,5245 HICKORY HOLLOW PKWY,ANTIOCH,TN,37013
15,24,5252 HICKORY HOLLOW PKWY,ANTIOCH,TN,37013
16,25,1315 BELL ROAD,ANTIOCH,TN,37013
17,26,5352 HICKORY HOLLOW PKWY,ANTIOCH,TN,37013
18,27,1315 BELL RD,ANTIOCH,TN,37013
19,28,7429 STECOAH ST,ANTIOCH,TN,37013
20,29,712 SAXONY LAKE DR,ANTIOCH,TN,37013
21,30,809 HAMILTON XING,ANTIOCH,TN,37013
22,32,3991 CAROTHERS PARKWAY,FRANKLIN,TN,37067
23,33,4054 LEBANON PIKE,HERMITAGE,TN,37076
24,34,404 WELSHWOOD DR,NASHVILLE,TN,37211
25,35,15576 OLD HICKORY BLVD,NASHVILLE,TN,37211
26,36,3038 NOLENSVILLE RD,NASHVILLE,TN,37211
27,37,3038 NOLENSVILLE ROAD,NASHVILLE,TN,37211
28,38,328 ANTIOCH PK,NASHVILLE,TN,37211
29,39,5511 EDMONDSON PIKE,NASHVILLE,TN,37211
30,40,4928 EDMONSON PIKE,NASHVILLE,TN,37211
31,41,5802 NOLENSVILLE RD,NASHVILLE,TN,37211
32,42,3754 NOLENSVILLE PIKE,NASHVILLE,TN,37211
33,43,404 WELSHWOOD DRIVE,NASHVILLE,TN,37211
34,44,4813 NOLENSVILLE PIKE,NASHVILLE,TN,37211
35,45,3038 NOLENSVILLE PIKE,NASHVILLE,TN,37211
36,46,183 THOMPSON LN,NASHVILLE,TN,37211
37,47,197 THOMPSON LN,NASHVILLE,TN,37211
38,51,3714 NOLENSVILLE RD STE C,NASHVILLE,TN,37211
39,52,534 PARAGON MILLS RD,NASHVILLE,TN,37211
40,53,390 HARDING PL STE 101,NASHVILLE,TN,37211
41,54,4933 JONQUIL DR,NASHVILLE,TN,37211
42,55,390 HARDING PL,NASHVILLE,TN,37211
43,58,3923 NOLENSVILLE PIKE,NASHVILLE,TN,37211
44,60,404 WELSHWOOD DR STE A,NASHVILLE,TN,37211
45,61,4057 NOLENSVILLE RD,NASHVILLE,TN,37211
46,62,4057 NOLENSVILLE PIKE,NASHVILLE,TN,37211
47,63,181 BROOKRIDGE TRL,NASHVILLE,TN,37211
48,64,4928 EDMONDSON PIKE STE 202,NASHVILLE,TN,37211
49,65,397 WALLACE RD,NASHVILLE,TN,37211
50,66,4718 NOLENSVILLE PIKE,NASHVILLE,TN,37211
51,69,4905 NOLENSVILLE PIKE,NASHVILLE,TN,37211
52,70,5505 EDMONDSON PIKE,NASHVILLE,TN,37211
53,78,5722 HICKORY PLZ,NASHVILLE,TN,37211
54,79,5705 NOLENSVILLE PIKE STE A,NASHVILLE,TN,37211
55,81,5802 NOLENSVILLE PIKE,NASHVILLE,TN,37211
56,85,5802 NOLENSVILLE PIKE STE 103,NASHVILLE,TN,37211
57,86,309 SHADY CREEK LN,NASHVILLE,TN,37211
58,87,1545 CELEBRATION WAY,NASHVILLE,TN,37211
59,88,370 OAKLEY DR,NASHVILLE,TN,37211
60,89,6905 LENOX VILLAGE DR,NASHVILLE,TN,37211
61,93,937 S WOODSTONE LN,NASHVILLE,TN,37211
62,94,5405 BARTON VALE DR,NASHVILLE,TN,37211
63,95,309 NORTHCREEK BLVD,GOODLETTSVILLE,TN,37072
64,96,304 NEW PROVIDENCE BLVD,CLARKSVILLE,TN,37042
65,97,1692 FORT CAMBELL BLVD,CLARKSVILLE,TN,37042
66,98,2485 FORT CAMPBELL BLVD,CLARKSVILLE,TN,37042
67,100,1502 TINY TOWN RD,CLARKSVILLE,TN,37042
68,101,1692 FORT CAMPBELL BLVD,CLARKSVILLE,TN,37042
69,102,1275 PARKWAY PLACE,CLARKSVILLE,TN,37042
70,103,304 PROVIDENCE BLVD,CLARKSVILLE,TN,37042
71,105,3402 CAINLO DR STE 100,CLARKSVILLE,TN,37042
72,107,1573 FORT CAMPBELL BLVD,CLARKSVILLE,TN,37042
73,108,357 DOVER RD,CLARKSVILLE,TN,37042
74,109,361 DOVER RD,CLARKSVILLE,TN,37042
75,110,230 DOVER RD,CLARKSVILLE,TN,37042
76,111,1301 PEACHERS MILL RD,CLARKSVILLE,TN,37042
77,121,2411 SENSENEY DR,CLARKSVILLE,TN,37042
78,122,1877 FORT CAMPBELL BLVD,CLARKSVILLE,TN,37042
79,130,1466 TINY TOWN RD STE A,CLARKSVILLE,TN,37042
80,134,271 STONECROSSING DR,CLARKSVILLE,TN,37042
81,135,271 STONECROSSING DR STE B,CLARKSVILLE,TN,37042
82,138,271 STONE CROSSING DRIVE,CLARKSVILLE,TN,37042
83,142,2700 MARTIN LUTHER KING JR BLVD,DETROIT,MI,48208
84,143,2441 21ST ST,FORT CAMPBELL,KY,42223
85,144,1035 14TH AVE N,NASHVILLE,TN,37208
86,145,3012 LONGFORD DR STE 1,SPRING HILL,TN,37174
87,146,324 NORTHCREST DR,SPRINGFIELD,TN,37172
88,147,230 NEW SHACKLE ISLAND RD STE 170,HENDERSONVILLE,TN,37075
89,148,177 MAIN STREET,HENDERSONVILLE,TN,37075
90,149,320 NEW SHACKLE ISLAND RD STE B1,HENDERSONVILLE,TN,37075
91,150,365 WEST MAIN STREET,HENDERSONVILLE,TN,37075
92,151,102 A GLEN OAK BLVD,HENDERSONVILLE,TN,37075
93,152,209 INDIAN LAKE BLVD,HENDERSONVILLE,TN,37075
94,153,131 INDIAN LAKE BLVD STE 100,HENDERSONVILLE,TN,37075
95,154,1002 GLENBROOK WAY,HENDERSONVILLE,TN,37075
96,155,1002 GLENBROOK WAY STE 200,HENDERSONVILLE,TN,37075
97,156,100 SPRINGHOUSE CT.,HENDERSONVILLE,TN,37075
98,157,1050 GLENBROOK WAY,HENDERSONVILLE,TN,37075
99,159,100 SPRINGHOUSE CT,HENDERSONVILLE,TN,37075
100,163,100 SPRINGHOUSE CT STE 130,HENDERSONVILLE,TN,37075
101,164,100 SPRINGHOUSE CT STE 110,HENDERSONVILLE,TN,37075
102,165,100 SPRINGHOUSE COURT,HENDERSONVILLE,TN,37075
103,166,264 NEW SHACKLE ISLAND RD STE 105B,HENDERSONVILLE,TN,37075
104,167,264 NEW SHACKLE ISLAND RD STE 105A,HENDERSONVILLE,TN,37075
105,169,230 NEW SHACKLE ISLAND RD,HENDERSONVILLE,TN,37075
106,172,311 E MAIN ST,HENDERSONVILLE,TN,37075
107,173,734 E MAIN ST,HENDERSONVILLE,TN,37075
108,174,100 BLUEGRASS COMMONS BLVD,HENDERSONVILLE,TN,37075
109,175,711 E MAIN ST,HENDERSONVILLE,TN,37075
110,176,102 GLEN OAK BLVD,HENDERSONVILLE,TN,37075
111,177,102 GLEN OAK BLVD # A,HENDERSONVILLE,TN,37075
112,178,102 WESSINGTON PL,HENDERSONVILLE,TN,37075
113,179,177 W MAIN ST,HENDERSONVILLE,TN,37075
114,182,394 W MAIN ST,HENDERSONVILLE,TN,37075
115,183,394 WEST MAIN STREET B-3,HENDERSONVILLE,TN,37075
116,184,107 IMPERIAL BLVD STE 12,HENDERSONVILLE,TN,37075
117,185,107 IMPERIAL BLVD STE 1,HENDERSONVILLE,TN,37075
118,189,109 SHIVEL DR,HENDERSONVILLE,TN,37075
119,190,131 MAPLE ROW BLVD STE D402,HENDERSONVILLE,TN,37075
120,193,118 MAPLE ROW BLVD STE B,HENDERSONVILLE,TN,37075
121,195,104 HAZEL PATH,HENDERSONVILLE,TN,37075
122,196,104 HAZEL PATH STE 1,HENDERSONVILLE,TN,37075
123,198,111 MAPLE ROW BLVD,HENDERSONVILLE,TN,37075
124,199,107 MAPLE ROW BLVD,HENDERSONVILLE,TN,37075
125,204,131 INDIAN LAKE RD,HENDERSONVILLE,TN,37075
126,210,131 MAPLE ROW BLVD,HENDERSONVILLE,TN,37075
127,211,173 RULAND CIR,HENDERSONVILLE,TN,37075
128,212,165 INDIAN LAKE BLVD.,HENDERSONVILLE,TN,37075
129,213,151 INDIAN LAKE BLVD,HENDERSONVILLE,TN,37075
130,217,131 INDIAN LAKE BLVD,HENDERSONVILLE,TN,37075
131,226,209 INDIAN LAKE BLVD STE 102,HENDERSONVILLE,TN,37075
132,227,305 INDIAN LAKE BLVD STE B260,HENDERSONVILLE,TN,37075
133,228,305 INDIAN LAKE BLVD,HENDERSONVILLE,TN,37075
134,229,299A INDIAN LAKE BLVD,HENDERSONVILLE,TN,37075
135,232,206 N ANDERSON LN STE 400,HENDERSONVILLE,TN,37075
136,233,206A N ANDERSON LN,HENDERSONVILLE,TN,37075
137,234,1020 ANTEBELLUM CIR,HENDERSONVILLE,TN,37075
138,237,247 W MAIN ST,HENDERSONVILLE,TN,37075
139,238,112 SAUNDERSVILLE RD,HENDERSONVILLE,TN,37075
140,239,112 SAUNDERSVILLE RD BLDG B,HENDERSONVILLE,TN,37075
141,240,1018 CROSS BOW DR,HENDERSONVILLE,TN,37075
142,241,1935 W HAPPY VALLEY RD,PHOENIX,AZ,85085
143,242,717 S WHITE STATION RD STE 8,MEMPHIS,TN,38117
144,243,103 CUDE LN,MADISON,TN,37115
145,244,4205 HILLSBORO PIKE STE 101,NASHVILLE,TN,37215
146,245,7057 HIGHWAY 70 S,NASHVILLE,TN,37221
147,246,2300 21ST AVE S STE 103,NASHVILLE,TN,37212
148,247,3601 THE VANDERBILT CLINIC,NASHVILLE,TN,37232
149,248,777 BANNOCK ST,DENVER,CO,80204
150,249,1603 ROSEWOOD DR,COLUMBIA,TN,38401
151,250,706 LION PKWY,COLUMBIA,TN,38401
152,251,1300 HATCHER LN STE 1,COLUMBIA,TN,38401
153,252,1818 SHADY BROOK ST,COLUMBIA,TN,38401
154,253,1324 TROTWOOD AVE,COLUMBIA,TN,38401
155,254,1703 GROVE DRIVE,COLUMBIA,TN,38401
156,255,1603 ROSEWOOD DRIVE,COLUMBIA,TN,38401
157,257,1818 SHADY BROOK STREET,COLUMBIA,TN,38401
158,258,1909 HAMPHIRE PIKE,COLUMBIA,TN,38401
159,259,620 S. JAMES CAMPBELL BLVD,COLUMBIA,TN,38401
160,260,927 N. JAMES CAMPBELL BLVD,COLUMBIA,TN,38401
161,261,1412 TROTWOOD AVE STE 4,COLUMBIA,TN,38401
162,262,6000 TROTWOOD AVE,COLUMBIA,TN,38401
163,263,1501 NASHVILLE HWY STE 102,COLUMBIA,TN,38401
164,264,1501 NASHVILLE HWY,COLUMBIA,TN,38401
165,265,1605 NASHVILLE HWY,COLUMBIA,TN,38401
166,266,1605 NASHVILLE HWY STE 100,COLUMBIA,TN,38401
167,267,927 N JAMES CAMPBELL BLVD,COLUMBIA,TN,38401
168,268,320 NORTH GARDEN STREET,COLUMBIA,TN,38401
169,269,311 W 8TH ST,COLUMBIA,TN,38401
170,271,418 W 6TH ST,COLUMBIA,TN,38401
171,272,208 W 6TH ST,COLUMBIA,TN,38401
172,273,1703 GROVE ST,COLUMBIA,TN,38401
173,274,806 HATCHER LN,COLUMBIA,TN,38401
174,275,804 HATCHER LN,COLUMBIA,TN,38401
175,277,1706 WEDGEWOOD DR,COLUMBIA,TN,38401
176,278,1201 HATCHER LN,COLUMBIA,TN,38401
177,280,1300 HATCHER LN,COLUMBIA,TN,38401
178,282,1300 HATCHER LN STE 6,COLUMBIA,TN,38401
179,289,1324 TROTWOOD AVE STE 1,COLUMBIA,TN,38401
180,292,1300 TROTWOOD AVE,COLUMBIA,TN,38401
181,293,620 S JAMES CAMPBELL BLVD,COLUMBIA,TN,38401
182,294,1514 HATCHER LN,COLUMBIA,TN,38401
183,297,1506 HATCHER LN,COLUMBIA,TN,38401
184,298,1412 TROTWOOD AVE,COLUMBIA,TN,38401
185,302,1909 HAMPSHIRE PIKE,COLUMBIA,TN,38401
186,303,104 BERRYWOOD DR,COLUMBIA,TN,38401
187,305,105 BERRYWOOD DR,COLUMBIA,TN,38401
188,310,500 LENTZ DR STE 90A,MADISON,TN,37115
189,311,4900 CENTENNIAL BLVD STE 104,NASHVILLE,TN,37209
190,312,745 S CHURCH ST,MURFREESBORO,TN,37130
191,313,1272 DOW ST,MURFREESBORO,TN,37130
192,314,1754 S RUTHERFORD BLVD,MURFREESBORO,TN,37130
193,315,1632 MIDDLE TENNESSEE BLVD,MURFREESBORO,TN,37130
194,316,1754 S RUTHERFORD BOULEVARD,MURFREESBORO,TN,37130
195,326,1754 SOUTH RUTHERFORD BLVD,MURFREESBORO,TN,37130
196,328,1754 S RUTHERFORD BLVD STE A,MURFREESBORO,TN,37130
197,329,740 E NORTHFIELD BLVD,MURFREESBORO,TN,37130
198,330,147 E CLARK BLVD,MURFREESBORO,TN,37130
199,331,614 E CLARK BLVD,MURFREESBORO,TN,37130
200,337,604 E CLARK BLVD,MURFREESBORO,TN,37130
201,338,606 E CLARK BLVD,MURFREESBORO,TN,37130
202,343,1280 DOW ST,MURFREESBORO,TN,37130
203,344,1302 DOW ST,MURFREESBORO,TN,37130
204,347,534 HIGHLAND TER,MURFREESBORO,TN,37130
205,353,1255 N HIGHLAND AVE,MURFREESBORO,TN,37130
206,354,1120 DOW ST,MURFREESBORO,TN,37130
207,356,1140 DOW ST,MURFREESBORO,TN,37130
208,357,1136 DOW ST,MURFREESBORO,TN,37130
209,359,1211 LEAF AVE,MURFREESBORO,TN,37130
210,361,1121 GREENLAND DR,MURFREESBORO,TN,37130
211,363,100 W BURTON ST,MURFREESBORO,TN,37130
212,364,819 S CHURCH ST,MURFREESBORO,TN,37130
213,365,745 S CHURCH ST STE 309,MURFREESBORO,TN,37130
214,368,925 S CHURCH ST,MURFREESBORO,TN,37130
215,370,1478 MIDDLE TENNESSEE BLVD,MURFREESBORO,TN,37130
216,373,1800 S RUTHERFORD BLVD,MURFREESBORO,TN,37130
217,376,240 S PETERS RD STE 103,KNOXVILLE,TN,37923
218,377,1511 ROBINSON RD,OLD HICKORY,TN,37138
219,378,7116 NOLENSVILLE RD STE 102,NOLENSVILLE,TN,37135
220,379,111 MURRAY GUARD DR,JACKSON,TN,38305
221,380,209 OIL WELL RD,JACKSON,TN,38305
222,381,468 N PARKWAY,JACKSON,TN,38305
223,382,211 OILWELL RD,JACKSON,TN,38305
224,384,176A UNIVERSITY PARKWAY WEST,JACKSON,TN,38305
225,385,1903 N HIGHLAND AVE,JACKSON,TN,38305
226,386,206 MURRAY GUARD DRIVE,JACKSON,TN,38305
227,387,458 N PARKWAY,JACKSON,TN,38305
228,388,1869 HIGHWAY 45 NORTH #2,JACKSON,TN,38305
229,390,101 MAX LANE DRIVE,JACKSON,TN,38305
230,391,1189 VANN DRIVE,JACKSON,TN,38305
231,392,206 MURRAY GUARD DR,JACKSON,TN,38305
232,393,51 STONEBRIDGE BLVD.,JACKSON,TN,38305
233,394,3021 HIGHWAY 45 BYP,JACKSON,TN,38305
234,395,2718 N HIGHLAND AVE,JACKSON,TN,38305
235,397,54 EXETER RD STE A,JACKSON,TN,38305
236,398,33 STONEBRIDGE BLVD,JACKSON,TN,38305
237,399,31 STONEBRIDGE BLVD,JACKSON,TN,38305
238,402,11 MEDICAL PARK CT,JACKSON,TN,38305
239,405,296 CARRIAGE HOUSE DR,JACKSON,TN,38305
240,406,276 CARRIAGE HOUSE DR,JACKSON,TN,38305
241,408,78 LYNOAK CV,JACKSON,TN,38305
242,409,33 LYNOAK CV,JACKSON,TN,38305
243,410,460 N PARKWAY,JACKSON,TN,38305
244,416,804 N PARKWAY,JACKSON,TN,38305
245,417,3067 N HIGHLAND AVE,JACKSON,TN,38305
246,422,2000 GREYSTONE PARK,JACKSON,TN,38305
247,423,2032 GREYSTONE PARK,JACKSON,TN,38305
248,424,2000 GREYSTONE SQ,JACKSON,TN,38305
249,425,166 MURRAY GUARD DR,JACKSON,TN,38305
250,426,190 MURRAY GUARD DR,JACKSON,TN,38305
251,428,166A MURRAY GUARD DR,JACKSON,TN,38305
252,429,39 MURRAY GUARD DR,JACKSON,TN,38305
253,431,11 SECURITY DR,JACKSON,TN,38305
254,434,25G STONEBROOK PL # 172,JACKSON,TN,38305
255,436,101 MAX LANE DR,JACKSON,TN,38305
256,437,1119 VANN DR,JACKSON,TN,38305
257,439,1189 VANN DR,JACKSON,TN,38305
258,442,47 N STAR DR,JACKSON,TN,38305
259,444,29 N STAR DR,JACKSON,TN,38305
260,445,2574 CHRISTMASVILLE CV,JACKSON,TN,38305
261,446,58 WHITE PLAINS DR,JACKSON,TN,38305
262,447,52 MOSS BRANCH CV,JACKSON,TN,38305
263,448,77 NORTHFORK CV,JACKSON,TN,38305
264,449,211 OIL WELL RD,JACKSON,TN,38305
265,450,1250 S MANUFACTURERS ROW,TRENTON,TN,38382
266,451,431 NISSAN DR,SMYRNA,TN,37167
267,452,741 PRESIDENT PL,SMYRNA,TN,37167
268,453,311 YELLOWWOOD WAY,SMYRNA,TN,37167
269,454,1932 ALMAVILLE RD STE 105,SMYRNA,TN,37167
270,455,739 PRESIDENT PL STE 210,SMYRNA,TN,37167
271,456,1450 SAM DAVIS ROAD,SMYMA,TN,37167
272,457,527 ENON SPRINGS RD E,SMYRNA,TN,37167
273,458,526 LEGACY DR,SMYRNA,TN,37167
274,459,840 NISSAN DR.,SMYRNA,TN,37167
275,460,160 MOVIE ROW,SMYRNA,TN,37167
276,461,840 NISSAN DRIVE,SMYRNA,TN,37167
277,462,1347 ROCK SPRINGS RD,SMYRNA,TN,37167
278,463,111 MOVIE ROW,SMYRNA,TN,37167
279,464,206 ENON SPRINGS ROAD EAST,SMYRNA,TN,37167
280,465,300 STONECREST BOULEVARD,SMYRNA,TN,37167
281,466,1450 SAM DAVIS RD,SMYRNA,TN,37167
282,470,1450 SAM DAVIS RD STE 120,SMYRNA,TN,37167
283,471,440 SAM RIDLEY PKWY W,SMYRNA,TN,37167
284,475,440 SAM RIDLEY PKWY W STE 140,SMYRNA,TN,37167
285,478,125 ENON SPRINGS RD E,SMYRNA,TN,37167
286,480,204 ENON SPRINGS ROAD EAST,SMYRNA,TN,37167
287,481,210 ENON SPRINGS RD E,SMYRNA,TN,37167
288,482,206 ENON SPRINGS RD E,SMYRNA,TN,37167
289,485,100 MAYFIELD DR,SMYRNA,TN,37167
290,487,100 MAYFIELD DRIVE,SMYRNA,TN,37167
291,489,98 MAYFIELD DR STE D,SMYRNA,TN,37167
292,491,366 S LOWRY ST,SMYRNA,TN,37167
293,493,1336 HAZELWOOD DR,SMYRNA,TN,37167
294,497,13181 OLD NASHVILLE HWY,SMYRNA,TN,37167
295,499,431 NISSAN DR STE 202,SMYRNA,TN,37167
296,500,1932 ALMAVILLE RD,SMYRNA,TN,37167
297,501,780 NISSAN DR,SMYRNA,TN,37167
298,505,315 SAM RIDLEY PKWY W,SMYRNA,TN,37167
299,506,301 WOLVERINE TRL,SMYRNA,TN,37167
300,508,301 WOLVERINE TRL STE 203,SMYRNA,TN,37167
301,509,693 PRESIDENT PL,SMYRNA,TN,37167
302,510,697 PRESIDENT PL,SMYRNA,TN,37167
303,514,1540 ROCK SPRINGS RD,SMYRNA,TN,37167
304,517,13181 OLD NASHVILLE HWY STE 110,SMYRNA,TN,37167
305,527,1730 LEE VICTORY PKWY,SMYRNA,TN,37167
306,536,741 PRESIDENT PL STE 120,SMYRNA,TN,37167
307,537,515 STONECREST PKWY,SMYRNA,TN,37167
308,538,739 PRESIDENT PL,SMYRNA,TN,37167
309,543,693 PRESIDENT PL STE 101,SMYRNA,TN,37167
310,544,152 HERITAGE PARK DR,MURFREESBORO,TN,37129
311,545,9730 3RD AVE NE STE 205,SEATTLE,WA,98115
312,546,367 INDEPENDENCE BLVD,VIRGINIA BEACH,VA,23462
313,547,1725 MEDICAL CENTER PKWY STE 100,MURFREESBORO,TN,37129
314,548,1535 W NORTHFIELD BLVD,MURFREESBORO,TN,37129
315,549,1849 MEMORIAL BLVD,MURFREESBORO,TN,37129
316,550,1110 W CLARK BLVD,MURFREESBORO,TN,37129
317,552,1900 MEDICAL CENTER PARKWAY,MURFREESBORO,TN,37129
318,553,2214 MEMORIAL BLVD,MURFREESBORO,TN,37129
319,554,1630 NW BROAD ST,MURFREESBORO,TN,37129
320,555,513 N THOMPSON LN,MARFREESBORO,TN,37129
321,556,214 MTCS RD,MURFREESBORO,TN,37129
322,557,3320 MEMORIAL BLVD,MURFREESBORO,TN,37129
323,558,1184 WEST CLARK BLVD,MURFREESBORO,TN,37129
324,559,1535 W NORTHFIELD BLVD STE 10,MURFREESBORO,TN,37129
325,560,790 NORTHWEST BROAD STREET,MURFREESBORO,TN,37129
326,561,152 HERITAGE PARK DR.,MURFREESBORO,TN,37129
327,562,218 MTCS RD,MURFREESBORO,TN,37129
328,564,1833 WARD DR,MURFREESBORO,TN,37129
329,565,122 HERITAGE PARK DR,MURFREESBORO,TN,37129
330,566,132 HERITAGE PARK DR,MURFREESBORO,TN,37129
331,567,301 UPTOWN SQ,MURFREESBORO,TN,37129
332,568,406 UPTOWN SQ,MURFREESBORO,TN,37129
333,569,1826 WARD DR,MURFREESBORO,TN,37129
334,570,1826 WARD DR STE 203,MURFREESBORO,TN,37129
335,571,3400 LEBANON RD,MURFREESBORO,TN,37129
336,574,1825 MEMORIAL BLVD,MURFREESBORO,TN,37129
337,576,1819 MEMORIAL BLVD,MURFREESBORO,TN,37129
338,580,1703 FIRST PL STE A,MURFREESBORO,TN,37129
339,581,242 HERITAGE PARK DR,MURFREESBORO,TN,37129
340,582,1760 W NORTHFIELD BLVD,MURFREESBORO,TN,37129
341,583,117 SULPHUR SPRINGS RD,MURFREESBORO,TN,37129
342,585,1725 MEDICAL CENTER PKWY,MURFREESBORO,TN,37129
343,587,1150 NW BROAD ST,MURFREESBORO,TN,37129
344,592,903 MEMORIAL BLVD,MURFREESBORO,TN,37129
345,593,1747 MEDICAL CENTER PKWY,MURFREESBORO,TN,37129
346,596,1747 MEDICAL CENTER PKWY STE 300,MURFREESBORO,TN,37129
347,598,790 NW BROAD ST,MURFREESBORO,TN,37129
348,599,3411 MEMORIAL BLVD,MURFREESBORO,TN,37129
349,601,2711 MEDICAL CENTER PKWY,MURFREESBORO,TN,37129
350,604,125 WENDELWOOD DR STE B,MURFREESBORO,TN,37129
351,609,2306 MEDICAL CENTER PKWY STE B5,MURFREESBORO,TN,37129
352,612,2249 MEDICAL CENTER PKWY,MURFREESBORO,TN,37129
353,613,413 N THOMPSON LN,MURFREESBORO,TN,37129
354,615,513 N THOMPSON LN,MURFREESBORO,TN,37129
355,617,206 N THOMPSON LN STE A,MURFREESBORO,TN,37129
356,618,2445 MEMORIAL BLVD,MURFREESBORO,TN,37129
357,619,203 CASTLEWOOD DR,MURFREESBORO,TN,37129
358,620,3202 MEMORIAL BLVD STE A,MURFREESBORO,TN,37129
359,623,3331 SPENCER HWY,PASADENA,TX,77504
360,624,1177 OLD HICKORY BLVD STE 203,BRENTWOOD,TN,37027
361,625,125 COOL SPRINGS BLVD STE 140,FRANKLIN,TN,37067
362,628,1177 OLD HICKORY BLVD,BRENTWOOD,TN,37027
363,629,95 SEABOARD LN,BRENTWOOD,TN,37027
364,630,6980 MOORES LN,BRENTWOOD,TN,37027
365,631,5023 HARPETH DR,BRENTWOOD,TN,37027
366,632,5110 MARYLAND WAY STE 190,BRENTWOOD,TN,37027
367,633,8119 ISABELLA LN STE 108,BRENTWOOD,TN,37027
368,634,4914 THOROUGHBRED LANE,BRENTWOOD,TN,37027
369,635,7106 MOORES LANE,BRENTWOOD,TN,37027
370,636,6980 MOORES LANE,BRENTWOOD,TN,37027
371,637,5111 MARYLAND WAY,BRENTWOOD,TN,37027
372,638,"7105 BAKERS BRIDGE AVE, #400",BRENTWOOD,TN,37027
373,639,400 BAKERS BRIDGE,BRENTWOOD,TN,37027
374,640,6509 MURRAY LANE,BRENTWOOD,TN,37027
375,641,1600 WESTGATE CIRCLE,BRENTWOOD,TN,37027
376,642,213 OVERLOOK CIRCLE,BRENTWOOD,TN,37027
377,643,105 POWELL COURT,BRENTWOOD,TN,37027
378,644,5024 HARPETH DRIVE,BRENTWOOD,TN,37027
379,645,5111 MARYLAND WAY SUITE 209,BRENTWOOD,TN,37027
380,646,343 FRANKLIN RD STE 103,BRENTWOOD,TN,37027
381,647,5120 VIRGINIA WAY,BRENTWOOD,TN,37027
382,648,1738 FONTANELLA DR,BRENTWOOD,TN,37027
383,649,1800 MALLORY LN,BRENTWOOD,TN,37027
384,651,1800 MALLORY LN STE A1,BRENTWOOD,TN,37027
385,652,7106 MOORES LN,BRENTWOOD,TN,37027
386,653,7004 MOORES LN,BRENTWOOD,TN,37027
387,658,1749 MALLORY LN,BRENTWOOD,TN,37027
388,659,1261 BRIDGETON PARK DR,BRENTWOOD,TN,37027
389,660,7105 BAKERS BRIDGE AVE,BRENTWOOD,TN,37027
390,661,1585 MALLORY LN STE 101,BRENTWOOD,TN,37027
391,662,95 SEABOARD LN STE 102,BRENTWOOD,TN,37027
392,663,330 FRANKLIN RD STE 230B,BRENTWOOD,TN,37027
393,664,330 FRANKLIN RD,BRENTWOOD,TN,37027
394,665,213 OVERLOOK CIR,BRENTWOOD,TN,37027
395,669,1195 OLD HICKORY BLVD,BRENTWOOD,TN,37027
396,672,1195 OLD HICKORY BLVD STE 203,BRENTWOOD,TN,37027
397,674,1195 OLD HICKORY BLVD STE 205,BRENTWOOD,TN,37027
398,679,1177 OLD HICKORY BLVD.,BRENTWOOD,TN,37027
399,681,783 OLD HICKORY BLVD,BRENTWOOD,TN,37027
400,682,785 OLD HICKORY BLVD,BRENTWOOD,TN,37027
401,683,785 OLD HICKORY BLVD STE 200,BRENTWOOD,TN,37027
402,685,785 OLD HICKORY BLVD STE 100,BRENTWOOD,TN,37027
403,686,761 OLD HICKORY BLVD,BRENTWOOD,TN,37027
404,687,761 OLD HICKORY BLVD STE 100,BRENTWOOD,TN,37027
405,688,317 SEVEN SPRINGS WAY,BRENTWOOD,TN,37027
406,689,317 SEVEN SPRINGS WAY STE 103,BRENTWOOD,TN,37027
407,690,5623 CLOVERLAND DR,BRENTWOOD,TN,37027
408,691,317 SEVEN SPRINGS WAY STE 204,BRENTWOOD,TN,37027
409,692,5409 MARYLAND WAY,BRENTWOOD,TN,37027
410,693,115 PENN WARREN DR,BRENTWOOD,TN,37027
411,694,5409 MARYLAND WAY STE 210,BRENTWOOD,TN,37027
412,695,6 CADILLAC DR STE 130,BRENTWOOD,TN,37027
413,698,6 CADILLAC DR,BRENTWOOD,TN,37027
414,701,105 POWELL CT,BRENTWOOD,TN,37027
415,703,115 PENN WARREN DR STE 500,BRENTWOOD,TN,37027
416,704,343 FRANKLIN RD,BRENTWOOD,TN,37027
417,707,7101 EXECUTIVE CENTER DR,BRENTWOOD,TN,37027
418,708,7000 EXECUTIVE CENTER DR,BRENTWOOD,TN,37027
419,709,343 FRANKLIN ROAD,BRENTWOOD,TN,37027
420,712,211 FRANKLIN RD STE 180,BRENTWOOD,TN,37027
421,713,210 GRANNY WHITE PIKE,BRENTWOOD,TN,37027
422,714,8217 WHITE CHAPEL CT,BRENTWOOD,TN,37027
423,715,5110 MARYLAND WAY,BRENTWOOD,TN,37027
424,722,5015 HARPETH DR,BRENTWOOD,TN,37027
425,724,5111 MARYLAND WAY STE 209,BRENTWOOD,TN,37027
426,729,5120 VIRGINIA WAY STE B12,BRENTWOOD,TN,37027
427,730,5123 VIRGINIA WAY STE B12,BRENTWOOD,TN,37027
428,731,205 POWELL PL,BRENTWOOD,TN,37027
429,732,104 EASTPARK DR,BRENTWOOD,TN,37027
430,735,205 WARD CIR STE 2,BRENTWOOD,TN,37027
431,736,5055 MARYLAND WAY STE 202,BRENTWOOD,TN,37027
432,737,5055 MARYLAND WAY STE 201,BRENTWOOD,TN,37027
433,738,5109 PETER TAYLOR PARK DR STE 100,BRENTWOOD,TN,37027
434,739,1601 WESTGATE CIR,BRENTWOOD,TN,37027
435,741,8113 MOORES LN,BRENTWOOD,TN,37027
436,744,1600 WESTGATE CIR,BRENTWOOD,TN,37027
437,746,1607 WESTGATE CIR,BRENTWOOD,TN,37027
438,747,1642 WESTGATE CIRCLE,BRENTWOOD,TN,37027
439,748,1607 WESTGATE CIR STE 400,BRENTWOOD,TN,37027
440,749,1642 WESTGATE CIR,BRENTWOOD,TN,37027
441,751,1646 WESTGATE CIR STE 100,BRENTWOOD,TN,37027
442,752,9425 SMITHSON LN,BRENTWOOD,TN,37027
443,753,6690 NOLENSVILLE RD STE 104,BRENTWOOD,TN,37027
444,754,6716 NOLENSVILLE RD STE 120,BRENTWOOD,TN,37027
445,756,6716 NOLENSVILLE RD,BRENTWOOD,TN,37027
446,759,8112 ISABELLA LN STE 101,BRENTWOOD,TN,37027
447,761,2410 EVERGREEN RD STE 101,GAMBRILLS,MD,21054
448,762,1710 NASHVILLE PIKE,GALLATIN,TN,37066
449,764,624 W DUE WEST AVE,MADISON,TN,37115
450,765,224 11TH AVE S,NASHVILLE,TN,37203
451,766,2130 W POPLAR AVE SUITE 106,COLLIERVILLE,TN,38017
452,767,"2130 W. POPLAR AVE, SUITE 106",COLLIERVILLE,TN,38017
453,768,2130 W POPLAR AVE,COLLIERVILLE,TN,38017
454,769,2028 W POPLAR AVE,COLLIERVILLE,TN,38017
455,772,2028 W. POPLAR,COLLIERVILLE,TN,38017
456,774,2150 W POPLAR AVE,COLLIERVILLE,TN,38017
457,775,2150 W POPLAR AVE STE 106,COLLIERVILLE,TN,38017
458,776,875 W POPLAR AVE,COLLIERVILLE,TN,38017
459,779,624 W POPLAR AVE,COLLIERVILLE,TN,38017
460,783,830 W POPLAR AVE,COLLIERVILLE,TN,38017
461,784,1011 W POPLAR AVE,COLLIERVILLE,TN,38017
462,785,151 N MAIN ST,COLLIERVILLE,TN,38017
463,786,745 W POPLAR AVE,COLLIERVILLE,TN,38017
464,787,1055 W POPLAR AVE,COLLIERVILLE,TN,38017
465,789,384 NEW BYHALIA RD,COLLIERVILLE,TN,38017
466,790,435 N BYHALIA RD STE 112,COLLIERVILLE,TN,38017
467,791,362 NEW BYHALIA RD,COLLIERVILLE,TN,38017
468,792,832 W POPLAR AVE,COLLIERVILLE,TN,38017
469,793,60 MARKET CENTER DR STE 102,COLLIERVILLE,TN,38017
470,794,60 MARKET CENTER DR,COLLIERVILLE,TN,38017
471,798,1108 HALLE PARK CIR,COLLIERVILLE,TN,38017
472,800,940 COLLIERVILLE ARLINGTON RD,COLLIERVILLE,TN,38017
473,801,3615 S HOUSTON LEVEE RD STE 104,COLLIERVILLE,TN,38017
474,802,1100 POPLAR VIEW LN N,COLLIERVILLE,TN,38017
475,803,1122 POPLAR VIEW LN N,COLLIERVILLE,TN,38017
476,807,1100 POPLAR VIEW LN N STE 1,COLLIERVILLE,TN,38017
477,808,1099 POPLAR VIEW LANE N,COLLIERVILLE,TN,38017
478,810,1099 POPLAR VIEW LANE NORTH,COLLIERVILLE,TN,38017
479,811,61 PEYTON PKWY,COLLIERVILLE,TN,38017
480,813,61 PEYTON PKWY STE 101,COLLIERVILLE,TN,38017
481,814,61 PEYTON PKWY STE 103,COLLIERVILLE,TN,38017
482,815,41 PARK CREEK DR,GREENVILLE,SC,29605
483,816,590 FIRE STATION RD STE C,CLARKSVILLE,TN,37043
484,817,1755 KIRBY PKWY STE 103,MEMPHIS,TN,38120
485,818,875 UNION AVE C 101,MEMPHIS,TN,38163
486,819,2835 SUMMER OAKS DR,BARTLETT,TN,38134
487,820,3046 COLUMBIA AVE STE 201,FRANKLIN,TN,37064
488,821,1441 NEW HIGHWAY 96 W,FRANKLIN,TN,37064
489,822,1214 MURFREESBORO RD STE 210,FRANKLIN,TN,37064
490,823,105 SE PARKWAY STE 101,FRANKLIN,TN,37064
491,824,101 FORREST CROSSING BLVD.,FRANKLIN,TN,37064
492,825,1441 NEW HIGHWAY 96 WEST,FRANKLIN,TN,37064
493,826,500 ROYAL OAKS COURT,FRANKLIN,TN,37064
494,827,1441 NEW HWY 96 WEST,FRANKLIN,TN,37064
495,828,1025 WESTHAVEN BLVD.,FRANKLIN,TN,37064
496,829,1025 WESTHAVEN BLVD,FRANKLIN,TN,37064
497,830,4020 HUGHES CROSSING,FRANKLIN,TN,37064
498,831,1013 OLEANDER STREET,FRANKLIN,TN,37064
499,833,1214 MURFREESBORO RD,FRANKLIN,TN,37064
500,834,113 WILLIAMSON SQ,FRANKLIN,TN,37064
501,835,4020 HUGHES XING STE 140,FRANKLIN,TN,37064
502,836,4020 HUGHES XING,FRANKLIN,TN,37064
503,837,1950 DOWNS BLVD STE 101,FRANKLIN,TN,37064
504,838,3050 CHEEVER ST,FRANKLIN,TN,37064
505,839,511 NEW HIGHWAY 96 W,FRANKLIN,TN,37064
506,841,216 3RD AVE N,FRANKLIN,TN,37064
507,842,210 3RD AVE N,FRANKLIN,TN,37064
508,843,214 BRIDGE ST,FRANKLIN,TN,37064
509,845,509 NEW HIGHWAY 96 W,FRANKLIN,TN,37064
510,848,143 4TH AVE N,FRANKLIN,TN,37064
511,849,1010 MURFREESBORO RD,FRANKLIN,TN,37064
512,853,400 SUGARTREE LN,FRANKLIN,TN,37064
513,855,1345 W MAIN ST,FRANKLIN,TN,37064
514,856,1324 W MAIN ST,FRANKLIN,TN,37064
515,857,1325 W MAIN ST,FRANKLIN,TN,37064
516,858,105 SE PARKWAY,FRANKLIN,TN,37064
517,859,3016 COLUMBIA DRIVE,FRANKLIN,TN,37064
518,861,1441 NEW HIGHWAY 96 W STE 6,FRANKLIN,TN,37064
519,866,1025 WESTHAVEN BLVD STE 150,FRANKLIN,TN,37064
520,867,114 RAND PL,FRANKLIN,TN,37064
521,869,612 ETON CT,FRANKLIN,TN,37064
522,870,1159 HILLVIEW LN,FRANKLIN,TN,37064
523,871,3016 COLUMBIA AVE,FRANKLIN,TN,37064
524,872,3046 COLUMBIA AVE,FRANKLIN,TN,37064
525,876,5247 OLD HARDING RD,FRANKLIN,TN,37064
526,878,3362 S 3RD ST,MEMPHIS,TN,38109
527,881,425 E SHELBY DR,MEMPHIS,TN,38109
528,882,1799 S 3RD ST STE B,MEMPHIS,TN,38109
529,884,577 E RAINES RD,MEMPHIS,TN,38109
530,885,684 N MOUNT JULIET RD,MOUNT JULIET,TN,37122
531,886,2628 N MOUNT JULIET RD,MOUNT JULIET,TN,37122
532,887,11315 LEBANON RD,MOUNT JULIET,TN,37122
533,888,631 S MOUNT JULIET RD,MT JULIET,TN,37122
534,889,"5000 CROSSING CIRCLE, SUITE 301",MT JULIET,TN,37122
535,890,40 W. CALDWELL STREET,MOUNT JULIET,TN,37122
536,891,1097 WESTON DR,MT JULIET,TN,37122
537,892,11462 LEBANON RD,MOUNT JULIET,TN,37122
538,893,2628 N. MOUNT JULIET RD.,MOUNT JULIET,TN,37122
539,895,5000 CROSSING CIRCLE,MT. JULIET,TN,37122
540,896,4155 N MT JULIET RD,MT. JULIET,TN,37122
541,897,4155 N MOUNT JULIET RD,MT JULIET,TN,37122
542,898,1984 PROVIDENCE PKWY #200,MOUNT JULIET,TN,37122
543,899,4155 N MOUNT JULIET RD,MOUNT JULIET,TN,37122
544,900,2788 N. MT. JULIET,MOUNT JULIET,TN,37122
545,902,66 E. HILL ST.,MOUNT JULIET,TN,37122
546,903,40 W CALDWELL ST,MOUNT JULIET,TN,37122
547,906,66 E HILL DR,MOUNT JULIET,TN,37122
548,907,2365 N MOUNT JULIET RD,MT JULIET,TN,37122
549,910,40 W CALDWELL ST STE 203,MOUNT JULIET,TN,37122
550,911,401 PAGE PL,MOUNT JULIET,TN,37122
551,913,878 N MOUNT JULIET RD,MOUNT JULIET,TN,37122
552,914,1323 CLEARVIEW DR,MOUNT JULIET,TN,37122
553,915,1323 CLEARVIEW DR,MT JULIET,TN,37122
554,916,1097 WESTON DR,MOUNT JULIET,TN,37122
555,917,100 HILLDALE DR,MOUNT JULIET,TN,37122
556,918,541 N MOUNT JULIET RD STE 2302,MOUNT JULIET,TN,37122
557,919,20 OLD PLEASANT GROVE ROAD,MOUNT JULIET,TN,37122
558,920,2025 N MOUNT JULIET RD STE 110,MOUNT JULIET,TN,37122
559,921,1009 ASHCROFT WAY,MOUNT JULIET,TN,37122
560,922,545 N MOUNT JULIET RD,MOUNT JULIET,TN,37122
561,923,3025 NICHOLS VALE,MOUNT JULIET,TN,37122
562,924,1984 PROVIDENCE PKWY STE 200,MT JULIET,TN,37122
563,925,11462 LEBANON RD,MT JULIET,TN,37122
564,926,11316 LEBANON RD,MT JULIET,TN,37122
565,927,11316 LEBANON RD,MOUNT JULIET,TN,37122
566,928,11211 LEBANON RD,MT JULIET,TN,37122
567,929,1424 SADDLE CRST,MT JULIET,TN,37122
568,930,631 S MOUNT JULIET RD,MOUNT JULIET,TN,37122
569,931,2788 N MOUNT JULIET RD,MOUNT JULIET,TN,37122
570,933,66 E HILL DR STE A,MOUNT JULIET,TN,37122
571,936,5000 CROSSINGS CIR STE 300,MT JULIET,TN,37122
572,937,5000 CROSSINGS CIR,MOUNT JULIET,TN,37122
573,938,2018 BROADWAY ST,PADUCAH,KY,42001
574,939,6150 METROWEST BLVD STE 301,ORLANDO,FL,32835
575,940,2405 CRESTMOOR RD,NASHVILLE,TN,37215
576,941,4975 ALBEN BARKLEY DR STE 4,PADUCAH,KY,42001
577,943,104 JORDAN DR,CHATTANOOGA,TN,37421
578,944,1414 JENKINS RD STE 146A,CHATTANOOGA,TN,37421
579,945,1350 MACKEY BRANCH DRIVE,CHATTANOOGA,TN,37421
580,946,1606 GUNBARREL ROAD,CHATTANOOGA,TN,37421
581,947,6918 SHALLOWFORD RD,CHATTANOOGA,TN,37421
582,948,6626 LEE HWY,CHATTANOOGA,TN,37421
583,949,7613 SHALLOWFORD ROAD,CHATTANOOGA,TN,37421
584,950,7003 SHALLOWFORD RD STE 201,CHATTANOOGA,TN,37421
585,951,1620 GUNBARREL RD,CHATTANOOGA,TN,37421
586,952,8703 EAST BRAINERD ROAD,CHATTANOOGA,TN,37421
587,953,1909 GUNBARREL RD,CHATTANOOGA,TN,37421
588,954,7333 SHALLOWFORD ROAD,CHATTANOOGA,TN,37421
589,955,6102 SHALLOWFORD RD STE 101,CHATTANOOGA,TN,37421
590,956,7003 SHALLOWFORD RD STE 202,CHATTANOOGA,TN,37421
591,957,7333 SHALLOWFORD RD,CHATTANOOGA,TN,37421
592,959,7213 NOAH REID RD,CHATTANOOGA,TN,37421
593,960,1515 GUNBARREL RD STE 126,CHATTANOOGA,TN,37421
594,961,8021 E BRAINERD RD,CHATTANOOGA,TN,37421
595,962,7611 HAMILTON PARK DR,CHATTANOOGA,TN,37421
596,964,3328 JENKINS RD,CHATTANOOGA,TN,37421
597,965,3326 JENKINS RD STE 103,CHATTANOOGA,TN,37421
598,966,5999 SHALLOWFORD RD,CHATTANOOGA,TN,37421
599,969,6102 SHALLOWFORD RD,CHATTANOOGA,TN,37421
600,972,6015 SHALLOWFORD RD,CHATTANOOGA,TN,37421
601,973,2315 HICKORY VALLEY RD,CHATTANOOGA,TN,37421
602,975,7044 LEE HWY,CHATTANOOGA,TN,37421
603,976,7044 LEE HIGHWAY,CHATTANOOGA,TN,37421
604,977,2217 OLAN MILLS DR,CHATTANOOGA,TN,37421
605,978,6106 SHALLOWFORD RD STE 116,CHATTANOOGA,TN,37421
606,981,6820 LEE HWY,CHATTANOOGA,TN,37421
607,987,7405 SHALLOWFORD RD STE 210,CHATTANOOGA,TN,37421
608,988,1825 GUNBARREL RD,CHATTANOOGA,TN,37421
609,989,1720 GUNBARREL RD,CHATTANOOGA,TN,37421
610,992,1720 GUNBARREL RD STE 210,CHATTANOOGA,TN,37421
611,996,1720 GUNBARREL RD STE 310,CHATTANOOGA,TN,37421
612,1000,1414 JENKINS RD STE 146,CHATTANOOGA,TN,37421
613,1002,5805 LEE HWY,CHATTANOOGA,TN,37421
614,1003,6988 E BRAINERD RD,CHATTANOOGA,TN,37421
615,1006,1515 GUNBARREL RD,CHATTANOOGA,TN,37421
616,1007,1612 GUNBARREL RD,CHATTANOOGA,TN,37421
617,1008,1612 GUNBARREL RD STE 100,CHATTANOOGA,TN,37421
618,1010,1612 GUNBARREL RD STE 102,CHATTANOOGA,TN,37421
619,1011,8190 E BRAINERD RD,CHATTANOOGA,TN,37421
620,1015,1075 GRAYSVILLE RD,CHATTANOOGA,TN,37421
621,1016,8703 E BRAINERD RD,CHATTANOOGA,TN,37421
622,1021,1309 PANORAMA DR,CHATTANOOGA,TN,37421
623,1022,1309 PANORAMA DR STE 101,CHATTANOOGA,TN,37421
624,1024,6413 LEE HWY STE 119,CHATTANOOGA,TN,37421
625,1025,9503 MOUNTAIN SHADOWS DR,CHATTANOOGA,TN,37421
626,1026,7741 E BRAINERD RD,CHATTANOOGA,TN,37421
627,1027,2030 HAMILTON PLACE BLVD,CHATTANOOGA,TN,37421
628,1028,105 LEE PARKWAY DR,CHATTANOOGA,TN,37421
629,1030,7003 SHALLOWFORD RD,CHATTANOOGA,TN,37421
630,1035,7003 SHALLOWFORD RD STE 101,CHATTANOOGA,TN,37421
631,1039,7030 LEE HWY STE 101,CHATTANOOGA,TN,37421
632,1040,1829 GUNBARREL RD,CHATTANOOGA,TN,37421
633,1044,6120 SHALLOWFORD RD,CHATTANOOGA,TN,37421
634,1047,6101 SHALLOWFORD RD,CHATTANOOGA,TN,37421
635,1051,6101 SHALLOWFORD RD STE 103,CHATTANOOGA,TN,37421
636,1052,7446 SHALLOWFORD RD,CHATTANOOGA,TN,37421
637,1054,2290 OGLETREE AVE STE 104,CHATTANOOGA,TN,37421
638,1055,33 MOUSE CREEK RD NW,CLEVELAND,TN,37312
639,1056,4211 HIXSON PIKE,CHATTANOOGA,TN,37415
640,1057,495 DUNLOP LN STE 112,CLARKSVILLE,TN,37040
641,1058,4972 HIGHWAY 58 STE 114,CHATTANOOGA,TN,37416
642,1059,2154 FRAYSER BLVD,MEMPHIS,TN,38127
643,1061,969 FRAYSER BLVD,MEMPHIS,TN,38127
644,1062,3122 THOMAS ST,MEMPHIS,TN,38127
645,1063,495 DUNLOP LN,CLARKSVILLE,TN,37040
646,1064,2063 WILMA RUDOLPH BLVD,CLARKSVILLE,TN,37040
647,1065,1762 HIGHWAY 48,CLARKSVILLE,TN,37040
648,1067,1762 HWY 48,CLARKSVILLE,TN,37040
649,1068,2702 WILMA RUDOLPH BLVD,CLARKSVILLE,TN,37040
650,1069,930 HWY 76,CLARKSVILLE,TN,37040
651,1071,535 BELL TRACE CT,CLARKSVILLE,TN,37040
652,1072,2088 LOWES DR,CLARKSVILLE,TN,37040
653,1073,1498 MADISON STREET,CLARKSVILLE,TN,37040
654,1074,1498 MADISON ST,CLARKSVILLE,TN,37040
655,1075,330 PAGEANT LN,CLARKSVILLE,TN,37040
656,1077,3319 HEATHERWOOD TRCE,CLARKSVILLE,TN,37040
657,1078,2766 WILMA RUDOLPH BLVD STE A2,CLARKSVILLE,TN,37040
658,1081,2057 WILMA RUDOLPH BLVD,CLARKSVILLE,TN,37040
659,1082,2041 WILMA RUDOLPH BLVD,CLARKSVILLE,TN,37040
660,1084,1715 WILMA RUDOLPH BLVD,CLARKSVILLE,TN,37040
661,1086,2207 LOWES DR W STE A,CLARKSVILLE,TN,37040
662,1090,2215 PORTLAND AVE,LOUISVILLE,KY,40212
663,1092,3068 COVINGTON PIKE,MEMPHIS,TN,38128
664,1094,3890 AUSTIN PEAY HWY,MEMPHIS,TN,38128
665,1095,4283 RALEIGH MILLINGTON RD,MEMPHIS,TN,38128
666,1100,3980 NEW COVINGTON PIKE,MEMPHIS,TN,38128
667,1104,3481 AUSTIN PEAY HWY,MEMPHIS,TN,38128
668,1105,3594 COVINGTON PIKE,MEMPHIS,TN,38128
669,1111,3068 COVINGTON PIKE STE 2,MEMPHIS,TN,38128
670,1113,3030 COVINGTON PIKE STE 150,MEMPHIS,TN,38128
671,1121,3030 COVINGTON PIKE,MEMPHIS,TN,38128
672,1122,4325 STAGE RD STE 2,MEMPHIS,TN,38128
673,1123,14710 TN-194,OAKLAND,TN,38060
674,1124,1702 S DIXIE HWY,LAKE WORTH,FL,33460
675,1125,8135 WALNUT GROVE RD STE 4,CORDOVA,TN,38018
676,1126,8142 COUNTRY VILLAGE DRIVE,CORDOVA,TN,38016
677,1127,2845 N HOUSTON LEVEE RD,CORDOVA,TN,38016
678,1131,8110 CORDOVA RD,CORDOVA,TN,38016
679,1134,8176 OLD DEXTER RD,CORDOVA,TN,38016
680,1136,9010 RIVERWOOD FARMS PKWY,CORDOVA,TN,38016
681,1137,8142 COUNTRY VILLAGE DR,CORDOVA,TN,38016
682,1138,8295 CORDOVA RD,CORDOVA,TN,38016
683,1139,8333 CORDOVA RD,CORDOVA,TN,38016
684,1143,9200 CHIMNEYROCK BLVD STE 104,CORDOVA,TN,38016
685,1144,9200 CHIMNEYROCK BLVD,CORDOVA,TN,38016
686,1145,1890 N GERMANTOWN PKWY,CORDOVA,TN,38016
687,1146,1890 N GERMANTOWN PKWY STE 105,CORDOVA,TN,38016
688,1148,2060 STEEPLEBROOK DR,CORDOVA,TN,38016
689,1149,2058 KINGS CROSS LN,CORDOVA,TN,38016
690,1150,1138 N GERMANTOWN PKWY,CORDOVA,TN,38016
691,1151,8065 CLUB PARKWAY,CORDOVA,TN,38016
692,1152,1331 N GERMANTOWN PKWY,CORDOVA,TN,38016
693,1154,9915 MACON RD,CORDOVA,TN,38016
694,1155,8125 CORDOVA CENTER DR,CORDOVA,TN,38016
695,1157,2931 ESSARY RD STE 1,KNOXVILLE,TN,37918
696,1158,3019 SANDERS DR,KNOXVILLE,TN,37918
697,1159,200 MIDLAKE DR,KNOXVILLE,TN,37918
698,1160,5034 NORTH BROADWAY STREET,KNOXVILLE,TN,37918
699,1161,5315 FOUNTAIN ROAD,KNOXVILLE,TN,37918
700,1163,2937 ESSARY RD,KNOXVILLE,TN,37918
701,1164,2931 ESSARY DR,KNOXVILLE,TN,37918
702,1165,2937 ESSARY RD.,KNOXVILLE,TN,37918
703,1166,2944 TAZEWELL PK,KNOXVILLE,TN,37918
704,1168,2944 TAZEWELL PIKE,KNOXVILLE,TN,37918
705,1170,7109 AFTON DRIVE,KNOXVILLE,TN,37918
706,1171,4620 OLD BROADWAY ST,KNOXVILLE,TN,37918
707,1172,4741 N BROADWAY ST,KNOXVILLE,TN,37918
708,1177,2900 TAZEWELL PIKE STE A,KNOXVILLE,TN,37918
709,1178,2609 ADAIR DR,KNOXVILLE,TN,37918
710,1181,2606 GREENWAY DR,KNOXVILLE,TN,37918
711,1183,2944 TAZEWELL PIKE STE 1,KNOXVILLE,TN,37918
712,1184,4608 GREENWAY DR,KNOXVILLE,TN,37918
713,1189,5034 N BROADWAY ST,KNOXVILLE,TN,37918
714,1190,2939 ESSARY RD,KNOXVILLE,TN,37918
715,1196,2931 ESSARY RD,KNOXVILLE,TN,37918
716,1201,2939 ESSARY DR STE 2,KNOXVILLE,TN,37918
717,1202,2937 ESSARY DR,KNOXVILLE,TN,37918
718,1204,2941 ESSARY DR,KNOXVILLE,TN,37918
719,1206,3226 TAZEWELL PIKE,KNOXVILLE,TN,37918
720,1207,3248 TAZEWELL PIKE,KNOXVILLE,TN,37918
721,1208,5315 FOUNTAIN RD,KNOXVILLE,TN,37918
722,1210,122 LYNNWOOD DR,KNOXVILLE,TN,37918
723,1211,5303 JACKSBORO PIKE,KNOXVILLE,TN,37918
724,1215,3720 CUNNINGHAM RD,KNOXVILLE,TN,37918
725,1218,3629 NEAL DR,KNOXVILLE,TN,37918
726,1219,7109 AFTON DR,KNOXVILLE,TN,37918
727,1220,7039 MAYNARDVILLE HIGHWAY,KNOXVILLE,TN,37918
728,1221,111 LOUDOUN RD,KNOXVILLE,TN,37934
729,1223,355 HANCOCK ST,GALLATIN,TN,37066
730,1224,608 COMMONS DR,GALLATIN,TN,37066
731,1225,617 HARTSVILLE PIKE,GALLATIN,TN,37066
732,1226,923 NASHVILLE PIKE A,GALLATIN,TN,37066
733,1227,1710 NASHVILLE PIKE # 102,GALLATIN,TN,37066
734,1228,2069 NASHVILLE PIKE,GALLATIN,TN,37066
735,1229,1005B UNION SCHOOL RD,GALLATIN,TN,37066
736,1230,158 ALBERT GALLATIN AVE,GALLATIN,TN,37066
737,1232,158 A ALBERT GALLATIN AVE,GALLATIN,TN,37066
738,1233,529A HARTSVILLE PIKE,GALLATIN,TN,37066
739,1235,529 HARTSVILLE PIKE,GALLATIN,TN,37066
740,1236,528 HARTSVILLE PIKE,GALLATIN,TN,37066
741,1238,200 S WESTLAND AVE,GALLATIN,TN,37066
742,1240,923 NASHVILLE PIKE STE A,GALLATIN,TN,37066
743,1241,1007 NASHVILLE PIKE STE 100,GALLATIN,TN,37066
744,1242,124 GOODVIEW WAY STE B,GALLATIN,TN,37066
745,1243,120 GOODVIEW WAY # B,GALLATIN,TN,37066
746,1246,335 W MAIN ST,GALLATIN,TN,37066
747,1247,335 W MAIN ST UNIT J,GALLATIN,TN,37066
748,1249,1101 NASHVILLE PIKE STE 110,GALLATIN,TN,37066
749,1250,337 HANCOCK ST,GALLATIN,TN,37066
750,1255,661 NASHVILLE PIKE,GALLATIN,TN,37066
751,1256,1528 HUNT CLUB BLVD,GALLATIN,TN,37066
752,1257,614 COMMONS DR,GALLATIN,TN,37066
753,1262,1124 NEW HIGHWAY 52 E,WESTMORELAND,TN,37186
754,1264,560 COLONIAL RD STE 100,MEMPHIS,TN,38117
755,1265,2863 STAGE CENTER DR,BARLETT,TN,38134
756,1266,3105 KIRBY WHITTEN PARKWAY,BARTLETT,TN,38134
757,1268,7519 HIGHWAY 64,BARTLETT,TN,38134
758,1269,6630 SUMMER KNOLL CIRCLE,BARTLETT,TN,38134
759,1270,78519 HIGHWAY 64,BARTLETT,TN,38134
760,1271,6597 SUMMER KNOLL COVE,BARTLETT,TN,38134
761,1272,6425 STAGE RD,BARTLETT,TN,38134
762,1274,1620 CENTURY CENTER PKWY,MEMPHIS,TN,38134
763,1275,6565 STAGE ROAD,BARTLETT,TN,38134
764,1276,3051 KIRBY WHITTEN RD,BARTLETT,TN,38134
765,1277,3071 KIRBY WHITTEN RD,BARTLETT,TN,38134
766,1279,3105 KIRBY WHITTEN RD,BARTLETT,TN,38134
767,1288,6603 SUMMER KNOLL CV,BARTLETT,TN,38134
768,1289,6637 SUMMER KNOLL CIR,BARTLETT,TN,38134
769,1290,6630 SUMMER KNOLL CIR,BARTLETT,TN,38134
770,1294,6500 STAGE ROAD,BARTLETT,TN,38134
771,1295,6500 STAGE RD,BARTLETT,TN,38134
772,1297,5112 STAGE RD STE 4,MEMPHIS,TN,38134
773,1298,5124 STAGE RD,MEMPHIS,TN,38134
774,1299,5124 STAGE RD STE C-2,MEMPHIS,TN,38134
775,1302,6363 STAGE RD,BARTLETT,TN,38134
776,1308,6405 STAGE RD,BARTLETT,TN,38134
777,1310,6480 STAGE RD,BARTLETT,TN,38134
778,1311,2805 SUMMER OAKS DR,BARTLETT,TN,38134
779,1312,2855 SUMMER OAKS DRIVE,BARTLETT,TN,38134
780,1316,2805 SUMMER OAKS DR,MEMPHIS,TN,38134
781,1318,2855 SUMMER OAKS DR,BARTLETT,TN,38134
782,1322,6555 STAGE RD STE 2,BARTLETT,TN,38134
783,1323,6565 STAGE RD STE 2,BARTLETT,TN,38134
784,1324,6565 STAGE RD,BARTLETT,TN,38134
785,1327,6551 STAGE OAKS DR,BARTLETT,TN,38134
786,1328,6551 STAGE OAKS DR STE 2,BARTLETT,TN,38134
787,1329,5786 STAGE RD,BARTLETT,TN,38134
788,1332,2772 BARTLETT BLVD,BARTLETT,TN,38134
789,1333,2798 BARTLETT BLVD,BARTLETT,TN,38134
790,1334,2863 STAGE CENTER DR,BARTLETT,TN,38134
791,1335,113 HARBOR TOWN SQ,MEMPHIS,TN,38103
792,1336,3481 POPLAR AVE,MEMPHIS,TN,38111
793,1337,3468 PLAZA AVE,MEMPHIS,TN,38111
794,1338,431 S HIGHLAND ST STE 115,MEMPHIS,TN,38111
795,1339,2877 POPLAR AVE,MEMPHIS,TN,38111
796,1340,2995 GARDENS WAY,MEMPHIS,TN,38111
797,1341,183 TILLMAN ST,MEMPHIS,TN,38111
798,1343,3087 PARK AVE,MEMPHIS,TN,38111
799,1344,3251 PARK AVE,MEMPHIS,TN,38111
800,1345,3216 PARK AVE,MEMPHIS,TN,38111
801,1346,845 S HIGHLAND ST,MEMPHIS,TN,38111
802,1347,845 S. HIGHLAND ST,MEMPHIS,TN,38111
803,1352,7 S HIGHLAND ST,MEMPHIS,TN,38111
804,1355,3491 WALNUT GROVE RD,MEMPHIS,TN,38111
805,1365,3445 POPLAR AVE,MEMPHIS,TN,38111
806,1366,3596 PARK AVE,MEMPHIS,TN,38111
807,1367,3740 PARK AVE,MEMPHIS,TN,38111
808,1368,2900 S PERKINS RD,MEMPHIS,TN,38118
809,1369,3037 S PERKINS RD,MEMPHIS,TN,38118
810,1370,4688 AMERICAN WAY,MEMPHIS,TN,38118
811,1371,401 W MAIN ST,LEBANON,TN,37087
812,1373,322 N MAPLE ST,LEBANON,TN,37087
813,1374,1314 WEST MAIN ST,LEBANON,TN,37087
814,1375,1030 WEST MAIN STREET,LEBANON,TN,37087
815,1376,108 BABB DRIVE,LEBANON,TN,37087
816,1377,1409 WEST BADDOUR PARKWAY,LEBANON,TN,37087
817,1378,1430 W BADDOUR PARKWAY,LEBANON,TN,37087
818,1379,102 HARTMAN DR STE H,LEBANON,TN,37087
819,1380,205 W HIGH ST,LEBANON,TN,37087
820,1382,106 BABB DR,LEBANON,TN,37087
821,1384,1409 W BADDOUR PKWY,LEBANON,TN,37087
822,1385,102 HARTMAN DR,LEBANON,TN,37087
823,1386,1430 W BADDOUR PKWY,LEBANON,TN,37087
824,1387,716 CASTLE HEIGHTS CT,LEBANON,TN,37087
825,1388,212 N CASTLE HEIGHTS AVE,LEBANON,TN,37087
826,1389,105 WINWOOD DR,LEBANON,TN,37087
827,1390,1715 W MAIN ST,LEBANON,TN,37087
828,1392,201 SIGNATURE PL,LEBANON,TN,37087
829,1393,1030 W MAIN ST,LEBANON,TN,37087
830,1395,1037 W MAIN ST,LEBANON,TN,37087
831,1396,1037 W MAIN ST STE E,LEBANON,TN,37087
832,1402,727 W MAIN ST,LEBANON,TN,37087
833,1403,1633 W MAIN ST # 200,LEBANON,TN,37087
834,1406,312 W MAIN ST,LEBANON,TN,37087
835,1409,337 S CUMBERLAND ST,LEBANON,TN,37087
836,1410,125 S COLLEGE ST,LEBANON,TN,37087
837,1411,927 E BADDOUR PKWY,LEBANON,TN,37087
838,1412,701 PARK AVE,LEBANON,TN,37087
839,1413,335 S. HARTMANN DRIVE,LEBANON,TN,37087
840,1414,604 S CUMBERLAND ST STE 200,LEBANON,TN,37087
841,1417,2737 HICKORY RIDGE RD,LEBANON,TN,37087
842,1422,4520 ELVIS PRESLEY BLVD,MEMPHIS,TN,38116
843,1423,4295 CHILDS DR,MEMPHIS,TN,38116
844,1424,4561 MILLBRANCH,MEMPHIS,TN,38116
845,1425,1128 WINCHESTER RD STE 108,MEMPHIS,TN,38116
846,1426,3333 ELVIS PRESLEY BLVD,MEMPHIS,TN,38116
847,1427,3912 ELVIS PRESLEY BLVD,MEMPHIS,TN,38116
848,1428,1297 MARLIN RD,MEMPHIS,TN,38116
849,1429,1234 MARLIN RD,MEMPHIS,TN,38116
850,1430,1273 E RAINES RD,MEMPHIS,TN,38116
851,1433,1251 WESLEY DR,MEMPHIS,TN,38116
852,1434,4299 ELVIS PRESLEY BLVD,MEMPHIS,TN,38116
853,1438,1251 WESLEY DR STE 101,MEMPHIS,TN,38116
854,1439,1251 WESLEY DR STE 130,MEMPHIS,TN,38116
855,1440,4250 FARONIA RD,MEMPHIS,TN,38116
856,1447,4466 ELVIS PRESLEY BLVD,MEMPHIS,TN,38116
857,1448,1440 E SHELBY DR,MEMPHIS,TN,38116
858,1451,4561 MILLBRANCH RD STE 1,MEMPHIS,TN,38116
859,1452,1697 BENDER RD,MEMPHIS,TN,38116
860,1453,1701 BENDER RD,MEMPHIS,TN,38116
861,1454,1707 BENDER RD,MEMPHIS,TN,38116
862,1456,8527 HIXSON PIKE,HIXSON,TN,37343
863,1457,5606 HIGHWAY 153,HIXSON,TN,37343
864,1458,1963 NORTHPOINT BLVD,HIXSON,TN,37343
865,1459,4845 HIXSON PIKE STE C,HIXSON,TN,37343
866,1460,1724 HAMILL RD,HIXSON,TN,37343
867,1461,6012 HIXSON PIKE,HIXSON,TN,37343
868,1462,1963 NORTHPOINT BLVD.,HIXSON,TN,37343
869,1463,5022 OLD GODSEY LANE,HIXSON,TN,37343
870,1464,4513 HIXSON PIKE,HIXSON,TN,37343
871,1465,5756 TN-153,HIXSON,TN,37343
872,1466,4513 HIXSON PIKE STE 101,HIXSON,TN,37343
873,1467,4841-A HIXSON PIKE,HIXSON,TN,37343
874,1471,6012A HIXSON PIKE,HIXSON,TN,37343
875,1474,5109 SKILLERN DR,HIXSON,TN,37343
876,1475,5470 HIXSON PIKE,HIXSON,TN,37343
877,1476,5470 HIXSON PIKE STE B,HIXSON,TN,37343
878,1477,5470 HIXSON PIKE STE A,HIXSON,TN,37343
879,1485,5150 PRESCHOOL LANE,HIXSON,TN,37343
880,1486,5008 AUSTIN RD,HIXSON,TN,37343
881,1487,5213 HIXSON PIKE,HIXSON,TN,37343
882,1490,208 RING RD,HIXSON,TN,37343
883,1492,2120 NORTHPOINT BLVD,HIXSON,TN,37343
884,1493,4841 HIXSON PIKE STE E,HIXSON,TN,37343
885,1494,4841-B HIXSON PIKE,CHATTANOOGA,TN,37343
886,1495,4841 A HIXSON PIKE,HIXSON,TN,37343
887,1496,4841 HIXSON PIKE,HIXSON,TN,37343
888,1497,4841 HIXSON PIKE STE G,HIXSON,TN,37343
889,1499,4841A HIXSON PIKE,HIXSON,TN,37343
890,1500,4845 HIXSON PIKE STE A,HIXSON,TN,37343
891,1501,4845 HIXSON PIKE,HIXSON,TN,37343
892,1506,4843 HIXSON PIKE,HIXSON,TN,37343
893,1507,4843 HIXSON PIKE STE B,HIXSON,TN,37343
894,1509,4803 HIXSON PIKE STE 101,HIXSON,TN,37343
895,1510,4703 HIXSON PIKE,HIXSON,TN,37343
896,1511,1605 WILLIAMS RD,HIXSON,TN,37343
897,1513,5550 HIGHWAY 153,HIXSON,TN,37343
898,1514,5550 HIGHWAY 153 STE 100,HIXSON,TN,37343
899,1517,4611 HIXSON PIKE,HIXSON,TN,37343
900,1524,5022 OLD GODSEY LN STE 1,HIXSON,TN,37343
901,1526,5756 HIGHWAY 153,HIXSON,TN,37343
902,1527,1005 EXECUTIVE DR,HIXSON,TN,37343
903,1535,1005 EXECUTIVE DR STE 105,HIXSON,TN,37343
904,1536,1017 EXECUTIVE DR,HIXSON,TN,37343
905,1537,1017 EXECUTIVE DR STE 102,HIXSON,TN,37343
906,1538,1013 EXECUTIVE DR,HIXSON,TN,37343
907,1539,1105 W STONE DR STE 1,KINGSPORT,TN,37660
908,1540,1203 N WILCOX DR,KINGSPORT,TN,37660
909,1541,935 N WILCOX DRIVE,KINGSPORT,TN,37660
910,1542,1203 N WILCOX DRIVE,KINGSPORT,TN,37660
911,1543,909 NORTH WILCOX DRIVE,KINGSPORT,TN,37660
912,1544,2025 MEADOVIEW PARKWAY,KINGSPORT,TN,37660
913,1545,1200 PULITZER PLACE,KINGSPORT,TN,37660
914,1546,2701 BLOOMINGDALE RD,KINGSPORT,TN,37660
915,1547,1105 W STONE DR,KINGSPORT,TN,37660
916,1550,105 W STONE DR,KINGSPORT,TN,37660
917,1551,117 W SEVIER AVE,KINGSPORT,TN,37660
918,1557,1420 E STONE DR,KINGSPORT,TN,37660
919,1561,202 E CHARLEMONT AVE,KINGSPORT,TN,37660
920,1562,613 WATAUGA ST,KINGSPORT,TN,37660
921,1573,1920 BROOKSIDE DR STE 11,KINGSPORT,TN,37660
922,1574,1920 BROOKSIDE DR,KINGSPORT,TN,37660
923,1575,1008 EXECUTIVE PARK BLVD,KINGSPORT,TN,37660
924,1576,1205 N WILCOX DR,KINGSPORT,TN,37660
925,1577,1258 E CENTER ST,KINGSPORT,TN,37660
926,1580,909 N WILCOX DR,KINGSPORT,TN,37660
927,1581,2025 MEADOWVIEW PKWY,KINGSPORT,TN,37660
928,1583,8 SHERIDAN SQUARE,KINGSPORT,TN,37660
929,1584,2645 SULLIVAN GARDENS PKWY,KINGSPORT,TN,37660
930,1585,8 SHERIDAN SQ STE 400,KINGSPORT,TN,37660
931,1586,8 SHERIDAN SQ STE 100,KINGSPORT,TN,37660
932,1587,2305 RUDOLPHTOWN ROAD,CLARKSVILLE,TN,37043
933,1588,237 DUNBAR CAVE RD STE A,CLARKSVILLE,TN,37043
934,1589,2313 RUDOLPHTOWN RD,CLARKSVILLE,TN,37043
935,1590,220 HILLCREST DR,CLARKSVILLE,TN,37043
936,1592,2550 MADISON ST,CLARKSVILLE,TN,37043
937,1593,1011 TN-76,CLARKSVILLE,TN,37043
938,1595,2292 DALTON DR STE F,CLARKSVILLE,TN,37043
939,1596,2976 SURREY RIDGE RD,CLARKSVILLE,TN,37043
940,1597,2297 RUDOLPHTOWN RD,CLARKSVILLE,TN,37043
941,1598,1820 HAYNES STREET,CLARKSVILLE,TN,37043
942,1599,102 COUNTRY LN,CLARKSVILLE,TN,37043
943,1600,344 WARFIELD BLVD,CLARKSVILLE,TN,37043
944,1601,1818 MEMORIAL DR.,CLARKSVILLE,TN,37043
945,1602,1777 MADISON STE SUITE 100,CLARKSVILLE,TN,37043
946,1603,1833 MEMORIAL DR.,CLARKSVILLE,TN,37043
947,1604,1777 MADISON STE STE 100,CLARKSVILLE,TN,37043
948,1605,2285 RUDOLPHTOWN ROAD,CLARKSVILLE,TN,37043
949,1606,2285 RUDOLPHTOWN RD,CLARKSVILLE,TN,37043
950,1607,930 HIGHWAY 76,CLARKSVILLE,TN,37043
951,1609,2289 RUDOLPHTOWN ROAD,CLARKSVILLE,TN,37043
952,1610,"2287 RALEIGH CT, SUITE A",CLARKSVILLE,TN,37043
953,1611,2287 RALEIGH CT STE A,CLARKSVILLE,TN,37043
954,1613,2287 RALEIGH CT STE C,CLARKSVILLE,TN,37043
955,1615,2305 RUDOLPHTOWN RD,CLARKSVILLE,TN,37043
956,1616,2309 RUDOLPHTOWN RD,CLARKSVILLE,TN,37043
957,1618,2301 RUDOLPHTOWN RD,CLARKSVILLE,TN,37043
958,1621,2289 RUDOLPHTOWN RD,CLARKSVILLE,TN,37043
959,1623,1011 HIGHWAY 76 STE B,CLARKSVILLE,TN,37043
960,1624,1754 MADISON ST,CLARKSVILLE,TN,37043
961,1627,590 FIRE STATION RD STE D,CLARKSVILLE,TN,37043
962,1628,1718 MEMORIAL DR,CLARKSVILLE,TN,37043
963,1630,1722 MEMORIAL DR,CLARKSVILLE,TN,37043
964,1634,1815 HAYNES ST,CLARKSVILLE,TN,37043
965,1636,1745 MEMORIAL DR,CLARKSVILLE,TN,37043
966,1637,1756 MEMORIAL DR,CLARKSVILLE,TN,37043
967,1638,1764 MEMORIAL DR,CLARKSVILLE,TN,37043
968,1639,120 MEDICAL CT,CLARKSVILLE,TN,37043
969,1640,118 MEDICAL CT,CLARKSVILLE,TN,37043
970,1641,1829 MEMORIAL DR,CLARKSVILLE,TN,37043
971,1642,1827 MEMORIAL DR,CLARKSVILLE,TN,37043
972,1643,2145 OLD ASHLAND CITY RD,CLARKSVILLE,TN,37043
973,1645,1777 MADISON ST STE 100,CLARKSVILLE,TN,37043
974,1646,894 HIGHWAY 76 STE 105,CLARKSVILLE,TN,37043
975,1647,418 SAVANNAH TRACE DR,CLARKSVILLE,TN,37043
976,1650,329 WARFIELD BLVD STE G,CLARKSVILLE,TN,37043
977,1651,237A DUNBAR CAVE RD,CLARKSVILLE,TN,37043
978,1652,2289 RUDOLPHTOWN RD.,CLARKSVILLE,TN,37043
979,1656,1835 MADISON ST STE A,CLARKSVILLE,TN,37043
980,1657,2622 MADISON ST STE G,CLARKSVILLE,TN,37043
981,1659,225 DUNBAR CAVE RD STE B,CLARKSVILLE,TN,37043
982,1662,237 DUNBAR CAVE RD,CLARKSVILLE,TN,37043
983,1664,329 WARFIELD BLVD,CLARKSVILLE,TN,37043
984,1665,782 WEATHERLY DR,CLARKSVILLE,TN,37043
985,1666,800 WEATHERLY DR,CLARKSVILLE,TN,37043
986,1668,508 N CHURCH ST,LIVINGSTON,TN,38570
987,1669,1253 W PRATT ST,BALTIMORE,MD,21223
988,1670,9995 GATE PKWY N STE 310,JACKSONVILLE,FL,32246
989,1673,2489 DIPLOMAT PKWY E,CAPE CORAL,FL,33909
990,1674,6622 KIRBY CENTER COVE,MEMPHIS,TN,38115
991,1675,3574 HICKORY HILL ROAD,MEMPHIS,TN,38115
992,1676,6621 KIRBY CENTER COVE,MEMPHIS,TN,38115
993,1677,5756 RAYBEN CIR,MEMPHIS,TN,38115
994,1678,2738 MOUNT MORIAH PARKWAY,MEMPHIS,TN,38115
995,1679,2838 HICKORY HILL RD,MEMPHIS,TN,38115
996,1680,6223 MOUNT MORIAH ROAD EXT,MEMPHIS,TN,38115
997,1681,6223 MT MORIAH RD EXT,MEMPHIS,TN,38115
998,1682,3337 KIRBY PKWY,MEMPHIS,TN,38115
999,1684,3574 HICKORY HILL RD,MEMPHIS,TN,38115
1000,1686,3461 RIDGE MEADOW PKWY,MEMPHIS,TN,38115
1001,1687,6621 KIRBY CENTER CV,MEMPHIS,TN,38115
1002,1690,6611 KIRBY CENTER CV,MEMPHIS,TN,38115
1003,1692,6611 KIRBY CENTER CV # 6611,MEMPHIS,TN,38115
1004,1694,6963 WINCHESTER RD,MEMPHIS,TN,38115
1005,1695,6825 WINCHESTER RD STE 1A,MEMPHIS,TN,38115
1006,1696,5366 MENDENHALL MALL,MEMPHIS,TN,38115
1007,1700,5816 WINCHESTER ROAD,MEMPHIS,TN,38115
1008,1701,3719 RIVERDALE RD,MEMPHIS,TN,38115
1009,1703,4137 KIRBY PKWY,MEMPHIS,TN,38115
1010,1706,1195 POPLAR AVE,MEMPHIS,TN,38105
1011,1707,7734 AIRWAYS BLVD,SOUTHAVEN,MS,38671
1012,1708,2348 VOLUNTEER PARKWAY,BRISTOL,TN,37620
1013,1709,1705 EDGEMON AVENUE,BRISTOL,TN,37620
1014,1710,910 WINDSOR AVENUE,BRISTOL,TN,37620
1015,1711,401 MARTIN LUTHER KING JR. BLVD.,BRISTOL,TN,37620
1016,1712,350 BLOUNTVILLE HWY,BRISTOL,TN,37620
1017,1719,321 MIDWAY MEDICAL PARK,BRISTOL,TN,37620
1018,1720,350 BLOUNTVILLE HWY STE 202,BRISTOL,TN,37620
1019,1721,210 MEMORIAL DR,BRISTOL,TN,37620
1020,1722,523 HOLSTON AVE,BRISTOL,TN,37620
1021,1725,523 HOLSTON AVE STE 3,BRISTOL,TN,37620
1022,1726,332 6TH ST,BRISTOL,TN,37620
1023,1729,400 6TH ST,BRISTOL,TN,37620
1024,1730,512 ALABAMA ST,BRISTOL,TN,37620
1025,1731,136 EDGEMONT AVE,BRISTOL,TN,37620
1026,1732,401 EDGEMONT AVE,BRISTOL,TN,37620
1027,1736,1039 HIGHWAY 126,BRISTOL,TN,37620
1028,1737,401 MARTIN LUTHER KING JR BLVD,BRISTOL,TN,37620
1029,1739,200 BLUFF CITY HWY,BRISTOL,TN,37620
1030,1740,1522 EDGEMONT AVE,BRISTOL,TN,37620
1031,1741,1705 EDGEMONT AVE,BRISTOL,TN,37620
1032,1742,707 BLUFF CITY HWY,BRISTOL,TN,37620
1033,1743,728 BLUFF CITY HWY,BRISTOL,TN,37620
1034,1744,744 BLUFF CITY HWY,BRISTOL,TN,37620
1035,1748,739 BLUFF CITY HWY,BRISTOL,TN,37620
1036,1749,1135 VOLUNTEER PKWY,BRISTOL,TN,37620
1037,1750,1401 VOLUNTEER PKWY APT 3,BRISTOL,TN,37620
1038,1751,1401 VOLUNTEER PKWY,BRISTOL,TN,37620
1039,1752,1401 VOLUNTEER PKWY STE 3,BRISTOL,TN,37620
1040,1754,2319 VOLUNTEER PKWY,BRISTOL,TN,37620
1041,1756,1 MEDICAL PARK BLVD,BRISTOL,TN,37620
1042,1758,3508 MARYVILLE PIKE STE D,KNOXVILLE,TN,37920
1043,1759,6555 CHAPMAN HWY,KNOXVILLE,TN,37920
1044,1760,6502 B CHAPMAN HWY,KNOXVILLE,TN,37920
1045,1761,1930 ALCOA HWY,KNOXVILLE,TN,37920
1046,1762,"1930 ALCOA HWY., MED. BLDG. A",KNOXVILLE,TN,37920
1047,1769,1928 ALCOA HWY,KNOXVILLE,TN,37920
1048,1771,1924 ALCOA HWY,KNOXVILLE,TN,37920
1049,1772,1924 ALCOA HWY # U-28,KNOXVILLE,TN,37920
1050,1773,1924 ALCOA HWY # U-60,KNOXVILLE,TN,37920
1051,1774,1924 ALCOA HWY STE 340,KNOXVILLE,TN,37920
1052,1775,1930 ALCOA HWY STE 340,KNOXVILLE,TN,37920
1053,1776,1522 CHEROKEE TRL,KNOXVILLE,TN,37920
1054,1778,301 W YOUNG HIGH PIKE,KNOXVILLE,TN,37920
1055,1779,205 E MOODY AVE,KNOXVILLE,TN,37920
1056,1780,2923 ALCOA HWY,KNOXVILLE,TN,37920
1057,1782,3221 W GOVERNOR JOHN SEVIER HWY,KNOXVILLE,TN,37920
1058,1783,3221 W JOHN SEVIER HWY,KNOXVILLE,TN,37920
1059,1784,3508 MARYVILLE PIKE,KNOXVILLE,TN,37920
1060,1785,824 W GOVERNOR JOHN SEVIER HWY,KNOXVILLE,TN,37920
1061,1787,6502 CHAPMAN HWY,KNOXVILLE,TN,37920
1062,1788,7560 CHAPMAN HWY,KNOXVILLE,TN,37920
1063,1789,529 E GOVERNOR JOHN SEVIER HWY,KNOXVILLE,TN,37920
1064,1791,5623 BARINEAU HILL LN,KNOXVILLE,TN,37920
1065,1792,57 GRAHAM RD,CUYAHOGA FALLS,OH,44223
1066,1793,BUREAU OF MEDICINE AND SURGERY,JACKSONVILLE,FL,32212
1067,1794,13271 STRICKLAND RD,RALEIGH,NC,27613
1068,1795,10620 COURTHOUSE RD,FREDERICKSBURG,VA,22407
1069,1796,6230 HIGHLAND PLACE WAY STE 102,KNOXVILLE,TN,37919
1070,1797,12450 CLEVELAND RD,GARNER,NC,27529
1071,1798,5111 CLINTON DR,KOKOMO,IN,46902
1072,1800,633 E JACKSON ST,GATE CITY,VA,24251
1073,1801,138 E DIVISION RD,OAK RIDGE,TN,37830
1074,1802,710 N MAIN ST,CLINTON,TN,37716
1075,1804,2441 OLD FORT PARKWAY,MURFREESBORO,TN,37128
1076,1805,538 BRANDIES CIRCLE,MURFREESBORO,TN,37128
1077,1806,2910 OLD FORT PKWY,MURFREESBORO,TN,37128
1078,1807,1141 FORTRESS BLVD,MURFREESBORO,TN,37128
1079,1809,277 VETERANS PKWY STE A,MURFREESBORO,TN,37128
1080,1810,220 BARFIELD CRESCENT RD,MURFREESBORO,TN,37128
1081,1812,2618 MERCHANTS WALK,MURFREESBORO,TN,37128
1082,1814,2606 MERCHANTS WALK,MURFREESBORO,TN,37128
1083,1815,2626 MERCHANTS WALK,MURFREESBORO,TN,37128
1084,1819,4183 FRANKLIN RD STE B5,MURFREESBORO,TN,37128
1085,1820,4504 VETERANS PKWY,MURFREESBORO,TN,37128
1086,1822,3295 FRANKLIN RD,MURFREESBORO,TN,37128
1087,1825,2441 OLD FORT PKWY,MURFREESBORO,TN,37128
1088,1827,2706 OLD FORT PKWY STE E,MURFREESBORO,TN,37128
1089,1828,4183 FRANKLIN RD,MURFREESBORO,TN,37128
1090,1832,4183 FRANKLIN RD STE 5B,MURFREESBORO,TN,37128
1091,1833,2812 OLD FORT PKWY,MURFREESBORO,TN,37128
1092,1835,2863 OLD FORT PKWY STE C,MURFREESBORO,TN,37128
1093,1836,102 CAMDEN CT,MURFREESBORO,TN,37128
1094,1837,522B BRANDIES CIR,MURFREESBORO,TN,37128
1095,1838,2805 OLD FORT PKWY,MURFREESBORO,TN,37128
1096,1841,2395 NEW SALEM HWY,MURFREESBORO,TN,37128
1097,1842,2658 NEW SALEM HWY STE A5,MURFREESBORO,TN,37128
1098,1843,725 SHADY GROVE DR,MURFREESBORO,TN,37128
1099,1844,570 BRANDIES CIR,MURFREESBORO,TN,37128
1100,1847,522A BRANDIES CIR,MURFREESBORO,TN,37128
1101,1849,538 BRANDIES CIR,MURFREESBORO,TN,37128
1102,1853,8950 US-64,LAKELAND,TN,38002
1103,1854,8755 CHAFFEE ROAD,ARLINGTON,TN,38002
1104,1855,9621 DAVIES PLANTATION RD,LAKELAND,TN,38002
1105,1856,4957 SHIRA DRIVE,ARLINGTON,TN,38002
1106,1857,11437 MILTON WILSON RD,ARLINGTON,TN,38002
1107,1858,5969 POLK STREET,ARLINGTON,TN,38002
1108,1859,"5226 AIRLINE RD,",ARLINGTON,TN,38002
1109,1860,"9775 HWY 64 , SUITE 101",ARLINGTON,TN,38002
1110,1861,5780 AIRLINE RD,ARLINGTON,TN,38002
1111,1862,8950 US HIGHWAY 64,LAKELAND,TN,38002
1112,1863,8950 US HIGHWAY 64 STE 108,LAKELAND,TN,38002
1113,1866,9775 HIGHWAY 64 STE 101,ARLINGTON,TN,38002
1114,1870,535 GALLATIN PIKE S,MADISON,TN,37115
1115,1871,117 GALLATIN PIKE N,MADISON,TN,37115
1116,1872,1208 S GRAYCROFT,MADISON,TN,37115
1117,1873,505 MYATT DRIVE,MADISON,TN,37115
1118,1874,106 E DUE WEST AVE,MADISON,TN,37115
1119,1875,500 LENTZ DR STE 40,MADISON,TN,37115
1120,1876,2153 GALLATIN PIKE N,MADISON,TN,37115
1121,1885,2285 GALLATIN PIKE N,MADISON,TN,37115
1122,1886,1570 GALLATIN PIKE N,MADISON,TN,37115
1123,1887,200 GLEAVES ST,MADISON,TN,37115
1124,1892,106 CUDE LN,MADISON,TN,37115
1125,1894,85 CUDE LN,MADISON,TN,37115
1126,1899,416 W OLD HICKORY BLVD,MADISON,TN,37115
1127,1900,231A W OLD HICKORY BLVD,MADISON,TN,37115
1128,1903,231 W OLD HICKORY BLVD,MADISON,TN,37115
1129,1908,1031 E OLD HICKORY BLVD,MADISON,TN,37115
1130,1912,607 W DUE WEST AVE,MADISON,TN,37115
1131,1914,312 HOSPITAL DR,MADISON,TN,37115
1132,1916,500 LENTZ DR,MADISON,TN,37115
1133,1920,500 LENTZ DR STE 60,MADISON,TN,37115
1134,1921,500 LENTZ DR STE 70,MADISON,TN,37115
1135,1925,1309 BRIARVILLE RD,MADISON,TN,37115
1136,1928,5706 BENJAMIN CENTER DR STE 103,TAMPA,FL,33634
1137,1930,303 N WILLOW AVE,COOKEVILLE,TN,38501
1138,1931,303 N OAK AVE,COOKEVILLE,TN,38501
1139,1932,22 N JEFFERSON AVE,COOKEVILLE,TN,38501
1140,1933,121 S JEFFERSON AVE,COOKEVILLE,TN,38501
1141,1934,22 NORTH JEFFERSON AVE,COOKEVILLE,TN,38501
1142,1935,220 N WASHINGTON AVE,COOKEVILLE,TN,38501
1143,1936,EXIT 288 OFF I-40,COOKEVILLE,TN,38501
1144,1937,202 SHIPLEY STREET,COOKEVILLE,TN,38501
1145,1939,1100 NEAL ST STE A,COOKEVILLE,TN,38501
1146,1940,1100 NEAL ST STE B,COOKEVILLE,TN,38501
1147,1942,620 E 10TH ST,COOKEVILLE,TN,38501
1148,1945,620 E 10TH STREET,COOKEVILLE,TN,38501
1149,1946,327 N CEDAR AVE,COOKEVILLE,TN,38501
1150,1951,219 N OAK AVE,COOKEVILLE,TN,38501
1151,1955,33 W 3RD ST,COOKEVILLE,TN,38501
1152,1963,308 E 1ST ST,COOKEVILLE,TN,38501
1153,1970,121 S DIXIE AVE,COOKEVILLE,TN,38501
1154,1972,115 S JEFFERSON AVE,COOKEVILLE,TN,38501
1155,1974,121 S WASHINGTON AVE,COOKEVILLE,TN,38501
1156,1978,350 S LOWE AVE,COOKEVILLE,TN,38501
1157,1980,798 W OAK DR,COOKEVILLE,TN,38501
1158,1981,694 S WILLOW AVE,COOKEVILLE,TN,38501
1159,1983,120 W JACKSON ST,COOKEVILLE,TN,38501
1160,1984,510 S JEFFERSON AVE,COOKEVILLE,TN,38501
1161,1986,920 SOUTH WILLOW AVE,COOKEVILLE,TN,38501
1162,1987,920 S WILLOW AVE,COOKEVILLE,TN,38501
1163,1989,738 E SPRING ST,COOKEVILLE,TN,38501
1164,1993,787 S WILLOW AVE STE B,COOKEVILLE,TN,38501
1165,1994,416 W JACKSON ST STE A,COOKEVILLE,TN,38501
1166,1995,390 S LOWE AVE,COOKEVILLE,TN,38501
1167,1996,755 E VETERANS DR,COOKEVILLE,TN,38501
1168,1997,1265 INTERSTATE DR STE 101,COOKEVILLE,TN,38501
1169,2000,187 N GRUNDY QUARLES HWY,GAINESBORO,TN,38562
1170,2001,311 SUMMAR DR,JACKSON,TN,38301
1171,2002,295 SUMMAR AVE,JACKSON,TN,38301
1172,2003,21 MERIDIAN SPRINGS DRIVE,JACKSON,TN,38301
1173,2004,681 SKYLINE DRIVE,JACKSON,TN,38301
1174,2005,118 JACKSON WALK PLZ,JACKSON,TN,38301
1175,2006,1408 N HIGHLAND AVE STE 101,JACKSON,TN,38301
1176,2007,1108 WHITEHALL ST,JACKSON,TN,38301
1177,2008,609 SKYLINE DR,JACKSON,TN,38301
1178,2013,544 ROLAND AVE,JACKSON,TN,38301
1179,2014,332 LANE AVE,JACKSON,TN,38301
1180,2015,504 N HIGHLAND AVE,JACKSON,TN,38301
1181,2016,340 N HAYS AVE,JACKSON,TN,38301
1182,2017,1523 S HIGHLAND AVE,JACKSON,TN,38301
1183,2019,1523 SOUTH HIGHLAND AVENUE,JACKSON,TN,38301
1184,2021,2064 S HIGHLAND AVE,JACKSON,TN,38301
1185,2022,67 BOLIVAR HWY,JACKSON,TN,38301
1186,2024,919 CONFERENCE DR STE 5,GOODLETTSVILLE,TN,37072
1187,2025,3700 BLUE SPRING RD NW STE F,HUNTSVILLE,AL,35810
1188,2026,8090 HIGHWAY 100,NASHVILLE,TN,37221
1189,2027,7041 HIGHWAY 70 S,NASHVILLE,TN,37221
1190,2028,917 HARPETH VALLEY PL,NASHVILLE,TN,37221
1191,2029,7518 HIGHWAY 70 S STE B,NASHVILLE,TN,37221
1192,2031,917 HARPETH VALLEY PLACE,NASHVILLE,TN,37221
1193,2032,7648 HWY 70 S,NASHVILLE,TN,37221
1194,2033,7640 US HWY 70 SOUTH,NASHVILLE,TN,37221
1195,2035,8134 SAWYER BROWN RD,NASHVILLE,TN,37221
1196,2036,8120 SAWYER BROWN RD,NASHVILLE,TN,37221
1197,2038,8131 SAWYER BROWN RD,NASHVILLE,TN,37221
1198,2039,8131 SAWYER BROWN RD STE 501,NASHVILLE,TN,37221
1199,2043,7633 HIGHWAY 70 S,NASHVILLE,TN,37221
1200,2045,7648 HIGHWAY 70 S,NASHVILLE,TN,37221
1201,2046,7640 HIGHWAY 70 S STE 105,NASHVILLE,TN,37221
1202,2047,7640 HIGHWAY 70 S,NASHVILLE,TN,37221
1203,2048,7640 HWY 70 S,NASHVILLE,TN,37221
1204,2050,165B BELLE FOREST CIR,NASHVILLE,TN,37221
1205,2051,129 BELLE FOREST CIR,NASHVILLE,TN,37221
1206,2053,131 BELLE FOREST CIR,NASHVILLE,TN,37221
1207,2055,121 BELLE FOREST CIR,NASHVILLE,TN,37221
1208,2057,121 BELLE FOREST CIR STE 2,NASHVILLE,TN,37221
1209,2058,7095 HIGHWAY 70 S,BELLEVUE,TN,37221
1210,2064,508 CABOT PL,NASHVILLE,TN,37221
1211,2065,7839 OLD HARDING RD,NASHVILLE,TN,37221
1212,2066,7839 OLD HARDING PIKE,NASHVILLE,TN,37221
1213,2073,7041 HIGHWAY 70 S STE 7,NASHVILLE,TN,37221
1214,2076,411 PRINCETON ROAD,JOHNSON CITY,TN,37601
1215,2077,203 BROYLES DR,JOHNSON CITY,TN,37601
1216,2078,508 PRINCETON RD,JOHNSON CITY,TN,37601
1217,2079,219 PRINCETON ROAD,JOHNSON CITY,TN,37601
1218,2080,604 NORTH ROAN STREET,JOHNSON CITY,TN,37601
1219,2081,502 B PRINCETON RD,JOHNSONCITY,TN,37601
1220,2082,400 E WATAUGA AVE,JOHNSON CITY,TN,37601
1221,2083,3900 BRISTOL HWY # B-14,JOHNSON CITY,TN,37601
1222,2084,2301 N ROAN ST,JOHNSON CITY,TN,37601
1223,2085,302 WESLEY ST,JOHNSON CITY,TN,37601
1224,2086,502 PRINCETON RD STE B,JOHNSON CITY,TN,37601
1225,2087,402 PRINCETON RD,JOHNSON CITY,TN,37601
1226,2093,508 PRINCETON RD STE 101,JOHNSON CITY,TN,37601
1227,2095,219 PRINCETON RD,JOHNSON CITY,TN,37601
1228,2096,111 RIDGEMONT RD,JOHNSON CITY,TN,37601
1229,2097,513 E UNAKA AVE,JOHNSON CITY,TN,37601
1230,2099,515 E WATAUGA AVE,JOHNSON CITY,TN,37601
1231,2101,106 EAST UNAKA AVE,JOHNSON CITY,TN,37601
1232,2102,122 E WATAUGA AVE,JOHNSON CITY,TN,37601
1233,2103,1331 MILLIGAN HWY,JOHNSON CITY,TN,37601
1234,2104,7223 WINCHESTER RD,MEMPHIS,TN,38125
1235,2105,3705 MALCO WAY,MEMPHIS,TN,38125
1236,2106,7948 WINCHESTER RD,MEMPHIS,TN,38125
1237,2107,7948 WINCHESTER RD STE 108,MEMPHIS,TN,38125
1238,2109,7825 WINCHESTER RD STE 115,MEMPHIS,TN,38125
1239,2110,3267 HACKS CROSS ROAD,MEMPHIS,TN,38125
1240,2111,4205 HACKS CROSS RD,MEMPHIS,TN,38125
1241,2113,3285 HACKS CROSS RD,MEMPHIS,TN,38125
1242,2116,3285 HACKS CROSS RD STE 101,MEMPHIS,TN,38125
1243,2117,1284 SPRING CREEK DR,NASHVILLE,TN,37209
1244,2118,4003 CHARLOTTE AVE,NASHVILLE,TN,37209
1245,2119,6202 CHARLOTTE AVE,NASHVILLE,TN,37209
1246,2120,2500 CHARLOTTE AVE,NASHVILLE,TN,37209
1247,2121,4502 CHARLOTTE PIKE,NASHVILLE,TN,37209
1248,2122,7575 COCKRILL BEND ROAD,NASHVILLE,TN,37209
1249,2124,724 WILLIAM HOWARD PL,NASHVILLE,TN,37209
1250,2125,908 34TH AVE. N.,NASHVILLE,TN,37209
1251,2126,908 34TH AVE N,NASHVILLE,TN,37209
1252,2127,406 MORROW RD,NASHVILLE,TN,37209
1253,2129,296 WHITE BRIDGE PIKE,NASHVILLE,TN,37209
1254,2130,4300 CHARLOTTE AVE,NASHVILLE,TN,37209
1255,2131,4502 CHARLOTTE AVE,NASHVILLE,TN,37209
1256,2134,710 SUMMERLY DR,NASHVILLE,TN,37209
1257,2135,6606 CHARLOTTE PIKE STE 102,NASHVILLE,TN,37209
1258,2136,7277 CHARLOTTE PIKE,NASHVILLE,TN,37209
1259,2137,512 OLD HICKORY BLVD,NASHVILLE,TN,37209
1260,2138,6084 14TH ST W STE B-5,BRADENTON,FL,34207
1261,2140,69160 RAMON RD,CATHEDRAL CITY,CA,92234
1262,2141,107 BONNABROOK DR,HERMITAGE,TN,37076
1263,2142,3913 LEBANON PIKE,HERMITAGE,TN,37076
1264,2143,260 JACKSON MEADOWS DR,HERMITAGE,TN,37076
1265,2144,107 BONNABROOK DR STE 1,HERMITAGE,TN,37076
1266,2145,260 JACKSON MEADOWS DR # 1425,HERMITAGE,TN,37076
1267,2146,5751 OLD HICKORY BLVD,HERMITAGE,TN,37076
1268,2147,3515 CENTRAL PIKE,HERMITAGE,TN,37076
1269,2148,4243 LEBANON PIKE,HERMITAGE,TN,37076
1270,2151,4243 LEBANON RD,HERMITAGE,TN,37076
1271,2152,4251 LEBANON PIKE,HERMITAGE,TN,37076
1272,2156,4757 ANDREW JACKSON PKWY,HERMITAGE,TN,37076
1273,2157,4730 LEBANON PIKE STE 101,HERMITAGE,TN,37076
1274,2158,4761 ANDREW JACKSON PKWY,HERMITAGE,TN,37076
1275,2167,4733 ANDREW JACKSON PKWY,HERMITAGE,TN,37076
1276,2180,3515 CENTRAL PIKE STE 202,HERMITAGE,TN,37076
1277,2181,3515 CENTRAL PIKE STE 204,HERMITAGE,TN,37076
1278,2182,5651 FRIST BLVD,HERMITAGE,TN,37076
1279,2185,5651 FRIST BLVD STE 300,HERMITAGE,TN,37076
1280,2186,3441 LEBANON PIKE,HERMITAGE,TN,37076
1281,2189,5045 OLD HICKORY BLVD STE 102,HERMITAGE,TN,37076
1282,2190,5518 OLD HICKORY BLVD,HERMITAGE,TN,37076
1283,2191,5518 OLD HICKORY BLVD STE A,HERMITAGE,TN,37076
1284,2192,5114 OLD HICKORY BLVD STE 200,HERMITAGE,TN,37076
1285,2194,6036 HAGARS GROVE PASS,HERMITAGE,TN,37076
1286,2198,1055 N. HOUSTON LEVEE RD.,CORDOVA,TN,38018
1287,2199,1890 N GERMANTOWN PARKWAY,CORDOVA,TN,38018
1288,2200,8295 CORDOVA ROAD,CORDOVA,TN,38018
1289,2201,831 TIMBER CREEK DR #1,CORDOVA,TN,38018
1290,2202,280 GERMAN OAK DR,CORDOVA,TN,38018
1291,2203,1207 MACON VIEW DR,CORDOVA,TN,38018
1292,2205,315 SOUTH WALNUT BEND ROAD,CORDOVA,TN,38018
1293,2206,831 TIMBER CREEK DR STE 1,CORDOVA,TN,38018
1294,2207,831 TIMBER CREEK DR,CORDOVA,TN,38018
1295,2209,92 TIMBER CREEK DR,CORDOVA,TN,38018
1296,2210,130 TIMBER CREEK DR,CORDOVA,TN,38018
1297,2211,8135 WALNUT GROVE RD,CORDOVA,TN,38018
1298,2214,124 TIMBER CREEK DR,CORDOVA,TN,38018
1299,2215,86 TIMBER CREEK DR,CORDOVA,TN,38018
1300,2217,8790 WALNUT GROVE RD,CORDOVA,TN,38018
1301,2218,1028 N GERMANTOWN PKWY,CORDOVA,TN,38018
1302,2219,694 N GERMANTOWN PKWY,CORDOVA,TN,38018
1303,2221,850 WILLOW TREE CIR,CORDOVA,TN,38018
1304,2226,465 N GERMANTOWN PKWY,CORDOVA,TN,38018
1305,2227,1055 N HOUSTON LEVEE RD,CORDOVA,TN,38018
1306,2228,695 N GERMANTOWN PKWY STE 101,CORDOVA,TN,38018
1307,2231,8520 MACON RD,CORDOVA,TN,38018
1308,2233,315 S WALNUT BEND RD,CORDOVA,TN,38018
1309,2235,278 GERMAN OAK DR,CORDOVA,TN,38018
1310,2236,278 GERMAN OAK DR.,"CORDOVA,",TN,38018
1311,2240,298 GERMANTOWN BEND CV,CORDOVA,TN,38018
1312,2241,247 GERMANTOWN BEND CV,CORDOVA,TN,38018
1313,2242,8159 WALNUT GROVE RD,CORDOVA,TN,38018
1314,2245,8095 MACON RD,CORDOVA,TN,38018
1315,2246,8089 WALNUT RUN RD,CORDOVA,TN,38018
1316,2248,8089 WALNUT RUN RD STE 1,CORDOVA,TN,38018
1317,2249,763 WALNUT KNOLL LN STE 1,CORDOVA,TN,38018
1318,2251,3067 BRICK CHURCH PIKE,NASHVILLE,TN,37207
1319,2253,3443 DICKERSON PIKE,NASHVILLE,TN,37207
1320,2254,521 E TRINITY LN,NASHVILLE,TN,37207
1321,2255,1223 DICKERSON PIKE,NASHVILLE,TN,37207
1322,2256,2340 LEBANON PIKE,NASHVILLE,TN,37214
1323,2257,801 SUNSET DR,JOHNSON CITY,TN,37604
1324,2258,108 W 10TH AVE,JOHNSON CITY,TN,37604
1325,2259,1233 SOUTHWEST AVE EXT,JOHNSON CITY,TN,37604
1326,2260,135 MARKETPLACE DR STE 101,JOHNSON CITY,TN,37604
1327,2262,300 W WATAUGA AVENUE,JOHNSON CITY,TN,37604
1328,2263,2306 KNOB CREEK ROAD #108,JOHNSON CITY,TN,37604
1329,2264,2335 KNOB CREEK ROAD,JOHNSON CITY,TN,37604
1330,2265,300 WEST WATAUGA AVENUE,JOHNSON CITY,TN,37604
1331,2266,2151 CENTURY LANE,JOHNSON CITY,TN,37604
1332,2267,2333 KNOB CREEK RD STE 10,JOHNSON CITY,TN,37604
1333,2268,2151 CENTURY LN,JOHNSON CITY,TN,37604
1334,2269,2335 KNOB CREEK RD,JOHNSON CITY,TN,37604
1335,2271,520 W OAKLAND AVE STE 6,JOHNSON CITY,TN,37604
1336,2272,520 W OAKLAND AVE,JOHNSON CITY,TN,37604
1337,2273,2319 BROWNS MILL RD,JOHNSON CITY,TN,37604
1338,2276,2333 KNOB CREEK RD,JOHNSON CITY,TN,37604
1339,2278,2333 KNOB CREEK RD STE 12,JOHNSON CITY,TN,37604
1340,2279,110 CORPORATE DR STE 140,JOHNSON CITY,TN,37604
1341,2280,1021 W OAKLAND AVE,JOHNSON CITY,TN,37604
1342,2282,1021 W OAKLAND AVE STE 109,JOHNSON CITY,TN,37604
1343,2283,189 CORPORATE DR,JOHNSON CITY,TN,37604
1344,2284,189 CORPORATE DR STE 30,JOHNSON CITY,TN,37604
1345,2286,801 SUNSET DR # A5,JOHNSON CITY,TN,37604
1346,2287,801 SUNSET DR BLDG E # 5,JOHNSON CITY,TN,37604
1347,2291,801 SUNSET DR # E5,JOHNSON CITY,TN,37604
1348,2295,2800 PEOPLES ST STE 60,JOHNSON CITY,TN,37604
1349,2296,2800 PEOPLES ST STE 90,JOHNSON CITY,TN,37604
1350,2300,2806 W MARKET ST,JOHNSON CITY,TN,37604
1351,2303,300 W WATAUGA AVE,JOHNSON CITY,TN,37604
1352,2308,216 W WATAUGA AVE,JOHNSON CITY,TN,37604
1353,2311,215 W WATAUGA AVE,JOHNSON CITY,TN,37604
1354,2312,111 W FAIRVIEW AVE,JOHNSON CITY,TN,37604
1355,2314,111 W. FAIRVIEW AVE,JOHNSON CITY,TN,37604
1356,2316,108 WOODLAWN DR,JOHNSON CITY,TN,37604
1357,2317,1409 W MARKET ST,JOHNSON CITY,TN,37604
1358,2318,1720 W MARKET ST,JOHNSON CITY,TN,37604
1359,2319,1720 W. MARKET ST.,JOHNSON CITY,TN,37604
1360,2320,185 TREASURE LANE,JOHNSON CITY,TN,37604
1361,2321,1233 SW AVE EXT,JOHNSON CITY,TN,37604
1362,2322,712 W WALNUT ST,JOHNSON CITY,TN,37604
1363,2325,401 W WALNUT ST,JOHNSON CITY,TN,37604
1364,2326,1303 SUNSET DR STE 1,JOHNSON CITY,TN,37604
1365,2327,1301 SUNSET DR,JOHNSON CITY,TN,37604
1366,2332,4410 HIGHWAY 17 UNIT B6,MURRELLS INLET,SC,29576
1367,2333,1599 FORT HENRY DR,KINGSPORT,TN,37664
1368,2334,417 HUDSON DR,ELIZABETHTON,TN,37643
1369,2335,1014 WEST G STREET,ELIZABETHTON,TN,37643
1370,2336,519 EAST F STREET,ELIZABETHTON,TN,37643
1371,2337,105 HUDSON DR,ELIZABETHTON,TN,37643
1372,2340,1213 W G ST,ELIZABETHTON,TN,37643
1373,2342,208 PARKWAY BLVD,ELIZABETHTON,TN,37643
1374,2344,407 HUDSON DR,ELIZABETHTON,TN,37643
1375,2349,113 CHARLIE ROBINSON AVE,ELIZABETHTON,TN,37643
1376,2350,719 W G ST,ELIZABETHTON,TN,37643
1377,2351,403 E G ST,ELIZABETHTON,TN,37643
1378,2353,1975 W ELK AVE STE 2,ELIZABETHTON,TN,37643
1379,2354,1201 HIGHWAY 37 19E STE 3,ELIZABETHTON,TN,37643
1380,2355,5366 ESTATE OFFICE DR,MEMPHIS,TN,38119
1381,2356,9225 WESTLAND DR STE 101,KNOXVILLE,TN,37922
1382,2357,10641 DEERBROOK DR,KNOXVILLE,TN,37922
1383,2358,1626 CHOTO MARKETS WAY,KNOXVILLE,TN,37922
1384,2359,3001 KNOXVILLE CENTER DR STE 1100,KNOXVILLE,TN,37924
1385,2360,9724 KINGSTON PKE,KNOXVILLE,TN,37922
1386,2361,10641 DEERBROOK DRIVE,KNOXVILLE,TN,37922
1387,2362,200 FORT SANDERS WEST BLVD,KNOXVILLE,TN,37922
1388,2363,9925 WESTLAND DRIVE,KNOXVILLE,TN,37922
1389,2364,140 E MARKET PLACE BLVD,KNOXVILLE,TN,37922
1390,2365,10000 KINGSTEN PIKE,KNOXVILLE,TN,37922
1391,2366,10652 DEERBROOK DRIVE,KNOXVILLE,TN,37922
1392,2367,10642 DEERBROOK DR,KNOXVILLE,TN,37922
1393,2368,10652 DEERBROOK DR,KNOXVILLE,TN,37922
1394,2372,310 SIMMONS RD,KNOXVILLE,TN,37922
1395,2376,10641 DEERBROOK DR STE 1,KNOXVILLE,TN,37922
1396,2377,215 CENTER PARK DRIVE,KNOXVILLE,TN,37922
1397,2379,215 CENTER PARK DR STE 150,KNOXVILLE,TN,37922
1398,2380,130 MABRY HOOD RD,KNOXVILLE,TN,37922
1399,2381,140 MARKET PLACE BLVD,KNOXVILLE,TN,37922
1400,2383,117 HUXLEY RD # B-2,KNOXVILLE,TN,37922
1401,2384,117 HUXLEY RD STE C,KNOXVILLE,TN,37922
1402,2385,117 HUXLEY RD,KNOXVILLE,TN,37922
1403,2387,113 S DAVID LN,KNOXVILLE,TN,37922
1404,2388,121 S DAVID LN,KNOXVILLE,TN,37922
1405,2390,10421 LOVELL CENTER DR,KNOXVILLE,TN,37922
1406,2391,10265 KINGSTON PIKE STE B,KNOXVILLE,TN,37922
1407,2392,10261 KINGSTON PIKE,KNOXVILLE,TN,37922
1408,2396,10434 KINGSTON PIKE,KNOXVILLE,TN,37922
1409,2397,111 FOX RD,KNOXVILLE,TN,37922
1410,2398,111 FOX RD STE 201,KNOXVILLE,TN,37922
1411,2399,9950 KINGSTON PIKE,KNOXVILLE,TN,37922
1412,2400,10000 KINGSTON PIKE,KNOXVILLE,TN,37922
1413,2402,280 FORT SANDERS WEST BLVD,KNOXVILLE,TN,37922
1414,2404,280 FORT SANDERS WEST BLVD STE 117,KNOXVILLE,TN,37922
1415,2406,161 CAPITAL DRIVE,KNOXVILLE,TN,37922
1416,2407,323 FOX RD,KNOXVILLE,TN,37922
1417,2411,161 CAPITAL DR,KNOXVILLE,TN,37922
1418,2412,117 CAPITAL DR,KNOXVILLE,TN,37922
1419,2413,101 SHERLAKE LN,KNOXVILLE,TN,37922
1420,2414,120 CAPITOL DR,KNOXVILLE,TN,37922
1421,2416,120 CAPITAL DR,KNOXVILLE,TN,37922
1422,2418,124 BRANDON RD,KNOXVILLE,TN,37922
1423,2419,9310 EMERALD WOODS WAY,KNOXVILLE,TN,37922
1424,2420,438 AVERY WAY APT 8102,KNOXVILLE,TN,37922
1425,2421,9225 WESTLAND DR # 101,KNOXVILLE,TN,37922
1426,2422,1417 KENSINGTON DR,KNOXVILLE,TN,37922
1427,2423,2020 TOWN CENTER BLVD,KNOXVILLE,TN,37922
1428,2427,2061 THUNDERHEAD RD STE E,KNOXVILLE,TN,37922
1429,2431,301 N SHACKLEFORD RD,LITTLE ROCK,AR,72211
1430,2432,2729 W ANDREW JOHNSON HWY,MORRISTOWN,TN,37814
1431,2434,2729 WEST ANDREW JOHNSON HWY,MORRISTOWN,TN,37814
1432,2436,900 WEST FIRST NORTH STREET,MORRISTOWN,TN,37814
1433,2437,4651 W ANDREW JOHNSON HWY,MORRISTOWN,TN,37814
1434,2438,3769 W ANDREW JOHNSON HWY,MORRISTOWN,TN,37814
1435,2439,307 MCCRARY DR,MORRISTOWN,TN,37814
1436,2440,2771 W ANDREW JOHNSON HWY,MORRISTOWN,TN,37814
1437,2444,2307 W ANDREW JOHNSON HWY,MORRISTOWN,TN,37814
1438,2445,1950 W MORRIS BLVD,MORRISTOWN,TN,37814
1439,2447,856 W 4TH NORTH ST,MORRISTOWN,TN,37814
1440,2448,424 N HIGH ST,MORRISTOWN,TN,37814
1441,2452,902 W MAIN ST,MORRISTOWN,TN,37814
1442,2453,920 W MAIN ST,MORRISTOWN,TN,37814
1443,2455,836 W 1ST NORTH ST,MORRISTOWN,TN,37814
1444,2456,910 W 1ST NORTH ST,MORRISTOWN,TN,37814
1445,2457,900 W 1ST NORTH ST,MORRISTOWN,TN,37814
1446,2458,950 W 1ST NORTH ST,MORRISTOWN,TN,37814
1447,2461,1025 W 1ST NORTH ST,MORRISTOWN,TN,37814
1448,2464,331 W MAIN ST,MORRISTOWN,TN,37814
1449,2465,225 W MAIN ST,MORRISTOWN,TN,37814
1450,2468,326 W 1ST NORTH ST,MORRISTOWN,TN,37814
1451,2469,216 E 1ST NORTH ST,MORRISTOWN,TN,37814
1452,2470,2104 E ANDREW JOHNSON HWY,MORRISTOWN,TN,37814
1453,2471,233 KING AVE,MORRISTOWN,TN,37814
1454,2473,710 NORTH BRITTAIN STREET,SHELBYVILLE,TN,37160
1455,2474,312 E HOLLAND STR,SHELBYVILLE,TN,37160
1456,2475,312 EAST HOLLAND STR,SHELBYVILLE,TN,37160
1457,2476,901 MADISON ST,SHELBYVILLE,TN,37160
1458,2477,1872 N MAIN ST,SHELBYVILLE,TN,37160
1459,2478,2012 N MAIN ST,SHELBYVILLE,TN,37160
1460,2480,1006 COLLOREDO BLVD,SHELBYVILLE,TN,37160
1461,2482,603 N MAIN ST,SHELBYVILLE,TN,37160
1462,2485,401 DEERY ST,SHELBYVILLE,TN,37160
1463,2488,710 N BRITTAIN ST,SHELBYVILLE,TN,37160
1464,2490,710 N BRITTAIN ST STE C,SHELBYVILLE,TN,37160
1465,2492,24 LIBERTY LN,MCMINNVILLE,TN,37110
1466,2493,1200 SOUTH CHANCERY ST,MCMINNVILLE,TN,37110
1467,2494,1401 SPARTA ST,MC MINNVILLE,TN,37110
1468,2497,1432 SPARTA ST,MC MINNVILLE,TN,37110
1469,2498,241 NORTHGATE DR,MC MINNVILLE,TN,37110
1470,2499,126 HOBSON ST,MC MINNVILLE,TN,37110
1471,2500,304 N CHANCERY ST,MC MINNVILLE,TN,37110
1472,2502,100 MORRISON ST,MC MINNVILLE,TN,37110
1473,2503,100 MORRISON ST,MCMINNVILLE,TN,37110
1474,2504,205 DONNELL ST,MC MINNVILLE,TN,37110
1475,2507,2681 S CHANCERY ST,MC MINNVILLE,TN,37110
1476,2508,2681 S CHANCERY ST,MCMINNVILLE,TN,37110
1477,2510,1200 S CHANCERY ST,MC MINNVILLE,TN,37110
1478,2511,2170 BIG SPRING RD,MCMINNVILLE,TN,37110
1479,2513,125 CHEROKEE BLVD APT 119,CHATTANOOGA,TN,37405
1480,2514,4957 SWINYAR DR STE 107,OOLTEWAH,TN,37363
1481,2515,7808 MAHAN GAP RD,OOLTEWAH,TN,37363
1482,2516,8202 APISON PIKE,OOLTEWAH,TN,37363
1483,2517,8985 OLD LEE HWY,OOLTEWAH,TN,37363
1484,2518,4957 SWINYAR DR,OOLTEWAH,TN,37363
1485,2520,4957 SWINYAR DR STE 111,OOLTEWAH,TN,37363
1486,2521,9325 APISON PIKE STE 119,OOLTEWAH,TN,37363
1487,2522,5564 LITTLE DEBBIE PKWY STE 120,OOLTEWAH,TN,37363
1488,2523,5572 LITTLE DEBBIE PKWY,OOLTEWAH,TN,37363
1489,2525,9203 LEE HWY,OOLTEWAH,TN,37363
1490,2526,9560 LEGACY OAKS DR,OOLTEWAH,TN,37363
1491,2527,6107 OOLTEWAH GEORGETOWN RD,OOLTEWAH,TN,37363
1492,2532,5913 OOLTEWAH RINGGOLD RD # 103,OOLTEWAH,TN,37363
1493,2533,5913 MAIN ST,OOLTEWAH,TN,37363
1494,2534,5913 MAIN ST STE 101,OOLTEWAH,TN,37363
1495,2535,5958 SNOW HILL RD,OOLTEWAH,TN,37363
1496,2537,5958 SNOW HILL RD STE 144,OOLTEWAH,TN,37363
1497,2538,5520 HIGH ST,OOLTEWAH,TN,37363
1498,2539,9325 APISON PIKE STE 104,OOLTEWAH,TN,37363
1499,2540,5121 OOLTEWAH RINGGOLD RD,OOLTEWAH,TN,37363
1500,2541,9413 APISON PIKE,OOLTEWAH,TN,37363
1501,2542,8720 WALNUT LEAF DR,OOLTEWAH,TN,37363
1502,2544,2625 OLD NILES FERRY RD,MARYVILLE,TN,37803
1503,2545,2947 SAM JAMES RD,MARYVILLE,TN,37803
1504,2546,1401 MONTVALE STATION RD,MARYVILLE,TN,37803
1505,2547,619 SMITHVIEW DR,MARYVILLE,TN,37803
1506,2548,610 SMITHVIEW DR,MARYVILLE,TN,37803
1507,2549,632 SMITHVIEW DR,MARYVILLE,TN,37803
1508,2552,842 BROOKSHIRE BLVD,MARYVILLE,TN,37803
1509,2553,5168 MURFREESBORO RD,LA VERGNE,TN,37086
1510,2554,1925 MADISON SQUARE BLVD,LA VERGNE,TN,37086
1511,2555,379 WALDRON RD,LAVERGNE,TN,37086
1512,2556,"6001 JACKSON SQUARE BLVD., STE. 1001",LAVERGNE,TN,37086
1513,2558,5295 MURFREESBORO RD,LA VERGNE,TN,37086
1514,2560,6001 JACKSON SQUARE BLVD,LA VERGNE,TN,37086
1515,2561,6001 JACKSON SQUARE BLVD STE 1001,LA VERGNE,TN,37086
1516,2562,101 CHEERFUL PL,LA VERGNE,TN,37086
1517,2564,1217 HIGHLAND HILLS DR,LA VERGNE,TN,37086
1518,2566,115 INTERSTATE DR NW,CLEVELAND,TN,37312
1519,2568,115 INTERSTATE DRIVE NW,CLEVELAND,TN,37312
1520,2570,609 PAUL HUFF PKWY NW,CLEVELAND,TN,37312
1521,2573,3439 KEITH ST NW,CLEVELAND,TN,37312
1522,2574,1045 PEERLESS XING NW,CLEVELAND,TN,37312
1523,2576,165 MOUSE CREEK RD NW,CLEVELAND,TN,37312
1524,2580,150 STUART XING NE,CLEVELAND,TN,37312
1525,2583,148 STUART CROSSING NE,CLEVELAND,TN,37312
1526,2586,148 STUART XING NE,CLEVELAND,TN,37312
1527,2589,64 MOUSE CREEK RD NW,CLEVELAND,TN,37312
1528,2590,4335 KEITH ST NW,CLEVELAND,TN,37312
1529,2591,4355 KEITH ST NW,CLEVELAND,TN,37312
1530,2598,4160 OCOEE ST N,CLEVELAND,TN,37312
1531,2599,4160 OCOEE ST N STE 2,CLEVELAND,TN,37312
1532,2600,430 STUART RD NE,CLEVELAND,TN,37312
1533,2604,430 STUART RD NE STE 2,CLEVELAND,TN,37312
1534,2605,4245 N OCOEE ST SUITE 4,CLEVELAND,TN,37312
1535,2606,414 BERYWOOD TRL NW,CLEVELAND,TN,37312
1536,2609,413 BERYWOOD TRL NW,CLEVELAND,TN,37312
1537,2610,4141 RINGGOLD RD,EAST RIDGE,TN,37412
1538,2612,4100 HIDDEN FERN LN N,BARTLETT,TN,38135
1539,2613,2648 APD 40,CLEVELAND,TN,37323
1540,2614,107 NEW BRICK CHURCH PIKE,GOODLETTSVILLE,TN,37072
1541,2615,318 NORTHCREEK BLVD,GOODLETTSVILLE,TN,37072
1542,2616,1000 JACKSON RD,GOODLETTSVILLE,TN,37072
1543,2617,3050 BUSINESS PARK CIR STE 100,GOODLETTSVILLE,TN,37072
1544,2618,313 BLUEBIRD DR,GOODLETTSVILLE,TN,37072
1545,2619,133 NORTHCREEK BLVD,GOODLETTSVILLE,TN,37072
1546,2620,500 B LONG HOLLOW PIKE,GOODLETTSVILLE,TN,37072
1547,2621,911 MEADOWLARK LN,GOODLETTSVILLE,TN,37072
1548,2622,200 RIVERGATE PKWY,GOODLETTSVILLE,TN,37072
1549,2623,306 BLUEBIRD DR,GOODLETTSVILLE,TN,37072
1550,2625,300 RIVERGATE PARKWAY,GOODLETTSVILLE,TN,37072
1551,2630,900 CONFERENCE DR,GOODLETTSVILLE,TN,37072
1552,2634,900 CONFERENCE DR STE 6A,GOODLETTSVILLE,TN,37072
1553,2638,515 RIVERGATE PKWY,GOODLETTSVILLE,TN,37072
1554,2639,206 RIVERGATE PKWY,GOODLETTSVILLE,TN,37072
1555,2644,525 RIVERGATE PKWY,GOODLETTSVILLE,TN,37072
1556,2645,313A BLUEBIRD DR,GOODLETTSVILLE,TN,37072
1557,2652,818 WREN RD,GOODLETTSVILLE,TN,37072
1558,2653,813 RIVERGATE PKWY,GOODLETTSVILLE,TN,37072
1559,2654,2020 CALDWELL DR,GOODLETTSVILLE,TN,37072
1560,2657,139 ROSE GARDEN LN,GOODLETTSVILLE,TN,37072
1561,2659,1000 JACKSON RD STE 200,GOODLETTSVILLE,TN,37072
1562,2660,3000 BUSINESS PARK CIR STE 100,GOODLETTSVILLE,TN,37072
1563,2661,3012 BUSINESS PARK CIR,GOODLETTSVILLE,TN,37072
1564,2662,3000 BUSINESS PARK CIR,GOODLETTSVILLE,TN,37072
1565,2663,3050 BUSINESS PARK CIR,GOODLETTSVILLE,TN,37072
1566,2664,2020 CALDWELL DRIVE,GOODSLETTSVILLE,TN,37072
1567,2667,3102 BUSINESS PARK CIR,GOODLETTSVILLE,TN,37072
1568,2671,140 E. DIVISION RD,OAK RIDGE,TN,37830
1569,2672,140 WEST TENNESSEE AVE,OAK RIDGE,TN,37830
1570,2673,140 E. DIVISION ROAD,OAK RIDGE,TN,37830
1571,2674,126 EAST DIVISION ROAD,OAK RIDGE,TN,37830
1572,2675,140 W TENNESSEE AVE,OAK RIDGE,TN,37830
1573,2676,661 EMORY VALLEY RD.,OAK RIDGE,TN,37830
1574,2677,1950A OAK RIDGE TRPK,OAK RIDGE,TN,37830
1575,2678,377 S. ILLINOIS AVE.,OAK RIDGE,TN,37830
1576,2680,377 S ILLINOIS AVE,OAK RIDGE,TN,37830
1577,2681,1143 OAK RIDGE TPKE STE 206,OAK RIDGE,TN,37830
1578,2682,108 TULSA RD,OAK RIDGE,TN,37830
1579,2683,106 TULSA RD,OAK RIDGE,TN,37830
1580,2686,349 S ILLINOIS AVE STE 300,OAK RIDGE,TN,37830
1581,2687,400 LABORATORY RD STE 107,OAK RIDGE,TN,37830
1582,2688,420 LABORATORY RD,OAK RIDGE,TN,37830
1583,2692,400 LABORATORY RD STE 101,OAK RIDGE,TN,37830
1584,2693,400 LABORATORY RD,OAK RIDGE,TN,37830
1585,2701,201 BUS TERMINAL RD,OAK RIDGE,TN,37830
1586,2702,115 CENTRAL AVE,OAK RIDGE,TN,37830
1587,2704,150 E DIVISION RD STE 6,OAK RIDGE,TN,37830
1588,2706,140 E DIVISION RD,OAK RIDGE,TN,37830
1589,2709,150 E DIVISION RD,OAK RIDGE,TN,37830
1590,2715,253A LABORATORY RD,OAK RIDGE,TN,37830
1591,2716,255 LABORATORY RD,OAK RIDGE,TN,37830
1592,2718,500 OAK RIDGE TPKE,OAK RIDGE,TN,37830
1593,2719,566 OAK RIDGE TPKE,OAK RIDGE,TN,37830
1594,2720,508 SCARBORO LN,OAK RIDGE,TN,37830
1595,2721,445 S ILLINOIS AVE,OAK RIDGE,TN,37830
1596,2723,700 S ILLINOIS AVE,OAK RIDGE,TN,37830
1597,2724,115 CAPITAL CIR,OAK RIDGE,TN,37830
1598,2725,605 S COOLIDGE ST,MOSES LAKE,WA,98837
1599,2726,1103 CALLAHAN DR,KNOXVILLE,TN,37912
1600,2727,2120 MURFREESBORO PIKE,NASHVILLE,TN,37217
1601,2729,304 GLENGARRY DR,NASHVILLE,TN,37217
1602,2731,2150 MURFREESBORO PIKE,NASHVILLE,TN,37217
1603,2734,2270 MURFREESBORO PIKE,NASHVILLE,TN,37217
1604,2738,2375 MURFREESBORO PIKE,NASHVILLE,TN,37217
1605,2739,2679 MURFREESBORO PIKE,NASHVILLE,TN,37217
1606,2740,2551 MURFREESBORO PIKE,NASHVILLE,TN,37217
1607,2741,2510 MURFREESBORO PIKE,NASHVILLE,TN,37217
1608,2743,325 RURAL HILL RD,NASHVILLE,TN,37217
1609,2744,2653 LAKEVILLA DR,NASHVILLE,TN,37217
1610,2745,2643 LAKEVILLA DR,NASHVILLE,TN,37217
1611,2747,1436 WINFIELD DUNN PKWY,SEVIERVILLE,TN,37876
1612,2748,1436 WINFIELD DUNN PKWY STE 2,SEVIERVILLE,TN,37876
1613,2749,616 MARRIOTT DR,NASHVILLE,TN,37214
1614,2750,275 STEWARTS FERRY PIKE,NASHVILLE,TN,37214
1615,2753,120 DONELSON PIKE,NASHVILLE,TN,37214
1616,2754,2345 DENNYWOOD DR,NASHVILLE,TN,37214
1617,2755,226 SHADY GROVE DR,NASHVILLE,TN,37214
1618,2756,2531 PARK DR,NASHVILLE,TN,37214
1619,2760,3189 LEBANON PIKE,NASHVILLE,TN,37214
1620,2763,2620 OLD LEBANON RD,NASHVILLE,TN,37214
1621,2764,113 GRAYLYNN DR,NASHVILLE,TN,37214
1622,2766,135 DONELSON PIKE,NASHVILLE,TN,37214
1623,2768,130 DONELSON PIKE,NASHVILLE,TN,37214
1624,2772,2708 OLD ELM HILL PIKE,NASHVILLE,TN,37214
1625,2776,932 ALLEN RD,NASHVILLE,TN,37214
1626,2777,441 DONELSON PIKE,NASHVILLE,TN,37214
1627,2778,2828 ELM HILL PIKE,NASHVILLE,TN,37214
1628,2780,1501 WOODLAND POINTE DR,NASHVILLE,TN,37214
1629,2783,555 MARRIOTT DR STE 315,NASHVILLE,TN,37214
1630,2784,314 NORTHCREST DR,SPRINGFIELD,TN,37172
1631,2785,324 NORTHCREST DRIVE,SPRINGFIELD,TN,37172
1632,2786,806 SOUTH BROWN STREET,SPRINGFIELD,TN,37172
1633,2787,3130 TOM AUSTIN HWY STE B,SPRINGFIELD,TN,37172
1634,2788,201 5TH AVE W,SPRINGFIELD,TN,37172
1635,2791,205 5TH AVE W,SPRINGFIELD,TN,37172
1636,2795,113 5TH AVE W,SPRINGFIELD,TN,37172
1637,2796,800 S BROWN ST,SPRINGFIELD,TN,37172
1638,2797,806 S BROWN ST,SPRINGFIELD,TN,37172
1639,2798,2105 PARK PLAZA DR,SPRINGFIELD,TN,37172
1640,2802,314 NORTHCREST DR STE 134,SPRINGFIELD,TN,37172
1641,2806,2701 MEMORIAL BLVD,SPRINGFIELD,TN,37172
1642,2807,3130 TOM AUSTIN HWY STE D,SPRINGFIELD,TN,37172
1643,2809,3807H WESTERN AVENUE,KNOXVILLE,TN,37921
1644,2810,4337 BALL CAMP PK,KNOXVILLE,TN,37921
1645,2811,801 W OLDHAM AVE,KNOXVILLE,TN,37921
1646,2817,5601 WESTERN AVE,KNOXVILLE,TN,37921
1647,2818,4329 BALL CAMP PIKE,KNOXVILLE,TN,37921
1648,2819,2710 SANDERSON RD,KNOXVILLE,TN,37921
1649,2820,2719 KINGSTON PIKE,KNOXVILLE,TN,37919
1650,2822,5816 KINGSTON PIKE,KNOXVILLE,TN,37919
1651,2823,6311 KINGSTON PIKE,KNOXVILLE,TN,37919
1652,2824,7015 KINGSTON PIKE,KNOXVILLE,TN,37919
1653,2825,7424 S. NORTHSHORE DRIVE,KNOXVILLE,TN,37919
1654,2828,103 CONCORD ST,KNOXVILLE,TN,37919
1655,2829,7828 KINGSTON PIKE,KNOXVILLE,TN,37919
1656,2831,6700 BAUM DR,KNOXVILLE,TN,37919
1657,2832,7731 KINGSTON PIKE,KNOXVILLE,TN,37919
1658,2833,6311 KINGSTON PIKE #27W,KNOXVILLE,TN,37919
1659,2834,123 N CONCORD ST,KNOXVILLE,TN,37919
1660,2835,8029 RAY MEARS BLVD,KNOXVILLE,TN,37919
1661,2838,309 CONCORD ST # C,KNOXVILLE,TN,37919
1662,2840,601 S CONCORD ST,KNOXVILLE,TN,37919
1663,2843,601 CONCORD ST,KNOXVILLE,TN,37919
1664,2844,2607 KINGSTON PIKE,KNOXVILLE,TN,37919
1665,2846,6207 HIGHLAND PLACE WAY,KNOXVILLE,TN,37919
1666,2848,6207 HIGHLAND PLACE WAY STE 101,KNOXVILLE,TN,37919
1667,2849,6025 BROOKVALE LN,KNOXVILLE,TN,37919
1668,2850,6230 HIGHLAND PLACE WAY,KNOXVILLE,TN,37919
1669,2856,6230 HIGHLAND PLACE WAY STE 202,KNOXVILLE,TN,37919
1670,2859,6311 KINGSTON PIKE STE 27W,KNOXVILLE,TN,37919
1671,2861,6311 KINGSTON PIKE STE 26W,KNOXVILLE,TN,37919
1672,2870,109 S NORTHSHORE DR,KNOXVILLE,TN,37919
1673,2871,121 S WEISGARBER RD,KNOXVILLE,TN,37919
1674,2873,1715 DOWNTOWN WEST BLVD,KNOXVILLE,TN,37919
1675,2880,7731 KINGSTON PIKE STE 102,KNOXVILLE,TN,37919
1676,2881,6001 WALDEN DR,KNOXVILLE,TN,37919
1677,2883,6001 WALDEN DR STE 1,KNOXVILLE,TN,37919
1678,2884,414 S NORTHSHORE DR,KNOXVILLE,TN,37919
1679,2885,531 ENGLISH VILLAGE WAY APT 731,KNOXVILLE,TN,37919
1680,2886,7424 S NORTHSHORE DR,KNOXVILLE,TN,37919
1681,2889,7427 S NORTHSHORE DR,KNOXVILLE,TN,37919
1682,2891,8232 US HIGHWAY 51 N,MILLINGTON,TN,38053
1683,2892,7799 CHURCH ST,MILLINGTON,TN,38053
1684,2893,8127 HWY 51 N,MILLINGTON,TN,38053
1685,2894,8544 US HIGHWAY 51 N STE 103,MILLINGTON,TN,38053
1686,2897,8020 US HIGHWAY 51 N,MILLINGTON,TN,38053
1687,2901,4801 CUBA MILLINGTON RD,MILLINGTON,TN,38053
1688,2903,5915 N WATKINS RD,MILLINGTON,TN,38053
1689,2904,2154 GOODMAN RD W,HORN LAKE,MS,38637
1690,2905,222 HEADTOWN RD,JONESBOROUGH,TN,37659
1691,2906,404 W JACKSON BLVD,JONESBOROUGH,TN,37659
1692,2907,222 HEADTOWN ROAD,JONESBOROUGH,TN,37659
1693,2908,8609 KINGSTON PIKE,KNOXVILLE,TN,37923
1694,2910,8904 EXECUTIVE PARK DRIVE,KNOXVILLE,TN,37923
1695,2911,240 SOUTH PETERS RD,KNOXVILLE,TN,37923
1696,2912,248 NORTH PETERS PETERS ROAD,KNOXVILLE,TN,37923
1697,2914,240 S PETERS RD,KNOXVILLE,TN,37923
1698,2915,9217 PARK WEST BLVD STE F1,KNOXVILLE,TN,37923
1699,2916,306 PROSPERITY RD,KNOXVILLE,TN,37923
1700,2917,8925 EXECUTIVE PARK DR,KNOXVILLE,TN,37923
1701,2918,8912 TOWN AND COUNTRY CIRCLE,KNOXVILLE,TN,37923
1702,2919,8912 TOWN AND COUNTRY CIR,KNOXVILLE,TN,37923
1703,2925,8912 TOWN AND COUNTRY CIR STE 1,KNOXVILLE,TN,37923
1704,2926,9220 DUTCHTOWN ROAD,KNOXVILLE,TN,37923
1705,2927,248 N PETERS RD,KNOXVILLE,TN,37923
1706,2929,8874 KINGSTON PIKE,KNOXVILLE,TN,37923
1707,2932,264 S PETERS RD,KNOXVILLE,TN,37923
1708,2933,9000 KINGSTON PIKE,KNOXVILLE,TN,37923
1709,2938,121 SUBURBAN RD,KNOXVILLE,TN,37923
1710,2939,6414 GRANITE HILL LN,KNOXVILLE,TN,37923
1711,2940,95 HWY 51 BYPASS WEST,DYERSBURG,TN,38024
1712,2941,174 COMMUNITY PARK ROAD,DYERSBURG,TN,38024
1713,2942,214 PARKVIEW,DYERSBURG,TN,38024
1714,2944,1911 COOK ST,DYERSBURG,TN,38024
1715,2945,1950 US HIGHWAY 51 BYP N,DYERSBURG,TN,38024
1716,2946,95 US HIGHWAY 51 BYP W,DYERSBURG,TN,38024
1717,2952,1999 SAINT JOHN AVE,DYERSBURG,TN,38024
1718,2953,1360 FLOWERING DOGWOOD LN,DYERSBURG,TN,38024
1719,2955,433 E PARKVIEW ST,DYERSBURG,TN,38024
1720,2959,427 TROY AVE,DYERSBURG,TN,38024
1721,2960,1999 ST. JOHN AVENUE,DYERSBURG,TN,38024
1722,2961,212 E COURT ST,DYERSBURG,TN,38024
1723,2962,174 COMMUNITY PARK RD,DYERSBURG,TN,38024
1724,2963,2801 CIVIC CIRCLE BLVD STE 7,MARION,IL,62959
1725,2964,2401 N OCOEE ST,CLEVELAND,TN,37311
1726,2965,150 20TH STREET NW,CLEVELAND,TN,37311
1727,2966,2175-A CHAMBLISS AVE,CLEVELAND,TN,37311
1728,2967,2545 BUSINESS PARK DRIVE,CLEVELAND,TN,37311
1729,2969,755 BROAD ST NW,CLEVELAND,TN,37311
1730,2970,150 20TH ST NW,CLEVELAND,TN,37311
1731,2971,40 25TH ST NW,CLEVELAND,TN,37311
1732,2973,2190 CHAMBLISS AVE NE,CLEVELAND,TN,37311
1733,2974,2175 CHAMBLISS AVE NW,CLEVELAND,TN,37311
1734,2976,2175 CHAMBLISS AVE NW STE A,CLEVELAND,TN,37311
1735,2977,120 23RD ST NW,CLEVELAND,TN,37311
1736,2978,2253 CHAMBLISS AVE NW,CLEVELAND,TN,37311
1737,2980,2292 CHAMBLISS AVE NW,CLEVELAND,TN,37311
1738,2983,2222 CHAMBLISS AVE NW,CLEVELAND,TN,37311
1739,2984,415 25TH ST NW,CLEVELAND,TN,37311
1740,2989,1815 STUART AVE NW,CLEVELAND,TN,37311
1741,2990,375 1ST ST NW,CLEVELAND,TN,37311
1742,2991,201 DOOLEY ST,CLEVELAND,TN,37311
1743,2992,1130 S 3RD ST,MEMPHIS,TN,38106
1744,2993,1154 S BELLEVUE BLVD,MEMPHIS,TN,38106
1745,2996,320 E COLLEGE ST,DICKSON,TN,37055
1746,2997,217 HIGHWAY 46,DICKSON,TN,37055
1747,2998,306 EAST COLLEGE STREET,DICKSON,TN,37055
1748,2999,445 HENSLEE DRIVE,DICKSON,TN,37055
1749,3000,102 HWY 70 EAST,DICKSON,TN,37055
1750,3001,134 US-70,DICKSON,TN,37055
1751,3002,217 HIGHWAY 46 STE D,DICKSON,TN,37055
1752,3003,TN-46 S,DICKSON,TN,37055
1753,3004,445 TN-46 S,DICKSON,TN,37055
1754,3005,606 HENSLEE DRIVE,DICKSON,TN,37055
1755,3006,301 W END AVE,DICKSON,TN,37055
1756,3010,222 N MAIN ST,DICKSON,TN,37055
1757,3011,212 E COLLEGE ST,DICKSON,TN,37055
1758,3012,314 E COLLEGE ST,DICKSON,TN,37055
1759,3014,404 E COLLEGE ST,DICKSON,TN,37055
1760,3015,304 E COLLEGE ST,DICKSON,TN,37055
1761,3018,320 E COLLEGE ST STE A,DICKSON,TN,37055
1762,3019,320 E COLLEGE ST STE C,DICKSON,TN,37055
1763,3020,502 E COLLEGE ST,DICKSON,TN,37055
1764,3021,342 HENSLEE DR,DICKSON,TN,37055
1765,3023,445 HENSLEE DR,DICKSON,TN,37055
1766,3024,493 HENSLEE DR,DICKSON,TN,37055
1767,3029,401 CENTER AVE,DICKSON,TN,37055
1768,3030,510 E WALNUT ST,DICKSON,TN,37055
1769,3032,445 HIGHWAY 46 S,DICKSON,TN,37055
1770,3036,1926 HIGHWAY 46 S,DICKSON,TN,37055
1771,3039,1926 HWY 46 S,DICKSON,TN,37055
1772,3040,102 HIGHWAY 70 E,DICKSON,TN,37055
1773,3042,102 HIGHWAY 70 E STE 2,DICKSON,TN,37055
1774,3045,118 HIGHWAY 70 E,DICKSON,TN,37055
1775,3047,118 HWY 70 E,DICKSON,TN,37055
1776,3049,2348 PARK AVENUE,MEMPHIS,TN,38114
1777,3050,1952 LAMAR AVENUE,MEMPHIS,TN,38114
1778,3051,1952 LAMAR AVE,MEMPHIS,TN,38114
1779,3053,1000 HAYNES ST,MEMPHIS,TN,38114
1780,3054,2390 LAMAR AVE,MEMPHIS,TN,38114
1781,3056,2682 LAMAR AVE,MEMPHIS,TN,38114
1782,3057,2829 LAMAR AVE,MEMPHIS,TN,38114
1783,3059,2212 AIRWAYS BLVD,MEMPHIS,TN,38114
1784,3061,1399 AIRWAYS BLVD,MEMPHIS,TN,38114
1785,3062,2348 PARK AVE,MEMPHIS,TN,38114
1786,3063,2753 E CENTER ST,KINGSPORT,TN,37664
1787,3064,1335 E CENTER ST STE 2,KINGSPORT,TN,37664
1788,3066,1203 WILCOX DRIVE,KINGSPORT,TN,37664
1789,3068,210 LOCKPORT CR,KINGSPORT,TN,37664
1790,3069,1201 NORTH EASTMAN ROAD,KINGSPORT,TN,37664
1791,3070,2975 FORT HENRY DRIVE,KINGSPORT,TN,37664
1792,3072,1599 FORT HENRY DRIVE,KINGSPORT,TN,37664
1793,3073,1203 WILCOX DR,KINGSPORT,TN,37664
1794,3074,1599 FORT HENRY DR STE 102,KINGSPORT,TN,37664
1795,3075,210 LOCKPORT CIRCLE,KINGSPORT,TN,37664
1796,3078,116 JACK WHITE DR STE 12,KINGSPORT,TN,37664
1797,3079,116 JACK WHITE DR,KINGSPORT,TN,37664
1798,3080,1335 E CENTER ST,KINGSPORT,TN,37664
1799,3088,2105 E CENTER ST,KINGSPORT,TN,37664
1800,3089,1567 N EASTMAN RD STE 8,KINGSPORT,TN,37664
1801,3090,1567 N EASTMAN RD,KINGSPORT,TN,37664
1802,3093,4280 OREBANK RD,KINGSPORT,TN,37664
1803,3094,1109 N EASTMAN RD,KINGSPORT,TN,37664
1804,3095,2300 MEMORIAL BLVD,KINGSPORT,TN,37664
1805,3096,2975 FORT HENRY DR,KINGSPORT,TN,37664
1806,3098,2975 FORT HENRY DR STE A,KINGSPORT,TN,37664
1807,3099,210 LOCKPORT CIR,KINGSPORT,TN,37664
1808,3101,10407 DAYTON PIKE,SODDY DAISY,TN,37379
1809,3102,9604 SHOOTING STAR CIR,SODDY DAISY,TN,37379
1810,3103,9620 DAYTON PIKE,SODDY DAISY,TN,37379
1811,3104,9759 DAYTON PIKE,SODDY DAISY,TN,37379
1812,3105,124 HARRISON LN,SODDY DAISY,TN,37379
1813,3107,10298 WALDEN ST,SODDY DAISY,TN,37379
1814,3110,10480 WALDEN ST,SODDY DAISY,TN,37379
1815,3111,172 W MAIN STREET,ALGOOD,TN,38506
1816,3112,554 WEST MAIN STREET,ALGOOD,TN,38506
1817,3113,1640 SALEM RD,COOKEVILLE,TN,38506
1818,3114,172 W MAIN ST,COOKEVILLE,TN,38506
1819,3116,3397 MIDDLEFORD DR,COOKEVILLE,TN,38506
1820,3117,4883 MAIN ST.,SPRING HILL,TN,37174
1821,3118,3012 LONGFORD DR,SPRING HILL,TN,37174
1822,3119,998 WILLIFORD COURT,SPRING HILL,TN,37174
1823,3120,2055 WALL STREET,SPRING HILL,TN,37174
1824,3121,4935 MAIN STREET,SPRING HILL,TN,37174
1825,3122,2090 WALL STREET,SPRING HILL,TN,37174
1826,3124,2030 CROSSING CIRCLE,SPRING HILL,TN,37174
1827,3126,1060 CROSSINGS CIRCLE,SPRING HILL,TN,37174
1828,3127,4816 MAIN ST,SPRING HILL,TN,37174
1829,3128,2090 WALL ST,SPRING HILL,TN,37174
1830,3129,4816 MAIN ST STE A,SPRING HILL,TN,37174
1831,3130,5311 MAIN STREET,SPRING HILL,TN,37174
1832,3131,220 TOWN CENTER PKWY,SPRING HILL,TN,37174
1833,3132,4883 MAIN ST,SPRING HILL,TN,37174
1834,3133,4883 MAIN ST APT 1411,SPRING HILL,TN,37174
1835,3134,4910 MAIN ST,SPRING HILL,TN,37174
1836,3135,4910 MAIN ST STE 106,SPRING HILL,TN,37174
1837,3136,5073 MAIN ST,SPRING HILL,TN,37174
1838,3137,5073 MAIN ST STE 240,SPRING HILL,TN,37174
1839,3139,4825 MAIN ST,SPRING HILL,TN,37174
1840,3140,1060 CROSSINGS CIR,SPRING HILL,TN,37174
1841,3141,1012C CROSSINGS BLVD,SPRING HILL,TN,37174
1842,3143,4910 COLUMBIA PIKE,SPRING HILL,TN,37174
1843,3145,2206 SPEDALE CT,SPRING HILL,TN,37174
1844,3147,2206 SPEDALE CT STE 6,SPRING HILL,TN,37174
1845,3149,3011 HARRAH DR,SPRING HILL,TN,37174
1846,3150,3098 CAMPBELL STATION PKWY,SPRING HILL,TN,37174
1847,3151,5226 MAIN ST STE C-6,SPRING HILL,TN,37174
1848,3153,5226 MAIN ST,SPRING HILL,TN,37174
1849,3154,4886 PORT ROYAL RD STE 250,SPRING HILL,TN,37174
1850,3161,5040 SANDERLIN AVE STE 101,MEMPHIS,TN,38117
1851,3162,5170 SANDERLIN AVE,MEMPHIS,TN,38117
1852,3164,670 COLONIAL RD,MEMPHIS,TN,38117
1853,3165,730 CROSSOVER LN,MEMPHIS,TN,38117
1854,3166,670 COLONIAL,MEMPHIS,TN,38117
1855,3167,4700 POPLAR AVE,MEMPHIS,TN,38117
1856,3168,5040 SANDERLIN AVENUE,MEMPHIS,TN,38117
1857,3169,775 EAST BROOKHAVEN CIRCLE,MEMPHIS,TN,38117
1858,3170,5126 SUMMER AVE.,MEMPHIS,TN,38117
1859,3171,370 COLONIAL ROAD,MEMPHIS,TN,38117
1860,3172,4515 POPLAR AVENUE,MEMPHIS,TN,38117
1861,3173,670 COLONIAL RD STE 3,MEMPHIS,TN,38117
1862,3174,766 S. WHITE STATION RD. STE 1,MEMPHIS,TN,38117
1863,3175,120 S GROVE PARK RD,MEMPHIS,TN,38117
1864,3177,4132 POPLAR AVE,MEMPHIS,TN,38117
1865,3178,540 S MENDENHALL RD,MEMPHIS,TN,38117
1866,3179,5170 SANDENLIN,MEMPHIS,TN,38117
1867,3182,5101 SANDERLIN AVE,MEMPHIS,TN,38117
1868,3183,5101 SANDERLIN AVE STE 108,MEMPHIS,TN,38117
1869,3184,4646 POPLAR AVE,MEMPHIS,TN,38117
1870,3185,4646 POPLAR AVE STE 514,MEMPHIS,TN,38117
1871,3186,4646 POPLAR AVE.,MEMPHIS,TN,38117
1872,3187,775 E BROOKHAVEN CIR,MEMPHIS,TN,38117
1873,3188,755 E BROOKHAVEN CIR,MEMPHIS,TN,38117
1874,3190,748 E BROOKHAVEN CIR,MEMPHIS,TN,38117
1875,3191,757 BROOKHAVEN CIRCLE,MEMPHIS,TN,38117
1876,3192,725 W BROOKHAVEN CIR,MEMPHIS,TN,38117
1877,3196,717 S WHITE STATION RD STE D,MEMPHIS,TN,38117
1878,3197,766 S WHITE STATION RD,MEMPHIS,TN,38117
1879,3201,640 S PERKINS RD,MEMPHIS,TN,38117
1880,3202,722 CROSSOVER LN,MEMPHIS,TN,38117
1881,3206,776 MOUNT MORIAH RD,MEMPHIS,TN,38117
1882,3207,843 MOUNT MORIAH RD,MEMPHIS,TN,38117
1883,3208,871 MOUNT MORIAH RD,MEMPHIS,TN,38117
1884,3210,843 MOUNT MORIAH ROAD,MEMPHIS,TN,38117
1885,3211,4515 POPLAR AVE,MEMPHIS,TN,38117
1886,3217,7652 OAK RIDGE HWY,KNOXVILLE,TN,37931
1887,3218,9329 MIDDLEBROOK PIKE,KNOXVILLE,TN,37931
1888,3219,7443 OAK RIDGE HWY,KNOXVILLE,TN,37931
1889,3223,9221 MIDDLEBROOK PIKE,KNOXVILLE,TN,37931
1890,3224,400 N HICKS ST,CLINTON,TN,37716
1891,3226,2717 ANDERSONVILLE HWY,CLINTON,TN,37716
1892,3227,710 NORTH MAIN ST,CLINTON,TN,37716
1893,3228,190 EDGEWOOD AVE,CLINTON,TN,37716
1894,3230,180 EDGEWOOD AVE,CLINTON,TN,37716
1895,3232,501 NORTH MAIN STREET,CLINTON,TN,37716
1896,3235,123 LEINART ST,CLINTON,TN,37716
1897,3237,101 MARKET PL,CLINTON,TN,37716
1898,3239,420 S CHARLES G SEIVERS BLVD,CLINTON,TN,37716
1899,3240,358A INDIAN HILLS CIR,CLINTON,TN,37716
1900,3242,515 BETHEL RD,CLINTON,TN,37716
1901,3243,2130 N CHARLES G SEIVERS BLVD STE 1,CLINTON,TN,37716
1902,3244,2130 N CHARLES G SEIVERS BLVD,CLINTON,TN,37716
1903,3245,2685 ANDERSONVILLE HWY STE 1,CLINTON,TN,37716
1904,3247,815 GALLATIN AVE,NASHVILLE,TN,37206
1905,3248,415 AVONDALE DR,NASHVILLE,TN,37206
1906,3250,1214 GALLATIN AVE STE 115,NASHVILLE,TN,37206
1907,3252,7 N 10TH ST,NASHVILLE,TN,37206
1908,3253,617 S 8TH ST,NASHVILLE,TN,37206
1909,3255,1005 S 11TH ST,NASHVILLE,TN,37206
1910,3256,617 WOODLAND ST,NASHVILLE,TN,37206
1911,3259,1056 MCARTHUR STREET,MANCHESTER,TN,37355
1912,3260,1655 HILLSBORO BLVD,MANCHESTER,TN,37355
1913,3262,116 E FORT ST,MANCHESTER,TN,37355
1914,3264,53 SITZ DR,MANCHESTER,TN,37355
1915,3265,1240 MCARTHUR ST,MANCHESTER,TN,37355
1916,3273,1056 MCARTHUR ST,MANCHESTER,TN,37355
1917,3275,1425 MCARTHUR ST,MANCHESTER,TN,37355
1918,3279,1423 MCARTHUR ST,MANCHESTER,TN,37355
1919,3280,1626 MCARTHUR ST,MANCHESTER,TN,37355
1920,3284,6004 MCMINNVILLE HWY,MANCHESTER,TN,37355
1921,3285,440 ASHEVILLE HWY,GREENEVILLE,TN,37743
1922,3289,208 SOUTH IRISH ST,GREENVILLE,TN,37743
1923,3290,1132 W MADISON AVE,ATHENS,TN,37303
1924,3291,746 TELL STREET,ATHENS,TN,37303
1925,3292,393 COUNTY RD 559,ATHENS,TN,37303
1926,3293,1911 CONGRESS PKWY,ATHENS,TN,37303
1927,3294,899 CONGRESS PKWY N,ATHENS,TN,37303
1928,3295,605 CONGRESS PKWY S,ATHENS,TN,37303
1929,3297,1504 DECATUR PIKE,ATHENS,TN,37303
1930,3298,501 DECATUR PIKE,ATHENS,TN,37303
1931,3299,2416 CONGRESS PKWY S,ATHENS,TN,37303
1932,3303,307 MAPLE ST,ATHENS,TN,37303
1933,3304,746 TELL ST,ATHENS,TN,37303
1934,3306,800 W MADISON AVE,ATHENS,TN,37303
1935,3308,401 WASHINGTON AVENUE,ATHENS,TN,37303
1936,3309,200 N JACKSON ST,ATHENS,TN,37303
1937,3314,111 N MEADOWS DR,ATHENS,TN,37303
1938,3315,2 S HILL ST,ATHENS,TN,37303
1939,3316,393 COUNTY ROAD 554,ATHENS,TN,37303
1940,3318,7315 CLINTON HWY,POWELL,TN,37849
1941,3319,7714 CONNER ROAD,POWELL,TN,37849
1942,3321,7315 CLINTON HIGHWAY STE A,POWELL,TN,37849
1943,3322,574 E EMORY RD,POWELL,TN,37849
1944,3324,7714 CONNER RD,POWELL,TN,37849
1945,3326,7714 CONNER RD STE 104,POWELL,TN,37849
1946,3328,7584 BARNETT WAY,POWELL,TN,37849
1947,3329,2529 W EMORY RD,POWELL,TN,37849
1948,3331,123 E EMORY RD,POWELL,TN,37849
1949,3332,209 E EMORY RD STE 101,POWELL,TN,37849
1950,3333,207 E EMORY RD STE 203,POWELL,TN,37849
1951,3334,4816 MACMONT CIR,POWELL,TN,37849
1952,3335,2205 CLINTON HWY,POWELL,TN,37849
1953,3338,1516 COLEMAN RD STE 201,KNOXVILLE,TN,37909
1954,3339,5126 SUMMER AVE,MEMPHIS,TN,38122
1955,3340,752 NATIONAL ST,MEMPHIS,TN,38122
1956,3342,5126 SUMMER AVE SUITE 101,MEMPHIS,TN,38122
1957,3344,4177 MACON RD,MEMPHIS,TN,38122
1958,3347,4177 MACON RD.,MEMPHIS,TN,38122
1959,3348,4302 SUMMER AVE,MEMPHIS,TN,38122
1960,3350,519 N HIGHLAND ST,MEMPHIS,TN,38122
1961,3352,473 HIGH POINT TER,MEMPHIS,TN,38122
1962,3353,4146 SUMMER AVE,MEMPHIS,TN,38122
1963,3354,1740 BIG SPRINGS RD,MARYVILLE,TN,37801
1964,3355,1019 WEST BROADWAY,MARYVILLE,TN,37801
1965,3357,824 W. LAMAR ALEXANDER PKWY,MARYVILLE,TN,37801
1966,3358,207 SOUTHDOWNE DR,MARYVILLE,TN,37801
1967,3360,205 SOUTHDOWNE DR,MARYVILLE,TN,37801
1968,3362,315 WHITECREST DRIVE,MARYVILLE,TN,37801
1969,3363,734 W LAMAR ALEXANDER PKWY,MARYVILLE,TN,37801
1970,3364,824 W LAMAR ALEXANDER PKWY,MARYVILLE,TN,37801
1971,3367,904 W BROADWAY AVE,MARYVILLE,TN,37801
1972,3369,527 W LAMAR ALEXANDER PKWY,MARYVILLE,TN,37801
1973,3370,331 W BROADWAY AVE,MARYVILLE,TN,37801
1974,3371,518 W BROADWAY AVE,MARYVILLE,TN,37801
1975,3372,206 SIMMONS ST,MARYVILLE,TN,37801
1976,3373,663 MORGANTON SQUARE DR,MARYVILLE,TN,37801
1977,3374,708 MORGANTON SQUARE DR,MARYVILLE,TN,37801
1978,3375,712 MORGANTON SQUARE DR,MARYVILLE,TN,37801
1979,3379,1916 E LAMAR ALEXANDER PKWY,MARYVILLE,TN,37804
1980,3380,312 HIGH ST,MARYVILLE,TN,37804
1981,3381,2020 CHILHOWEE MEDICAL PARK,MARYVILLE,TN,37804
1982,3382,1127 E LAMAR ALEXANDER PKY,MARYVILLE,TN,37804
1983,3383,1930 EAST LAMAR ALEXANDER PARKWAY,MARYVILLE,TN,37804
1984,3384,1507 EAST LAMAR ALEXANDER PKWY,MARYVILLE,TN,37804
1985,3386,1858 CREST RD,MARYVILLE,TN,37804
1986,3388,1850 CREST RD,MARYVILLE,TN,37804
1987,3390,1850 CREST ROAD,MARYVILLE,TN,37804
1988,3395,726 E LAMAR ALEXANDER PKWY,MARYVILLE,TN,37804
1989,3396,811 HIGH ST,MARYVILLE,TN,37804
1990,3398,1117 E LAMAR ALEXANDER PKWY,MARYVILLE,TN,37804
1991,3399,1105 E LAMAR ALEXANDER PKWY,MARYVILLE,TN,37804
1992,3400,1131 E LAMAR ALEXANDER PKWY,MARYVILLE,TN,37804
1993,3401,1123 E LAMAR ALEXANDER PKWY,MARYVILLE,TN,37804
1994,3402,1121 E LAMAR ALEXANDER PKWY,MARYVILLE,TN,37804
1995,3403,1505 E LAMAR ALEXANDER PKWY,MARYVILLE,TN,37804
1996,3406,1511 E LAMAR ALEXANDER PKWY,MARYVILLE,TN,37804
1997,3412,1507 E LAMAR ALEXANDER PKWY,MARYVILLE,TN,37804
1998,3413,1944 E LAMAR ALEXANDER PKWY,MARYVILLE,TN,37804
1999,3415,1934 E LAMAR ALEXANDER PKWY,MARYVILLE,TN,37804
2000,3417,2034 CHILHOWEE MEDICAL PARK,MARYVILLE,TN,37804
2001,3418,201 E BROADWAY AVE,MARYVILLE,TN,37804
2002,3419,406 S WASHINGTON ST,MARYVILLE,TN,37804
2003,3421,315 LAMAR ST.,MARYVILLE,TN,37804
2004,3422,315 LAMAR STREET,MARYVILLE,TN,37804
2005,3424,1618 E LAMAR ALEXANDER PKWY,MARYVILLE,TN,37804
2006,3425,1618 E. LAMAR ALEXANDER PKWY,MARYVILLE,TN,37804
2007,3427,121 PARLIAMENT DR,MARYVILLE,TN,37804
2008,3430,603 HIGHWAY 321 N UNIT 20 BLDG 4,LENOIR CITY,TN,37771
2009,3431,1958 N JACKSON ST,TULLAHOMA,TN,37388
2010,3432,601 NW ATLANTIC ST,TULLAHOMA,TN,37388
2011,3433,206 W HOGAN ST,TULLAHOMA,TN,37388
2012,3434,106 W BLACKWELL ST,TULLAHOMA,TN,37388
2013,3435,2130 N. JACKSON ST,TULLAHOMA,TN,37388
2014,3438,1956 N JACKSON ST,TULLAHOMA,TN,37388
2015,3440,2111 N JACKSON ST,TULLAHOMA,TN,37388
2016,3441,2118 N JACKSON ST,TULLAHOMA,TN,37388
2017,3442,2120 NORTH JACKSON STREET,TULLAHOMA,TN,37388
2018,3443,2120 N JACKSON ST,TULLAHOMA,TN,37388
2019,3444,105 LEDFORD MILL RD STE A,TULLAHOMA,TN,37388
2020,3445,1513 N JACKSON ST,TULLAHOMA,TN,37388
2021,3448,110 CEDAR LANE,TULLAHOMA,TN,37388
2022,3449,504 N JACKSON ST,TULLAHOMA,TN,37388
2023,3450,603 NW ATLANTIC ST,TULLAHOMA,TN,37388
2024,3454,211 E LINCOLN ST,TULLAHOMA,TN,37388
2025,3457,208 N WASHINGTON ST,TULLAHOMA,TN,37388
2026,3460,306 E LINCOLN ST,TULLAHOMA,TN,37388
2027,3461,308 E LINCOLN ST,TULLAHOMA,TN,37388
2028,3462,304 E LINCOLN ST,TULLAHOMA,TN,37388
2029,3463,205 S JACKSON ST,TULLAHOMA,TN,37388
2030,3467,207 FAIRWAYS BLVD N,TULLAHOMA,TN,37388
2031,3469,2961 W MAPLE LOOP DR STE 110,LEHI,UT,84043
2032,3471,1119 KINGSTON PIKE,KNOXVILLE,TN,37934
2033,3472,11541 KINGSTON PKE,KNOXVILLE,TN,37934
2034,3473,109 CAMPBELL STATION RD.,FARRAGUT,TN,37934
2035,3474,12802 KINGSTON PIKE STE 101,FARRAGUT,TN,37934
2036,3475,11340 PARKSIDE DR,KNOXVILLE,TN,37934
2037,3477,114 LOVELL RD,KNOXVILLE,TN,37934
2038,3478,11226 W POINT DR,KNOXVILLE,TN,37934
2039,3479,11232B W POINT DR,KNOXVILLE,TN,37934
2040,3481,11221 W POINT DRIVE,KNOXVILLE,TN,37934
2041,3482,11221 W POINT DR,KNOXVILLE,TN,37934
2042,3483,11213 WEST POINT DR.,KNOXVILLE,TN,37934
2043,3484,11217 W POINT DR,KNOXVILLE,TN,37934
2044,3485,109 S CAMPBELL STATION RD,FARRAGUT,TN,37934
2045,3486,11161 KINGSTON PIKE,KNOXVILLE,TN,37934
2046,3492,10910 KINGSTON PIKE UNIT 105,KNOXVILLE,TN,37934
2047,3493,10820 KINGSTON PIKE,KNOXVILLE,TN,37934
2048,3494,11807 KINGSTON PIKE,FARRAGUT,TN,37934
2049,3495,11840 KINGSTON PIKE STE A,FARRAGUT,TN,37934
2050,3496,2620 MINERAL SPRINGS AVE,KNOXVILLE,TN,37917
2051,3497,2620 MINERAL SPRINGS AVENUE,KNOXVILLE,TN,37917
2052,3498,2620 MINERAL SPRINGS AVE SUITE B,KNOXVILLE,TN,37917
2053,3499,140 DAMERON AVE,KNOXVILLE,TN,37917
2054,3500,7811 KINGSTON PIKE,KNOXVILLE,TN,37917
2055,3502,4435 VALLEY VIEW DR,KNOXVILLE,TN,37917
2056,3503,2426 MINERAL SPRINGS AVE,KNOXVILLE,TN,37917
2057,3504,3806 POWERS ST,KNOXVILLE,TN,37917
2058,3505,816 E OLDHAM AVE,KNOXVILLE,TN,37917
2059,3515,315 GILL AVE,KNOXVILLE,TN,37917
2060,3516,615 BELLE MEADE BLVD. #107,NASHVILLE,TN,37205
2061,3517,104 KENNER AVE,NASHVILLE,TN,37205
2062,3518,4515 HARDING ROAD,NASHVILLE,TN,37205
2063,3519,4515 HARDING RD,NASHVILLE,TN,37205
2064,3520,5606 BROOKWOOD PLACE,NASHVILLE,TN,37205
2065,3522,105 KENNER AVE,NASHVILLE,TN,37205
2066,3523,4525 HARDING RD.,NASHVILLE,TN,37205
2067,3524,104 KENNER AVE.,NASHVILLE,TN,37205
2068,3525,47 BROOKWOOD TER,NASHVILLE,TN,37205
2069,3528,21 WHITE BRIDGE RD STE 111,NASHVILLE,TN,37205
2070,3529,99 WHITE BRIDGE RD,NASHVILLE,TN,37205
2071,3530,5606 BROOKWOOD PL,NASHVILLE,TN,37205
2072,3537,4515 HARDING PIKE,NASHVILLE,TN,37205
2073,3538,4525 HARDING PIKE,NASHVILLE,TN,37205
2074,3539,4515 HARDING PIKE STE 312,NASHVILLE,TN,37205
2075,3546,104 KENNER AVE STE 101,NASHVILLE,TN,37205
2076,3547,4322 HARDING PIKE,NASHVILLE,TN,37205
2077,3548,5115 HARDING PIKE STE 101,NASHVILLE,TN,37205
2078,3549,5115 HARDING PIKE STE 201,NASHVILLE,TN,37205
2079,3550,108 HARDING PL,NASHVILLE,TN,37205
2080,3551,105 HEADY DR,NASHVILLE,TN,37205
2081,3552,102 WOODMONT BLVD STE 310,NASHVILLE,TN,37205
2082,3553,345 E 24TH ST # 407W,NEW YORK,NY,10010
2083,3555,2165 WEST ST,GERMANTOWN,TN,38138
2084,3556,6750 POPLAR AVE,MEMPHIS,TN,38138
2085,3557,7938 WOLF RIVER BLVD,GERMANTOWN,TN,38138
2086,3558,7730 WOLF RIVER BLVD,GERMANTOWN,TN,38138
2087,3560,7535 POPLAR AVE,GERMANTOWN,TN,38138
2088,3561,3087 PROFESSIONAL PLAZA,GERMANTOWN,TN,38138
2089,3562,7612 POPLAR PIKE,GERMANTOWN,TN,38138
2090,3563,6799 GREAT OAKS RD,MEMPHIS,TN,38138
2091,3564,1918 EXETER,GERMANTOWN,TN,38138
2092,3565,7512 CORPORATE CENTER DRIVE,GERMANTOWN,TN,38138
2093,3567,6800 POPLAR AVE,MEMPHIS,TN,38138
2094,3568,7503 QUEENS COURT,GERMANTOWN,TN,38138
2095,3569,9064 CORPORATE GRADENS DRIVE,GERMANTOWN,TN,38138
2096,3571,6779 GREAT OAKS RD,MEMPHIS,TN,38138
2097,3573,3106 PROFESSIONAL PLAZA DRIVE,GERRMANTOWN,TN,38138
2098,3579,7675 WOLF RIVER CIR STE 102,GERMANTOWN,TN,38138
2099,3580,7685 WOLF RIVER CIR,GERMANTOWN,TN,38138
2100,3581,7685 WOLF RIVER CIR STE 101,GERMANTOWN,TN,38138
2101,3583,7685 WOLF RIVER CIR STE 102,GERMANTOWN,TN,38138
2102,3584,7675 WOLF RIVER CIR,GERMANTOWN,TN,38138
2103,3586,1918 EXETER RD,GERMANTOWN,TN,38138
2104,3587,1918 EXETER RD STE 1,GERMANTOWN,TN,38138
2105,3589,1918 EXETER RD UNIT 1,GERMANTOWN,TN,38138
2106,3590,1908 EXETER,GERMANTOWN,TN,38138
2107,3591,1900 KIRBY PKWY,GERMANTOWN,TN,38138
2108,3592,1920 KIRBY PKWY STE 200,GERMANTOWN,TN,38138
2109,3593,7520 ENTERPRISE AVE,GERMANTOWN,TN,38138
2110,3595,2219 S GERMANTOWN RD,GERMANTOWN,TN,38138
2111,3597,7535 POPLAR AVE,MEMPHIS,TN,38138
2112,3601,2176 WEST ST,GERMANTOWN,TN,38138
2113,3602,7500 ENTERPRISE AVE,GERMANTOWN,TN,38138
2114,3610,2136 EXETER RD,GERMANTOWN,TN,38138
2115,3614,2036 EXETER RD,GERMANTOWN,TN,38138
2116,3615,2026 EXETER RD # 1,GERMANTOWN,TN,38138
2117,3616,2008 EXETER RD,GERMANTOWN,TN,38138
2118,3618,2026 EXETER RD,GERMANTOWN,TN,38138
2119,3619,2026 EXETER RD STE 1,GERMANTOWN,TN,38138
2120,3620,2026 EXETER RD UNIT J-2,GERMANTOWN,TN,38138
2121,3621,2026 EXETER RD STE 2,GERMANTOWN,TN,38138
2122,3622,7598 POPLAR PIKE,GERMANTOWN,TN,38138
2123,3624,3011 CENTRE OAK WAY STE 102,GERMANTOWN,TN,38138
2124,3625,6750 POPLAR AVE STE 612,MEMPHIS,TN,38138
2125,3630,3059 FOREST HILL IRENE RD,GERMANTOWN,TN,38138
2126,3631,9064 CORPORATE GARDENS DRIVE,GERMANTOWN,TN,38138
2127,3632,9055 CORPORATE GARDENS DR,GERMANTOWN,TN,38138
2128,3633,3087 PROFESSIONAL PLZ,GERMANTOWN,TN,38138
2129,3634,3106 PROFESSIONAL PLZ,GERMANTOWN,TN,38138
2130,3635,3100 PROFESSIONAL PLZ,GERMANTOWN,TN,38138
2131,3638,9245 POPLAR AVE,GERMANTOWN,TN,38138
2132,3641,9880 GOODMAN RD,OLIVE BRANCH,MS,38654
2133,3643,29 MORRIS AVE,BRYN MAWR,PA,19010
2134,3644,1373 BRIDGEVIEW DR,CHATTANOOGA,TN,37415
2135,3646,3733 HIXSON PIKE,CHATTANOOGA,TN,37415
2136,3647,4300 DAYTON BLVD,CHATTANOOGA,TN,37415
2137,3648,4109 MOUNTAIN VIEW AVE,CHATTANOOGA,TN,37415
2138,3649,4607 DAYTON BLVD,CHATTANOOGA,TN,37415
2139,3653,3920 DAYTON BLVD,CHATTANOOGA,TN,37415
2140,3655,4224 DAYTON BLVD,CHATTANOOGA,TN,37415
2141,3656,4135 HIXSON PIKE,CHATTANOOGA,TN,37415
2142,3659,625 MORRISON SPRINGS RD,CHATTANOOGA,TN,37415
2143,3668,1900 DAYTON BLVD,CHATTANOOGA,TN,37415
2144,3669,4040 DAYTON BLVD,CHATTANOOGA,TN,37415
2145,3671,18 S SPRING ST,SPARTA,TN,38583
2146,3672,9-A HAMPTON DRIVE,SPARTA,TN,38583
2147,3673,223 N SPRING ST,SPARTA,TN,38583
2148,3676,124 S MAIN ST,SPARTA,TN,38583
2149,3679,8499 ROUND COVE RD,SPARTA,TN,38583
2150,3680,2090 OXFORD GLN,FRANKLIN,TN,37067
2151,3681,3326 ASPEN GROVE DR,FRANKLIN,TN,37067
2152,3682,1735 GALLERIA BLVD STE 1073,FRANKLIN,TN,37067
2153,3683,128 HOLIDAY COURT,FRANKLIN,TN,37067
2154,3684,9040 CAROTHERS PARKWAY,FRANKLIN,TN,37067
2155,3685,100 COVEY DR STE 301,FRANKLIN,TN,37067
2156,3686,155 COVER DRIVE,FRANKLIN,TN,37067
2157,3687,100 COOL SPRINGS BLVD,FRANKLIN,TN,37067
2158,3688,5005 MERIDIAN BLVD.,FRANKLIN,TN,37067
2159,3689,5040 CAROTHERS PARKWAY,FRANKLIN,TN,37067
2160,3691,130 SEABOARD LN STE 1,FRANKLIN,TN,37067
2161,3692,1201 LIBERTY PIKE,FRANKLIN,TN,37067
2162,3694,1800 GALLERIA BLVD,FRANKLIN,TN,37067
2163,3697,1550 W MCEWEN DR STE 60,FRANKLIN,TN,37067
2164,3700,300 SEABOARD LN,FRANKLIN,TN,37067
2165,3702,1909 MALLORY LN,FRANKLIN,TN,37067
2166,3703,381 MALLORY STATION RD,FRANKLIN,TN,37067
2167,3707,504 AUTUMN SPRINGS CT STE 25,FRANKLIN,TN,37067
2168,3708,3351 ASPEN GROVE DR,FRANKLIN,TN,37067
2169,3710,105 HOLIDAY CT,FRANKLIN,TN,37067
2170,3711,128 HOLIDAY CT,FRANKLIN,TN,37067
2171,3713,1113 LAKEVIEW DR,FRANKLIN,TN,37067
2172,3716,128 HOLIDAY CT STE 102,FRANKLIN,TN,37067
2173,3717,155 COVEY DR,FRANKLIN,TN,37067
2174,3718,100 COVEY DR,FRANKLIN,TN,37067
2175,3720,402 SPRINGHOUSE CT,FRANKLIN,TN,37067
2176,3721,5040 CAROTHERS PKWY STE 101,FRANKLIN,TN,37067
2177,3722,1745 GALLERIA BLVD,FRANKLIN,TN,37067
2178,3723,510 BRENNAN LN,FRANKLIN,TN,37067
2179,3725,1000 MERIDIAN BLVD,FRANKLIN,TN,37067
2180,3727,1735 GALLERIA BLVD,FRANKLIN,TN,37067
2181,3728,125 COOL SPRINGS BLVD,FRANKLIN,TN,37067
2182,3729,125 COOL SPRINGS BLVD # 140,FRANKLIN,TN,37067
2183,3732,125 COOL SPRINGS BLVD STE 120,FRANKLIN,TN,37067
2184,3737,5005 MERIDIAN BLVD STE 190,FRANKLIN,TN,37067
2185,3739,342 COOL SPRINGS BLVD,FRANKLIN,TN,37067
2186,3743,360 COOL SPRINGS BLVD,FRANKLIN,TN,37067
2187,3745,122 COOL SPRINGS BLVD,FRANKLIN,TN,37067
2188,3748,130 SEABOARD LN STE A1,FRANKLIN,TN,37067
2189,3749,4095 MALLORY LN,FRANKLIN,TN,37067
2190,3750,4085 MALLORY LN,FRANKLIN,TN,37067
2191,3752,151 ROSA HELM WAY,FRANKLIN,TN,37067
2192,3754,2090 OXFORD GLN STE 500,FRANKLIN,TN,37067
2193,3755,113 KENNEDY DR,MARTIN,TN,38237
2194,3758,324 22ND AVE N,NASHVILLE,TN,37203
2195,3759,1030 JEFFERSON AVE.,MEMPHIS,TN,38104
2196,3760,1030 JEFFERSON AVE,MEMPHIS,TN,38104
2197,3761,59 SOUTH IDLEWILD STREET,MEMPHIS,TN,38104
2198,3762,1279 LAMAR,MEMPHIS,TN,38104
2199,3763,1350 CONCOURSE AVE STE 446,MEMPHIS,TN,38104
2200,3774,79 N COOPER ST,MEMPHIS,TN,38104
2201,3776,1331 UNION AVE,MEMPHIS,TN,38104
2202,3777,266 S CLEVELAND ST,MEMPHIS,TN,38104
2203,3781,1286 PEABODY AVE,MEMPHIS,TN,38104
2204,3782,10 S BELVEDERE BLVD,MEMPHIS,TN,38104
2205,3783,59 S IDLEWILD ST,MEMPHIS,TN,38104
2206,3784,2093 PEABODY AVE,MEMPHIS,TN,38104
2207,3785,1210 PEABODY AVE,MEMPHIS,TN,38104
2208,3786,1279 LAMAR AVE,MEMPHIS,TN,38104
2209,3787,650 NEW YORK ST,MEMPHIS,TN,38104
2210,3788,2595 CENTRAL AVE,MEMPHIS,TN,38104
2211,3790,1711 MADISON AVE,MEMPHIS,TN,38104
2212,3794,1451 UNION AVE,MEMPHIS,TN,38104
2213,3798,364 GARLAND ST,MEMPHIS,TN,38104
2214,3799,1331 UNION AVE STE 1225,MEMPHIS,TN,38104
2215,3801,1331 UNION AVE STE 1240,MEMPHIS,TN,38104
2216,3802,305 COSBY HWY,NEWPORT,TN,37821
2217,3805,311 COSBY HWY,NEWPORT,TN,37821
2218,3806,164 OLD COSBY RD,NEWPORT,TN,37821
2219,3809,430 COLLEGE ST,NEWPORT,TN,37821
2220,3810,5144 RIVERDALE RD STE 106,MEMPHIS,TN,38141
2221,3811,6757 E SHELBY DR,MEMPHIS,TN,38141
2222,3812,6747 E SHELBY DR,MEMPHIS,TN,38141
2223,3816,4730 RIVERDALE RD,MEMPHIS,TN,38141
2224,3820,6244 POPLAR AVE STE 100,MEMPHIS,TN,38119
2225,3821,6075 POPLAR AVE,MEMPHIS,TN,38119
2226,3822,5180 PARK AVE,MEMPHIS,TN,38119
2227,3823,5498 POPLUR AVE,MEMPHIS,TN,38119
2228,3824,6264 POPLAR AVE,MEMPHIS,TN,38119
2229,3825,6209 POPLAR #220,MEMPHIS,TN,38119
2230,3826,5336 ESTATE OFFICE DR,MEMPHIS,TN,38119
2231,3827,5336 ESTATE OFFICE DRIVE,MEMPHIS,TN,38119
2232,3828,5565 MURRAY RD,MEMPHIS,TN,38119
2233,3829,5575 POPLAR AVENUE,MEMPHIS,TN,38119
2234,3830,5610 MURRAY RD,MEMPHIS,TN,38119
2235,3831,990 JUNE RD,MEMPHIS,TN,38119
2236,3832,920 ESTATE DR,MEMPHIS,TN,38119
2237,3833,5366 ESTATE OFFICE DR STE 2,MEMPHIS,TN,38119
2238,3835,1000 BROOKFIELD RD,MEMPHIS,TN,38119
2239,3837,5575 POPLAR AVE STE 505 C,MEMPHIS,TN,38119
2240,3838,5340 POPLAR AVE,MEMPHIS,TN,38119
2241,3847,5180 PARK AVE STE 140,MEMPHIS,TN,38119
2242,3849,5180 PARK AVE STE 210,MEMPHIS,TN,38119
2243,3850,5180 PARK AVE STE 310,MEMPHIS,TN,38119
2244,3851,5180 PARK AVE STE 300,MEMPHIS,TN,38119
2245,3855,975 REDDOCH COVE,MEMPHIS,TN,38119
2246,3859,5336 ESTATE OFFICE DR STE 1,MEMPHIS,TN,38119
2247,3860,5370 ESTATE OFFICE DR,MEMPHIS,TN,38119
2248,3861,5348 ESTATE OFFICE DR,MEMPHIS,TN,38119
2249,3862,5370 ESTATE OFFICE DR # 2,MEMPHIS,TN,38119
2250,3864,5378 ESTATE OFFICE DR,MEMPHIS,TN,38119
2251,3865,5382 ESTATE OFFICE DR,MEMPHIS,TN,38119
2252,3868,5356 ESTATE OFFICE DR,MEMPHIS,TN,38119
2253,3871,1010 JUNE RD,MEMPHIS,TN,38119
2254,3872,1036 OAKHAVEN RD,MEMPHIS,TN,38119
2255,3873,5575 POPLAR AVE,MEMPHIS,TN,38119
2256,3874,5575 POPLAR AVE STE 218,MEMPHIS,TN,38119
2257,3878,5628 MURRAY RD,MEMPHIS,TN,38119
2258,3883,5587 MURRAY RD,MEMPHIS,TN,38119
2259,3884,6209 POPLAR AVE,MEMPHIS,TN,38119
2260,3885,6250 POPLAR AVE,MEMPHIS,TN,38119
2261,3886,6268 POPLAR AVE,MEMPHIS,TN,38119
2262,3896,6262 POPLAR AVE,MEMPHIS,TN,38119
2263,3897,6244 POPLAR AVE,MEMPHIS,TN,38119
2264,3900,6363 POPLAR AVE STE 110,MEMPHIS,TN,38119
2265,3901,6401 POPLAR AVE,MEMPHIS,TN,38119
2266,3902,6363 POPLAR AVE,MEMPHIS,TN,38119
2267,3904,"2900 KIRBY PARKWAY, STE 9",MEMPHIS,TN,38119
2268,3905,2900 KIRBY RD,MEMPHIS,TN,38119
2269,3906,2900 KIRBY PARKWAY,MEMPHIS,TN,38119
2270,3910,7842 PLAYERS CLUB PKWY W,MEMPHIS,TN,38119
2271,3913,307 REED ST,PORTLAND,TN,37148
2272,3914,109 HIGHWAY 52 E STE A,PORTLAND,TN,37148
2273,3915,704 S BROADWAY,PORTLAND,TN,37148
2274,3916,1290 1ST AVE,LAWRENCEBURG,TN,38464
2275,3917,228 PULASKI STREET,LAWRENCEBURG,TN,38464
2276,3918,336 ROBBINS ST,LAWRENCEBURG,TN,38464
2277,3919,234 E GAINES ST,LAWRENCEBURG,TN,38464
2278,3920,234 EAST GAINES ST,LAWRENCEBURG,TN,38464
2279,3921,1620 BUSINESS AVE,LAWRENCEBURG,TN,38464
2280,3923,228 PULASKI ST,LAWRENCEBURG,TN,38464
2281,3930,185 PROSSER RD,LAWRENCEBURG,TN,38464
2282,3933,7170 CA-49,LOTUS,CA,95651
2283,3934,14221 LEBANON RD,OLD HICKORY,TN,37138
2284,3935,101 MATTERHORN DR,OLD HICKORY,TN,37138
2285,3937,601 BRANDYWINE VILLAGE COURT,OLD HICKORY,TN,37138
2286,3939,4112 BRANDYWINE POINTE BLVD,OLD HICKORY,TN,37138
2287,3940,601 BRANDYWINE CT,OLD HICKORY,TN,37138
2288,3941,37 HARBOR COVE DR,OLD HICKORY,TN,37138
2289,3942,102 22ND ST,OLD HICKORY,TN,37138
2290,3946,1509 ROBINSON RD,OLD HICKORY,TN,37138
2291,3949,1903 OLD HICKORY BLVD,OLD HICKORY,TN,37138
2292,3950,808 HADLEY AVE,OLD HICKORY,TN,37138
2293,3951,14625 LEBANON RD,OLD HICKORY,TN,37138
2294,3952,602 WEST COLLEGE STREET,FAYETTEVILLE,TN,37334
2295,3953,608 WEST COLLEGE STREET,FAYETTEVILLE,TN,37334
2296,3954,420 ROCKY KNOB LN,FAYETTEVILLE,TN,37334
2297,3955,110 FRANKLIN AVE N,FAYETTEVILLE,TN,37334
2298,3956,309 MARKET ST E,FAYETTEVILLE,TN,37334
2299,3958,1813 WILSON PKWY,FAYETTEVILLE,TN,37334
2300,3961,2005 WILSON PKWY,FAYETTEVILLE,TN,37334
2301,3962,2270 THORNTON TAYLOR PKWY # B,FAYETTEVILLE,TN,37334
2302,3963,110 SOUTH HASSON ST,ROGERSVILLE,TN,37857
2303,3964,110 SOUTH HASSON STREET,ROGERSVILLE,TN,37857
2304,3965,4325 HIGHWAY 66 S,ROGERSVILLE,TN,37857
2305,3966,105 STAPLETON LN,ROGERSVILLE,TN,37857
2306,3967,313 W BROADWAY ST,ROGERSVILLE,TN,37857
2307,3968,309 E MAIN ST,ROGERSVILLE,TN,37857
2308,3969,2211 CRESTMOOR RD,NASHVILLE,TN,37215
2309,3970,4336 SNEED RD,NASHVILLE,TN,37215
2310,3971,4219 HILLSBORO PIKE,NASHVILLE,TN,37215
2311,3972,3819 CLEGHORN AVE,NASHVILLE,TN,37215
2312,3973,2000 RICHARD JONES RD STE 109,NASHVILLE,TN,37215
2313,3974,4219 HILLSBORO PIKE STE 101,NASHVILLE,TN,37215
2314,3975,4219 HILLSBORO ROAD,NASHVILLE,TN,37215
2315,3976,4301 HILLSBORO PIKE,NASHVILLE,TN,37215
2316,3977,4027 HILLSBORO RD.,NASHVILLE,TN,37215
2317,3978,3817 BEDFORD AVE. UNIT 130,NASHVILLE,TN,37215
2318,3979,2000 RICHARD JONES RD,NASHVILLE,TN,37215
2319,3980,4027 HILLSBORO RD,NASHVILLE,TN,37215
2320,3982,3817 BEDFORD AVE.,NASHVILLE,TN,37215
2321,3986,2002 RICHARD JONES RD,NASHVILLE,TN,37215
2322,3988,4205 HILLSBORO RD,NASHVILLE,TN,37215
2323,3989,4027 HILLSBORO PIKE,NASHVILLE,TN,37215
2324,3991,2405 CRESTMOOR ROAD,NASHVILLE,TN,37215
2325,3992,3824 BEDFORD AVE,NASHVILLE,TN,37215
2326,3999,3829 CLEGHORN AVE,NASHVILLE,TN,37215
2327,4002,3817 BEDFORD AVE STE 110,NASHVILLE,TN,37215
2328,4003,3817 BEDFORD AVE,NASHVILLE,TN,37215
2329,4004,2126 ABBOTT MARTIN RD STE 168,NASHVILLE,TN,37215
2330,4009,2002 RICHARD JONES RD STE A200,NASHVILLE,TN,37215
2331,4014,2000 RICHARD JONES RD STE 107,NASHVILLE,TN,37215
2332,4017,4219 HILLSBORO PIKE STE 102,NASHVILLE,TN,37215
2333,4018,4219 HILLSBORO PIKE STE 107,NASHVILLE,TN,37215
2334,4019,4301 HILLSBORO PIKE STE 221,NASHVILLE,TN,37215
2335,4020,4219 HILLSBORO RD STE 103,NASHVILLE,TN,37215
2336,4021,4219 HILLSBORO RD,NASHVILLE,TN,37215
2337,4029,4205 HILLSBORO PIKE,NASHVILLE,TN,37215
2338,4036,40 BURTON HILLS BLVD STE 200,NASHVILLE,TN,37215
2339,4038,10 BURTON HILLS BLVD,NASHVILLE,TN,37215
2340,4041,1286 E WEST HWY STE 200,SILVER SPRING,MD,20910
2341,4042,1085 N ELLINGTON PKWY,LEWISBURG,TN,37091
2342,4043,553 W COMMERCE ST,LEWISBURG,TN,37091
2343,4044,1300 N ELLINGTON PKWY,LEWISBURG,TN,37091
2344,4045,302 W CHURCH ST,LEWISBURG,TN,37091
2345,4046,113 THE ACRES,LEWISBURG,TN,37091
2346,4051,1360 S ELLINGTON PKWY,LEWISBURG,TN,37091
2347,4054,3500 RINGGOLD RD,CHATTANOOGA,TN,37412
2348,4055,4141 RINGGOLD RD,CHATTANOOGA,TN,37412
2349,4056,1421 ARMOUR STREET,CHATTANOOGA,TN,37412
2350,4062,3825 RINGGOLD RD,CHATTANOOGA,TN,37412
2351,4064,3823 RINGGOLD RD,EAST RIDGE,TN,37412
2352,4065,3824 RINGGOLD RD,CHATTANOOGA,TN,37412
2353,4068,1421 ARMOUR ST,CHATTANOOGA,TN,37412
2354,4069,1473 N MACK SMITH RD,CHATTANOOGA,TN,37412
2355,4070,1011 SPRING CREEK RD,CHATTANOOGA,TN,37412
2356,4074,1106 GLENNHILL LN,SEVIERVILLE,TN,37862
2357,4075,1419 PARKWAY,SEVIERVILLE,TN,37862
2358,4076,123 N HENDERSON AVE,SEVIERVILLE,TN,37862
2359,4077,1011 MIDDLE CREEK RD,SEVIERVILLE,TN,37862
2360,4079,489 FORKS OF THE RIVER PKWY,SEVIERVILLE,TN,37862
2361,4082,485 FORKS OF THE RIVER PKWY,SEVIERVILLE,TN,37862
2362,4083,235 PARKWAY,SEVIERVILLE,TN,37862
2363,4086,1291 DOLLY PARTON PKWY,SEVIERVILLE,TN,37862
2364,4087,949 DOLLY PARTON PKWY,SEVIERVILLE,TN,37862
2365,4089,804 MIDDLE CREEK RD,SEVIERVILLE,TN,37862
2366,4094,1112 MEDICAL PARK CT,SEVIERVILLE,TN,37862
2367,4095,1150 FOX MEADOWS BLVD,SEVIERVILLE,TN,37862
2368,4096,1150 FOX MEADOWS BLVD STE 2,SEVIERVILLE,TN,37862
2369,4098,11556 CHAPMAN HWY,SEYMOUR,TN,37865
2370,4099,111 PEACOCK COURT,SEYMOUR,TN,37865
2371,4100,119 MARYVILLE HIGHWAY,SEYMOUR,TN,37865
2372,4101,11548 CHAPMAN HWY,SEYMOUR,TN,37865
2373,4104,111 PEACOCK CT,SEYMOUR,TN,37865
2374,4106,11618 CHAPMAN HWY,SEYMOUR,TN,37865
2375,4109,127 W MACON LN STE 1,SEYMOUR,TN,37865
2376,4110,127 W MACON LN,SEYMOUR,TN,37865
2377,4115,11135 CHAPMAN HWY,SEYMOUR,TN,37865
2378,4116,11550 CHAPMAN HWY,SEYMOUR,TN,37865
2379,4121,7189 STAGE RD,MEMPHIS,TN,38133
2380,4122,2705 APPLING ROAD SUITE 101,MEMPHIS,TN,38133
2381,4123,875 UNION AVENUE,MEMPHIS,TN,38133
2382,4124,2965 NORTH GERMANTOWN ROAD,BARTLETT,TN,38133
2383,4125,7975 STAGE HILLS BLVD,BARTLETT,TN,38133
2384,4126,2965 N GERMANTOWN RD,BARTLETT,TN,38133
2385,4127,2625 APPLING RD,MEMPHIS,TN,38133
2386,4128,2705 APPLING ROAD,MEMPHIS,TN,38133
2387,4129,2705 APPLING RD STE 101,MEMPHIS,TN,38133
2388,4130,2705 APPLING RD,MEMPHIS,TN,38133
2389,4131,2567 APPLING RD,MEMPHIS,TN,38133
2390,4132,7865 EDUCATORS LN,MEMPHIS,TN,38133
2391,4134,7490 BARTLETT CORPORATE CV W,BARTLETT,TN,38133
2392,4135,7519 US HIGHWAY 64,BARTLETT,TN,38133
2393,4136,5317 CLINTON HWY,KNOXVILLE,TN,37912
2394,4137,6727 CLINTON HWY,KNOXVILLE,TN,37912
2395,4140,1703 CALLAHAN DR,KNOXVILLE,TN,37912
2396,4145,114 CEDAR LN,KNOXVILLE,TN,37912
2397,4146,5202 SCHUBERT RD,KNOXVILLE,TN,37912
2398,4147,512 MERCHANT DR,KNOXVILLE,TN,37912
2399,4152,3485 HIGHWAY 79 N,PARIS,TN,38242
2400,4153,219 N POPLAR STREET,PARIS,TN,38242
2401,4154,304 DUNLAP ST,PARIS,TN,38242
2402,4155,409 N POPLAR ST,PARIS,TN,38242
2403,4156,715 MORTON ST,PARIS,TN,38242
2404,4160,850 OGBURN ST,PARIS,TN,38242
2405,4161,405 TYSON AVE,PARIS,TN,38242
2406,4166,324 TYSON AVE,PARIS,TN,38242
2407,4170,405 TYSON AVE STE A,PARIS,TN,38242
2408,4171,60 FAIRGROUNDS RD # A,PARIS,TN,38242
2409,4172,1405 E WOOD ST,PARIS,TN,38242
2410,4174,2125 BLAKEMORE AVE,NASHVILLE,TN,37212
2411,4176,2505 21ST AVE S STE 101,NASHVILLE,TN,37212
2412,4178,2145 BELCOURT AVE,NASHVILLE,TN,37212
2413,4179,1310 24TH AVE S,NASHVILLE,TN,37212
2414,4183,1310 24TH AVE. S,NASHVILLE,TN,37212
2415,4191,1211 21ST AVE S,NASHVILLE,TN,37212
2416,4192,1502 17TH AVE S,NASHVILLE,TN,37212
2417,4193,1500 21ST AVE S,NASHVILLE,TN,37212
2418,4195,1500 21ST AVE S STE 3300,NASHVILLE,TN,37212
2419,4196,2133 B BELCOURT AVE.,NASHVILLE,TN,37212
2420,4197,2133 BELCOURT AVENUE,NASHVILLE,TN,37212
2421,4204,1921 21ST AVE S,NASHVILLE,TN,37212
2422,4205,2006 21ST AVE S,NASHVILLE,TN,37212
2423,4206,2000 21ST AVE S,NASHVILLE,TN,37212
2424,4210,2300 21ST AVE S,NASHVILLE,TN,37212
2425,4213,2300 21ST AVE S STE 301,NASHVILLE,TN,37212
2426,4215,2300 HILLSBORO RD,NASHVILLE,TN,37212
2427,4217,2200 21ST AVE S,NASHVILLE,TN,37212
2428,4220,2505 21ST AVE S,NASHVILLE,TN,37212
2429,4221,1500 21ST AVENUE SOUTH,NASHVILLE,TN,37212
2430,4223,737 S MAIN ST,SOCIETY HILL,SC,29593
2431,4224,2600 S 56TH ST STE A,LINCOLN,NE,68506
2432,4225,4820 ASHEVILLE HWY,KNOXVILLE,TN,37914
2433,4226,100 CHAPEL ST,GRAY,TN,37615
2434,4227,100 CHAPEL ST,JOHNSON CITY,TN,37615
2435,4229,480 SUNCREST DR,GRAY,TN,37615
2436,4230,4723 N ROAN ST,JOHNSON CITY,TN,37615
2437,4231,1303 CARROLL CREEK RD,JOHNSON CITY,TN,37615
2438,4232,4328 N ROAN ST,JOHNSON CITY,TN,37615
2439,4234,124 TIMBER DRIVE,DAYTON,TN,37321
2440,4235,1272 MARKET ST,DAYTON,TN,37321
2441,4236,180 WALNUT GROVE ROAD,DAYTON,TN,37321
2442,4237,391 MAIN ST,DAYTON,TN,37321
2443,4238,155 MAIN ST,DAYTON,TN,37321
2444,4239,225 MAIN ST,DAYTON,TN,37321
2445,4242,225 MAIN ST STE 400,DAYTON,TN,37321
2446,4244,180 WALNUT GROVE RD,DAYTON,TN,37321
2447,4245,2176 HILLSBORO RD,FRANKLIN,TN,37069
2448,4246,3000 STANSBERRY LN STE 105,FRANKLIN,TN,37069
2449,4247,3000 STANSBERRY LN,FRANKLIN,TN,37069
2450,4248,3000 STANSBERRY LANE,FRANKLIN,TN,37069
2451,4249,2020 FIELDSTONE PKWY,FRANKLIN,TN,37069
2452,4250,1201 PERKINS LN,FRANKLIN,TN,37069
2453,4253,3000 STANSBERRY LN STE 101,FRANKLIN,TN,37069
2454,4256,2215 HILLSBORO RD,FRANKLIN,TN,37069
2455,4257,1041 VAUGHN CREST DR,FRANKLIN,TN,37069
2456,4258,5505 IRON GATE DR,FRANKLIN,TN,37069
2457,4259,2016 BAXTER LN,FRANKLIN,TN,37069
2458,4260,554 FRANKLIN RD STE 104,FRANKLIN,TN,37069
2459,4262,109 EAST BEECH STREET,LAFOLLETTE,TN,37766
2460,4263,2257 JACKSBORO PIKE,LA FOLLETTE,TN,37766
2461,4267,403 W ASH ST,LA FOLLETTE,TN,37766
2462,4268,289 HIGHLAND SQ,CROSSVILLE,TN,38555
2463,4270,125 BROWN AVE,CROSSVILLE,TN,38555
2464,4271,112 EAST FIRST STREET,CROSSVILLE,TN,38555
2465,4272,3121 N MAIN ST,CROSSVILLE,TN,38555
2466,4273,125 BROWN AVENUE,CROSSVILLE,TN,38555
2467,4274,805 WEBB AVE,CROSSVILLE,TN,38555
2468,4275,2623 HWY 70 EAST,CROSSVILLE,TN,38555
2469,4276,15 PARKSIDE PLACE,CROSSVILLE,TN,38555
2470,4277,2062 PIGEON RIDGE RD,CROSSVILLE,TN,38555
2471,4278,60 CROSSVILLE MEDICAL DR,CROSSVILLE,TN,38555
2472,4279,2623 HIGHWAY 70 E,CROSSVILLE,TN,38555
2473,4280,510 LIVINGSTON RD,CROSSVILLE,TN,38555
2474,4281,1720 WEST AVE,CROSSVILLE,TN,38555
2475,4283,66 WEST AVE,CROSSVILLE,TN,38555
2476,4287,788 S MAIN ST,CROSSVILLE,TN,38555
2477,4289,2854 N MAIN ST STE 102,CROSSVILLE,TN,38555
2478,4290,1503 S MAIN ST,CROSSVILLE,TN,38555
2479,4291,815 WEBB AVE,CROSSVILLE,TN,38555
2480,4292,3123 MILLER AVE,CROSSVILLE,TN,38555
2481,4294,15 PARKSIDE PL,CROSSVILLE,TN,38555
2482,4295,80 PARKSIDE PL,CROSSVILLE,TN,38555
2483,4299,2410 CHELSEA AVE,MEMPHIS,TN,38108
2484,4301,1741 OLD TUSCULUM RD,GREENEVILLE,TN,37745
2485,4302,2055 E ANDREW JOHNSON HWY,GREENEVILLE,TN,37745
2486,4303,600 TUSCULUM BLVD STE 1,GREENEVILLE,TN,37745
2487,4304,217 N MAIN ST,GREENEVILLE,TN,37745
2488,4305,1104 EAST CHURCH STREET,GREENEVILLE,TN,37745
2489,4306,1308 TUSCULUM BLVD.,GREENEVILLE,TN,37745
2490,4307,1015 TUSCULUM BLVD,GREENEVILLE,TN,37745
2491,4308,22 NORTON RD,GREENEVILLE,TN,37745
2492,4311,4850 E ANDREW JOHNSON HWY,GREENEVILLE,TN,37745
2493,4312,810 W CHURCH ST,GREENEVILLE,TN,37745
2494,4315,112 SPENCER ST,GREENEVILLE,TN,37745
2495,4316,538 TUSCULUM BLVD,GREENEVILLE,TN,37745
2496,4317,600 TUSCULUM BLVD,GREENEVILLE,TN,37745
2497,4319,151 MASON ST,GREENEVILLE,TN,37745
2498,4320,1018 TUSCULUM BLVD,GREENEVILLE,TN,37745
2499,4322,1000 TUSCULUM BLVD,GREENEVILLE,TN,37745
2500,4324,816 TUSCULUM BLVD,GREENEVILLE,TN,37745
2501,4325,1719 LAFAYETTE ST,GREENEVILLE,TN,37745
2502,4326,1338 TUSCULUM BLVD,GREENEVILLE,TN,37745
2503,4328,1308 TUSCULUM BLVD,GREENEVILLE,TN,37745
2504,4334,711 K ST,GREENEVILLE,TN,37745
2505,4335,703 K ST,GREENEVILLE,TN,37745
2506,4337,61 W CHELTEN AVE,PHILADELPHIA,PA,19144
2507,4338,220 VILLAGE SQUARE,LOUDON,TN,37774
2508,4340,16374 HOTCHKISS VALLEY ROAD EAST,LOUDON,TN,37774
2509,4341,16374 HOTCHKISS VALLEY RD. EAST,LOUDON,TN,37774
2510,4343,600 RAYDER AVE,LOUDON,TN,37774
2511,4344,800 MULBERRY ST,LOUDON,TN,37774
2512,4346,805 GROVE ST,LOUDON,TN,37774
2513,4348,16374 HOTCHKISS VALLEY RD E,LOUDON,TN,37774
2514,4350,415 DEVONIA ST,HARRIMAN,TN,37748
2515,4351,421 DEVONIA ST,HARRIMAN,TN,37748
2516,4352,802 WALDEN AVE,HARRIMAN,TN,37748
2517,4353,1305 S ROANE ST,HARRIMAN,TN,37748
2518,4354,1855 TANNER WAY,HARRIMAN,TN,37748
2519,4356,2317 S ROANE ST,HARRIMAN,TN,37748
2520,4357,4805 GALLATIN ROAD,NASHVILLE,TN,37216
2521,4358,4805 GALLATIN PIKE,NASHVILLE,TN,37216
2522,4359,4311 GALLATIN PIKE,NASHVILLE,TN,37216
2523,4361,3926 GALLATIN PIKE,NASHVILLE,TN,37216
2524,4363,710 HART LN,NASHVILLE,TN,37216
2525,4365,3314 GALLATIN PIKE,NASHVILLE,TN,37216
2526,4367,1015 E TRINITY LN,NASHVILLE,TN,37216
2527,4368,1077 E TRINITY LN STE 104,NASHVILLE,TN,37216
2528,4369,2475 HIGHWAY 49 E,PLEASANT VIEW,TN,37146
2529,4370,601 E COLLEGE ST,PULASKI,TN,38478
2530,4371,317 S 2ND ST,PULASKI,TN,38478
2531,4373,604 EAST COLLEGE ST,PULASKI,TN,38478
2532,4374,217 W JEFFERSON ST,PULASKI,TN,38478
2533,4378,403 E COLLEGE ST,PULASKI,TN,38478
2534,4385,1426 W COLLEGE ST,PULASKI,TN,38478
2535,4388,1216 THOMAS ST,MEMPHIS,TN,38107
2536,4393,104 LEXINGTON PLAZA,LEXINGTON,TN,38351
2537,4395,27 N BROAD ST,LEXINGTON,TN,38351
2538,4396,104 LEXINGTON PLZ,LEXINGTON,TN,38351
2539,4398,431 W CHURCH ST,LEXINGTON,TN,38351
2540,4399,115 S BROAD ST,LEXINGTON,TN,38351
2541,4400,136 N MAIN ST,LEXINGTON,TN,38351
2542,4401,10855 HIGHWAY 412 W,LEXINGTON,TN,38351
2543,4403,115 PICKWICK ST,SAVANNAH,TN,38372
2544,4404,150 GUINN ST,SAVANNAH,TN,38372
2545,4405,165 COLLEGE ST,SAVANNAH,TN,38372
2546,4406,100 ENOCH BLVD,SAVANNAH,TN,38372
2547,4408,20 W MAIN ST,SAVANNAH,TN,38372
2548,4409,30 CANBY CIR,SAVANNAH,TN,38372
2549,4410,1480 FLORENCE RD,SAVANNAH,TN,38372
2550,4412,4933 BRAINERD RD,CHATTANOOGA,TN,37411
2551,4413,4110C BRAINERD RD,CHATTANOOGA,TN,37411
2552,4414,150 DEBRA ROAD,CHATTANOGGA,TN,37411
2553,4415,5323 BRAINERD RD,CHATTANOOGA,TN,37411
2554,4416,"VETERANS AFFAIRS, COPC",CHATTANOOGA,TN,37411
2555,4417,5323 BRAINERD ROAD,CHATTANOOGA,TN,37411
2556,4418,4610 BRAINERD ROAD,CHATTANOOGA,TN,37411
2557,4420,6098 DEBRA RD STE 5200,CHATTANOOGA,TN,37411
2558,4422,3210 WILCOX BLVD,CHATTANOOGA,TN,37411
2559,4424,4600 BRAINERD RD,CHATTANOOGA,TN,37411
2560,4425,4601 BRAINERD RD,CHATTANOOGA,TN,37411
2561,4428,4700 BRAINERD RD,CHATTANOOGA,TN,37411
2562,4430,4727 BRAINERD RD,CHATTANOOGA,TN,37411
2563,4432,4610 BRAINERD RD,CHATTANOOGA,TN,37411
2564,4435,4610 BRAINERD RD STE 2,CHATTANOOGA,TN,37411
2565,4442,415 S GERMANTOWN RD,CHATTANOOGA,TN,37411
2566,4447,5323 BRAINERD RD STE 105,CHATTANOOGA,TN,37411
2567,4449,5708 UPTAIN RD,CHATTANOOGA,TN,37411
2568,4450,5708 UPTAIN RD STE 100,CHATTANOOGA,TN,37411
2569,4452,68 OLD AIRPORT RD,HATTIESBURG,MS,39401
2570,4453,1045 MULLINS STATION ROAD,MEMPHIS,TN,38112
2571,4454,2953 BROAD AVE,MEMPHIS,TN,38112
2572,4455,2861 BROAD AVE,MEMPHIS,TN,38112
2573,4465,2670 UNION AVENUE EXT,MEMPHIS,TN,38112
2574,4466,222 BOWMAN ST,MORRISTOWN,TN,37813
2575,4467,3622 E MORRIS BLVD,MORRISTOWN,TN,37813
2576,4468,467 S DAVY CROCKETT PKWY,MORRISTOWN,TN,37813
2577,4469,467 S DAVY CROCKETT PKWY STE 1,MORRISTOWN,TN,37813
2578,4470,468 CROCKETT TRACE DR UNIT 1,MORRISTOWN,TN,37813
2579,4472,1551 E MORRIS BLVD,MORRISTOWN,TN,37813
2580,4475,500 HWY 51 SOUTH,RIPLEY,TN,38063
2581,4476,201 TUCKER AVE,RIPLEY,TN,38063
2582,4478,311 ASBURY AVE,RIPLEY,TN,38063
2583,4479,1800 HIGHWAY 51 S,RIPLEY,TN,38063
2584,4481,189 MONROE PL STE 104,ASHLAND CITY,TN,37015
2585,4482,202 C MAIN STREET,ASHLAND CITY,TN,37015
2586,4483,776 S MAIN ST,ASHLAND CITY,TN,37015
2587,4487,7418 NORRIS FWY,KNOXVILLE,TN,37938
2588,4490,1340 E EMORY RD,KNOXVILLE,TN,37938
2589,4491,1213 SOUTH GAY STREET,DANDRIDGE,TN,37725
2590,4492,334 HIGHWAY 92 SOUTH,DANDRIDGE,TN,37725
2591,4493,1047 A SOUTH HWY 92,DANDRIDGE,TN,37725
2592,4494,117 E PRICE RD,DANDRIDGE,TN,37725
2593,4495,214 W CHURCH ST,UNION CITY,TN,38261
2594,4496,1007 REELFOOT AVE,UNION CITY,TN,38261
2595,4497,1007 E REELFOOT AVE,UNION CITY,TN,38261
2596,4498,1007 EAST REELFOOT AVE,UNION CITY,TN,38261
2597,4499,1117 S MILES AVE,UNION CITY,TN,38261
2598,4500,1209 RUSSELL ST,UNION CITY,TN,38261
2599,4501,201 W MAIN ST,UNION CITY,TN,38261
2600,4504,1200 BISHOP ST,UNION CITY,TN,38261
2601,4505,626 E REELFOOT AVE,UNION CITY,TN,38261
2602,4509,1003 E REELFOOT AVE,UNION CITY,TN,38261
2603,4510,1301 MEDICAL PARK CIR,UNION CITY,TN,38261
2604,4512,1320 PLEASANT VALLEY AVE,UNION CITY,TN,38261
2605,4513,1623 E REELFOOT AVE,UNION CITY,TN,38261
2606,4514,153 KENNEDY DR,MARTIN,TN,38237
2607,4516,113 KENNEDY DRIVE,MARTIN,TN,38237
2608,4518,103 KENNEDY DR,MARTIN,TN,38237
2609,4521,145 KENNEDY DR,MARTIN,TN,38237
2610,4522,113 KENNEDY DR STE 2,MARTIN,TN,38237
2611,4526,129 COMMONS DR,MARTIN,TN,38237
2612,4527,210 WARREN ST,MADISONVILLE,TN,37354
2613,4528,4249 HIGHWAY 411,MADISONVILLE,TN,37354
2614,4530,4233 HIGHWAY 411,MADISONVILLE,TN,37354
2615,4532,3469 NEW HIGHWAY 68,MADISONVILLE,TN,37354
2616,4536,966 LAKESIDE RD,MADISONVILLE,TN,37354
2617,4537,8590 FARMINGTON BLVD STE 5,GERMANTOWN,TN,38139
2618,4538,8590 FARMINGTON BLVD,GERMANTOWN,TN,38139
2619,4540,2059 S HOUSTON LEVEE RD,GERMANTOWN,TN,38139
2620,4543,1007 DB TODD BLVD,NASHVILLE,TN,37208
2621,4544,1390 ADAMS ST STE 12,NASHVILLE,TN,37208
2622,4545,1005 DR DB TODD BLVD,NASHVILLE,TN,37208
2623,4546,1700 DB TODD BLVD,NASHVILLE,TN,37208
2624,4547,1005 DR D B TODD JR BLVD,NASHVILLE,TN,37208
2625,4548,1324 4TH AVE NORTH,NASHVILLE,TN,37208
2626,4549,2108 MEHARRY BLVD,NASHVILLE,TN,37208
2627,4550,1005 D B TODD BLVD A 33,NASHVILLE,TN,37208
2628,4551,1005 D B TODD BLVD,NASHVILLE,TN,37208
2629,4552,1005 DR. D. B. TODD JR. BLVD.,NASHVILLE,TN,37208
2630,4553,1005 DR. D.B TODD JR BLVD,NASHVILLE,TN,37208
2631,4554,1005 DR. D.B. TODD BLVD.,NASHVILLE,TN,37208
2632,4555,1005 DR DB TODD JR BLVD,NASHVILLE,TN,37208
2633,4556,1005 DR. D.B. TODD JR. BLVD,NASHVILLE,TN,37208
2634,4557,1005 DB TODD BLVD,NASHVILLE,TN,37208
2635,4558,1314 5TH AVE N,NASHVILLE,TN,37208
2636,4564,961 16TH AVE N,NASHVILLE,TN,37208
2637,4565,944 21ST AVE N,NASHVILLE,TN,37208
2638,4566,944 21ST AVE N APT 112,NASHVILLE,TN,37208
2639,4567,944 21ST AVE N APT 909,NASHVILLE,TN,37208
2640,4569,"1005 DR. D.B. TODD,JR. BLVD",NASHVILLE,TN,37208
2641,4579,1005 DR DB TODD JR BLVD STE 106,NASHVILLE,TN,37208
2642,4586,1005 DR. D.B. TODD,NASHVILLE,TN,37208
2643,4587,1005 DR. D. B. TODD JR. BLVD,NASHVILLE,TN,37208
2644,4588,1005 DR. D. B. TODD BLVD,NASHVILLE,TN,37208
2645,4589,1005 DR. D.B. TODD JR. BOULEVARD,NASHVILLE,TN,37208
2646,4590,"1005 DR. D.B. TODD, JR. BOULEVARD",NASHVILLE,TN,37208
2647,4591,1005 DR. D.B TODD JR. BLVD,NASHVILLE,TN,37208
2648,4592,1005 DB TODD JR BLVD,NASHVILLE,TN,37208
2649,4593,1035-14TH AVENUE NORTH,NASHVILLE,TN,37208
2650,4595,6275 UNIVERSITY DR NW # 37-127,HUNTSVILLE,AL,35806
2651,4597,7901 MALL RD,FLORENCE,KY,41042
2652,4598,7030 YOUREE DR STE B,SHREVEPORT,LA,71105
2653,4599,3119 VALLEY AVE STE 108,WINCHESTER,VA,22601
2654,4600,567 W 14TH ST UNIT C,CHICAGO HEIGHTS,IL,60411
2655,4604,375 KELSEY LN STE 1,LENOIR CITY,TN,37772
2656,4605,3380 W 38TH AVE,DENVER,CO,80211
2657,4608,8085 W BELL RD STE 103,PEORIA,AZ,85382
2658,4609,4645 OUTER LOOP,LOUISVILLE,KY,40219
2659,4610,3455 GOVERNMENT ST,BATON ROUGE,LA,70806
2660,4611,451 MURFREESBORO PIKE,NASHVILLE,TN,37210
2661,4612,451 MURFREESBORO RD,NASHVILLE,TN,37210
2662,4617,447 MURFREESBORO PIKE,NASHVILLE,TN,37210
2663,4621,600 HILL AVE STE 1,NASHVILLE,TN,37210
2664,4622,4817 RIVER RD N,KEIZER,OR,97303
2665,4625,2151 NW BOCA RATON BLVD STE 102,BOCA RATON,FL,33431
2666,4626,1011 WATERFORD PL,KINGSTON,TN,37763
2667,4627,1212 N KENTUCKY ST,KINGSTON,TN,37763
2668,4629,1212 NORTH KENTUCKY ST,KINGSTON,TN,37763
2669,4635,505 N KENTUCKY ST,KINGSTON,TN,37763
2670,4636,820 N KENTUCKY ST,KINGSTON,TN,37763
2671,4647,513 W CUMBERLAND ST,KINGSTON,TN,37763
2672,4648,1000 BRADFORD WAY,KINGSTON,TN,37763
2673,4649,2943 SOUTH CHURCH RD.,MURFREESBORO,TN,37127
2674,4651,2850 S CHURCH ST,MURFREESBORO,TN,37127
2675,4652,3138 S CHURCH ST STE H,MURFREESBORO,TN,37127
2676,4654,3701 E END DR,HUMBOLDT,TN,38343
2677,4655,1630 MAIN STREET,HUMBOLDT,TN,38343
2678,4657,426 HWY 51 SOUTH,COVINGTON,TN,38019
2679,4658,4700 MUELLER BRASS ROAD,COVINGTON,TN,38019
2680,4659,635 HWY 51 S.,COVINGTON,TN,38019
2681,4660,720 W. SHERROD AVE,COVINGTON,TN,38019
2682,4661,973 HIGHWAY 51 N STE 7,COVINGTON,TN,38019
2683,4662,973 HIGHWAY 51 N,COVINGTON,TN,38019
2684,4663,726 HIGHWAY 51 N,COVINGTON,TN,38019
2685,4665,115 S MUNFORD ST,COVINGTON,TN,38019
2686,4667,122 E PLEASANT AVE,COVINGTON,TN,38019
2687,4669,720 W SHERROD AVE,COVINGTON,TN,38019
2688,4671,200 N A ST,LENOIR CITY,TN,37771
2689,4672,1101 EAST BROADWAY,LENOIR CITY,TN,37771
2690,4673,603 HWY 321 N.,LENOIR CITY,TN,37771
2691,4674,1101 E BROADWAY ST,LENOIR CITY,TN,37771
2692,4677,603 HIGHWAY 321 N,LENOIR CITY,TN,37771
2693,4685,875 HIGHWAY 321 N,LENOIR CITY,TN,37771
2694,4688,1408 JAMES BLVD,SIGNAL MOUNTAIN,TN,37377
2695,4689,809 RIDGEWAY AVE,SIGNAL MOUNTAIN,TN,37377
2696,4692,899 LADDER TRL,SIGNAL MOUNTAIN,TN,37377
2697,4693,1229 TAFT HWY,SIGNAL MOUNTAIN,TN,37377
2698,4695,705 GATE LANE,KNOXVILLE,TN,37909
2699,4696,4533 PAPERMILL ROAD,KNOXVILLE,TN,37909
2700,4697,1301 OLD WEISGARBER ROAD,KNOXVILLE,TN,37909
2701,4698,6908 OFFICE PARK CIR,KNOXVILLE,TN,37909
2702,4699,6908 OFFICE PARK CIRCLE,KNOXVILLE,TN,37909
2703,4701,1301 OLD WEISGARBER RD,KNOXVILLE,TN,37909
2704,4703,4714 PAPERMILL DR,KNOXVILLE,TN,37909
2705,4706,7405 BENNINGTON DR,KNOXVILLE,TN,37909
2706,4707,705 GATE LN,KNOXVILLE,TN,37909
2707,4709,1516 COLEMAN RD STE 205,KNOXVILLE,TN,37909
2708,4711,1516 COLEMAN RD,KNOXVILLE,TN,37909
2709,4717,201 S HIGH ST,SWEETWATER,TN,37874
2710,4718,206 MAYES AVE,SWEETWATER,TN,37874
2711,4719,745 NEW HIGHWAY 68,SWEETWATER,TN,37874
2712,4720,808 NEW HIGHWAY 68,SWEETWATER,TN,37874
2713,4723,520 S MAIN ST,SWEETWATER,TN,37874
2714,4724,914 NEW HIGHWAY 68,SWEETWATER,TN,37874
2715,4725,501 OAK ST N,SWEETWATER,TN,37874
2716,4727,402 E MAIN BLVD,CHURCH HILL,TN,37642
2717,4728,247 SILVER LAKE RD,CHURCH HILL,TN,37642
2718,4730,108 S CENTRAL AVE,CHURCH HILL,TN,37642
2719,4732,4149 TIMOTHY DR,NASHVILLE,TN,37218
2720,4733,3915 CLARKSVILLE PIKE # B,NASHVILLE,TN,37218
2721,4734,3915 CLARKSVILLE PIKE,NASHVILLE,TN,37218
2722,4735,3803 HYDES FERRY RD,NASHVILLE,TN,37218
2723,4736,3304 COURTNEY CT,NASHVILLE,TN,37218
2724,4737,3360 HOSPITAL LN,NASHVILLE,TN,37218
2725,4738,3106 RIVER DR,NASHVILLE,TN,37218
2726,4740,1200 DODSON AVE,CHATTANOOGA,TN,37406
2727,4743,4260 FORT HENRY DR STE 13,KINGSPORT,TN,37663
2728,4744,4016 FORT HENRY DRIVE,KINGSPORT,TN,37663
2729,4745,1339 MORELAND DRIVE,KINGSPORT,TN,37663
2730,4746,150 CLINIC DRIVE,KINGSPORT,TN,37663
2731,4747,116 KENDRICK ST,KINGSPORT,TN,37663
2732,4748,1741 MORELAND DR,KINGSPORT,TN,37663
2733,4749,4260 FORT HENRY DR,KINGSPORT,TN,37663
2734,4752,150 CLINIC DR,KINGSPORT,TN,37663
2735,4753,150 CLINIC DR STE B,KINGSPORT,TN,37663
2736,4754,150 CLINIC DR STE F,KINGSPORT,TN,37663
2737,4755,150 CLINIC DR STE A,KINGSPORT,TN,37663
2738,4756,4621 FORT HENRY DR,KINGSPORT,TN,37663
2739,4757,4623 FORT HENRY DR,KINGSPORT,TN,37663
2740,4759,1339 MORELAND DR,KINGSPORT,TN,37663
2741,4760,1339 MORELAND DR STE 1,KINGSPORT,TN,37663
2742,4763,830 CHEROKEE BLVD,CHATTANOOGA,TN,37405
2743,4764,830 CHEROKEE RLVD,CHATTANOOGA,TN,37405
2744,4766,313 MANUFACTURERS RD,CHATTANOOGA,TN,37405
2745,4767,301 MANUFACTURERS RD,CHATTANOOGA,TN,37405
2746,4769,417 FRAZIER AVE,CHATTANOOGA,TN,37405
2747,4770,1312 HANOVER ST,CHATTANOOGA,TN,37405
2748,4775,1203 E COLLEGE ST,BROWNSVILLE,TN,38012
2749,4776,980 BERRYWOOD AVE,BROWNSVILLE,TN,38012
2750,4777,130 PEACHTREE PLZ,BROWNSVILLE,TN,38012
2751,4781,20 N WASHINGTON AVE,BROWNSVILLE,TN,38012
2752,4782,10330 HARDIN VALLEY RD,KNOXVILLE,TN,37932
2753,4783,2276 VALLEY VISTA ROAD,KNOXVILLE,TN,37932
2754,4784,10788 HARDIN VALLEY RD,KNOXVILLE,TN,37932
2755,4785,10509 HARDIN VALLEY RD,KNOXVILLE,TN,37932
2756,4786,2040 CASTAIC LN,KNOXVILLE,TN,37932
2757,4789,4618 HIGHWAY 58,CHATTANOOGA,TN,37416
2758,4791,4620 HWY 58,CHATTANOOGA,TN,37416
2759,4792,4355 HWY 58,CHATTANOOGA,TN,37416
2760,4793,4972 HIGHWAY 58,CHATTANOOGA,TN,37416
2761,4795,4767 HIGHWAY 58,CHATTANOOGA,TN,37416
2762,4796,4355 HIGHWAY 58,CHATTANOOGA,TN,37416
2763,4797,4355 HIGHWAY 58 STE 103A,CHATTANOOGA,TN,37416
2764,4798,4620 HIGHWAY 58,CHATTANOOGA,TN,37416
2765,4801,4216 CROSS ST,CHATTANOOGA,TN,37416
2766,4804,6425 BONNY OAKS DR,CHATTANOOGA,TN,37416
2767,4806,1741 BYPASS RD,WINCHESTER,TN,37398
2768,4807,303 1ST AVE NW,WINCHESTER,TN,37398
2769,4808,111 1ST AVE SW,WINCHESTER,TN,37398
2770,4809,215 S JEFFERSON ST,WINCHESTER,TN,37398
2771,4813,186 HOSPITAL RD,WINCHESTER,TN,37398
2772,4814,550 BALLARDS PRIVATE DR,BLOUNTVILLE,TN,37617
2773,4815,975 EMERGENCY RD.,BLOUNTVILLE,TN,37617
2774,4816,975 EMERGENCY ROAD,BLOUNTVILLE,TN,37617
2775,4817,193 FRANKLIN DR,BLOUNTVILLE,TN,37617
2776,4820,5885 RIDGEWAY CENTER PKWY STE 200,MEMPHIS,TN,38120
2777,4821,6425 QUAIL HOLLOW ROAD,MEMPHIS,TN,38120
2778,4822,665 VALLEYBROOK DRIVE,MEMPHIS,TN,38120
2779,4823,1755 KIRBY PARKWAY,MEMPHIS,TN,38120
2780,4824,6425 QUAIL HOLLOW RD,MEMPHIS,TN,38120
2781,4825,1661 AARON BRENNER DR STE 105,MEMPHIS,TN,38120
2782,4826,780 RIDGE LAKE BLVD STE 101,MEMPHIS,TN,38120
2783,4827,795 RIDGE LAKE BLVD STE 101,MEMPHIS,TN,38120
2784,4828,805 ESTATE PL,MEMPHIS,TN,38120
2785,4829,6389 N QUAIL HOLLOW RD STE 202,MEMPHIS,TN,38120
2786,4830,1661 INTERNATIONAL DR,MEMPHIS,TN,38120
2787,4831,1661 INTERNATIONAL DRIVE,MEMPHIS,TN,38120
2788,4832,1655 INTERNATIONAL DR,MEMPHIS,TN,38120
2789,4833,1655 INTERNATIONAL DRIVE,MEMPHIS,TN,38120
2790,4834,6425 N QUAIL HOLLOW RD # -,MEMPHIS,TN,38120
2791,4835,6425 N QUAIL HOLLOW RD,MEMPHIS,TN,38120
2792,4837,6425 N QUAIL HOLLOW RD STE 102,MEMPHIS,TN,38120
2793,4841,50 HUMPHREYS CTR,MEMPHIS,TN,38120
2794,4842,369 WINDING RIVER CIR,MEMPHIS,TN,38120
2795,4843,1000 RIDGEWAY LOOP RD,MEMPHIS,TN,38120
2796,4844,5885 RIDGEWAY CENTER PKWY,MEMPHIS,TN,38120
2797,4848,1715 KIRBY PKWY,MEMPHIS,TN,38120
2798,4850,1711 KIRBY PKWY,MEMPHIS,TN,38120
2799,4853,1723 KIRBY PKWY,MEMPHIS,TN,38120
2800,4854,1721 KIRBY PKWY,MEMPHIS,TN,38120
2801,4857,1707 KIRBY PARKWAY,MEMPHIS,TN,38120
2802,4862,1755 KIRBY PKWY,MEMPHIS,TN,38120
2803,4863,780 RIDGE LAKE BLVD,MEMPHIS,TN,38120
2804,4865,780 RIDGE LAKE BLVD STE 201,MEMPHIS,TN,38120
2805,4869,813 RIDGE LAKE BLVD,MEMPHIS,TN,38120
2806,4870,795 RIDGE LAKE BLVD,MEMPHIS,TN,38120
2807,4873,5866 RIDGE BEND RD,MEMPHIS,TN,38120
2808,4877,1203 SCOTTSVILLE RD,LAFAYETTE,TN,37083
2809,4878,726 HWY 52 BY PASS W,LAFAYETTE,TN,37083
2810,4879,1001 SCOTTSVILLE RD,LAFAYETTE,TN,37083
2811,4882,412 COLLEGE ST,LAFAYETTE,TN,37083
2812,4884,520 HIGHWAY 76,WHITE HOUSE,TN,37188
2813,4885,614 C HWY 76,WHITEHOUSE,TN,37188
2814,4886,706 A HWY 76,WHITE HOUSE,TN,37188
2815,4887,520 TN 76,WHITE HOUSE,TN,37188
2816,4888,2823 HWY 31 W SOUTH,WHITE HOUSE,TN,37188
2817,4889,614C HWY 76,WHITEHOUSE,TN,37188
2818,4890,2823 HWY 31W SOUTH STE 300,WHITE HOUSE,TN,37188
2819,4891,2823 HWY 31-W SOUTH,WHITE HOUSE,TN,37188
2820,4892,"301 WHITE HOUSE CROSSING WAY, STE. B",WHITE HOUSE,TN,37188
2821,4893,2823 HIGHWAY 31 W,WHITE HOUSE,TN,37188
2822,4894,520 HIGHWAY 76 STE 9,WHITE HOUSE,TN,37188
2823,4896,323 WEST DR,WHITE HOUSE,TN,37188
2824,4899,614C HIGHWAY 76,WHITE HOUSE,TN,37188
2825,4901,407 SOUTH MT STREET,SMITHVILLE,TN,37166
2826,4902,201 S 3RD ST,SMITHVILLE,TN,37166
2827,4905,612 S CONGRESS BLVD,SMITHVILLE,TN,37166
2828,4906,2524 HIGHWAY 41 S,GREENBRIER,TN,37073
2829,4907,1602 SOUTH HOLTZCLAW AVENUE,CHATTANOOGA,TN,37404
2830,4908,615 DERBY ST,CHATTANOOGA,TN,37404
2831,4910,425 CUMBERLAND ST,CHATTANOOGA,TN,37404
2832,4911,1625 MCCALLIE AVE,CHATTANOOGA,TN,37404
2833,4912,802 S CREST RD,CHATTANOOGA,TN,37404
2834,4913,1124 N GATEWAY AVE,ROCKWOOD,TN,37854
2835,4914,1546 GATEWAY AVE.,ROCKWOOD,TN,37854
2836,4915,117 N GATEWAY AVE,ROCKWOOD,TN,37854
2837,4916,1362 N GATEWAY AVE,ROCKWOOD,TN,37854
2838,4917,1546 N GATEWAY AVE,ROCKWOOD,TN,37854
2839,4919,1199 COLD SPRINGS RD,MOUNTAIN CITY,TN,37683
2840,4920,315 W MAIN ST,MOUNTAIN CITY,TN,37683
2841,4921,5249 HWY 67W,MOUNTAIN CITY,TN,37683
2842,4922,715 W MAIN ST,MOUNTAIN CITY,TN,37683
2843,4923,222 OAK ST,MOUNTAIN CITY,TN,37683
2844,4927,136 SOUTH WASHINGTON AVE,HENDERSON,TN,38340
2845,4928,1520 CHERRY CREEK CV,HENDERSON,TN,38340
2846,4931,136 S WASHINGTON AVE,HENDERSON,TN,38340
2847,4933,1205 GEORGE AVE,JEFFERSON CITY,TN,37760
2848,4934,156 W. BROADWAY BLVD.,JEFFERSON CITY,TN,37760
2849,4935,156 W BROADWAY BLVD,JEFFERSON CITY,TN,37760
2850,4939,113 E BROADWAY BLVD,JEFFERSON CITY,TN,37760
2851,4941,454 E BROADWAY BLVD,JEFFERSON CITY,TN,37760
2852,4942,683 E BROADWAY BLVD,JEFFERSON CITY,TN,37760
2853,4943,920 S HARTMANN DR,LEBANON,TN,37090
2854,4944,103 PHYSICIANS WAY,LEBANON,TN,37090
2855,4946,510 N MAIN AVE,ERWIN,TN,37650
2856,4947,600 N MAIN AVE,ERWIN,TN,37650
2857,4954,1070 N MAIN AVE,ERWIN,TN,37650
2858,4955,4516 US HWY 11 EAST,BLUFF CITY,TN,37618
2859,4956,4453 HIGHWAY 11 E,BLUFF CITY,TN,37618
2860,4957,4516 HIGHWAY 11 E,BLUFF CITY,TN,37618
2861,4959,240 CENTRAL AVE W,JAMESTOWN,TN,38556
2862,4960,214 NORTH MAIN STREET,JAMESTOWN,TN,38556
2863,4961,104 REAGAN AVE,JAMESTOWN,TN,38556
2864,4962,240 CENTRAL AVE. WEST,JAMESTOWN,TN,38556
2865,4963,214 N MAIN ST,JAMESTOWN,TN,38556
2866,4965,99 S MAIN ST,MEMPHIS,TN,38103
2867,4966,165 MADISON AV.,MEMPHIS,TN,38103
2868,4967,45 HANNIBAL COVE,MEMPHIS,TN,38103
2869,4968,875 UNION AVE,MEMPHIS,TN,38103
2870,4973,100 N. MAIN,MEMPHIS,TN,38103
2871,4974,50 N FRONT ST STE 870,MEMPHIS,TN,38103
2872,4975,165 MADISON AVE,MEMPHIS,TN,38103
2873,4976,848 ADAMS AVE.,MEMPHIS,TN,38103
2874,4978,910 MADISON AVE,MEMPHIS,TN,38103
2875,4981,930 MADISON AVE,MEMPHIS,TN,38103
2876,4982,920 MADISON AVE STE 447,MEMPHIS,TN,38103
2877,4983,910 MADISON AVE STE 710,MEMPHIS,TN,38103
2878,5013,875 UNION AVE FL 5,MEMPHIS,TN,38103
2879,5018,875 UNION AVE # C316,MEMPHIS,TN,38103
2880,5022,875 UNION AVE.,MEMPHIS,TN,38103
2881,5024,875 UNION AVE STE 301,MEMPHIS,TN,38103
2882,5027,875 UNION AVE # 38163,MEMPHIS,TN,38103
2883,5030,385 TENNESSEE ST APT 1,MEMPHIS,TN,38103
2884,5031,618 CHARLESTON CT APT 301,MEMPHIS,TN,38103
2885,5032,70 RIVER HEIGHTS DR APT 304,MEMPHIS,TN,38103
2886,5033,113 HARBOR TOWN SQ STE 203,MEMPHIS,TN,38103
2887,5036,1365 ARMAND DR APT 303,MEMPHIS,TN,38103
2888,5038,2611 S QUILLAN PL,KENNEWICK,WA,99338
2889,5039,8300 HOUGH AVE,CLEVELAND,OH,44103
2890,5041,8263 MADISON BLVD STE A,MADISON,AL,35758
2891,5042,309 SW 59TH ST STE 105,OKLAHOMA CITY,OK,73109
2892,5043,2946 WINFIELD DUNN PKWY STE 301,KODAK,TN,37764
2893,5044,2095 9TH ST N,NAPLES,FL,34102
2894,5046,8301 IMPERIAL HWY,DOWNEY,CA,90242
2895,5047,4129 S 1ST ST,MILAN,TN,38358
2896,5048,4129 SOUTH FIRST ST,MILAN,TN,38358
2897,5050,1124 S MAIN ST,MILAN,TN,38358
2898,5051,2014 S 1ST ST,MILAN,TN,38358
2899,5053,2025 S 1ST ST,MILAN,TN,38358
2900,5055,14029 S 1ST ST,MILAN,TN,38358
2901,5056,7300 CREEK RIDGE DR,HARRISON,TN,37341
2902,5057,5707 HIGHWAY 58 STE 103,HARRISON,TN,37341
2903,5059,4660 TROUSDALE DR,NASHVILLE,TN,37204
2904,5060,808 KIRKWOOD AVE,NASHVILLE,TN,37204
2905,5061,705 CRAIGHEAD STREET,NASHVILLE,TN,37204
2906,5062,705 CRAIGHEAD ST,NASHVILLE,TN,37204
2907,5063,2641 8TH AVENUE SOUTH,NASHVILLE,TN,37204
2908,5064,2321 8TH AVE S,NASHVILLE,TN,37204
2909,5065,601 BENTON AVE,NASHVILLE,TN,37204
2910,5066,2700 12TH AVE S,NASHVILLE,TN,37204
2911,5067,625 BERRY RD,NASHVILLE,TN,37204
2912,5070,2831 BRANSFORD AVE,NASHVILLE,TN,37204
2913,5071,2827 BRANSFORD AVE,NASHVILLE,TN,37204
2914,5073,2802 BRANSFORD AVE,NASHVILLE,TN,37204
2915,5074,2828 BRANSFORD AVE,NASHVILLE,TN,37204
2916,5077,719 THOMPSON LN,NASHVILLE,TN,37204
2917,5078,2908 SIDCO DR,NASHVILLE,TN,37204
2918,5081,719 THOMPSON LN STE 30330,NASHVILLE,TN,37204
2919,5083,1800 W END AVE STE 102,NASHVILLE,TN,37203
2920,5084,1916 HAYES ST,NASHVILLE,TN,37203
2921,5085,1916 PATTERSON ST,NASHVILLE,TN,37203
2922,5086,1704 CHARLOTTE AVE STE 100,NASHVILLE,TN,37203
2923,5087,"1633 CHURCH STREET, SUITE 200",NASHVILLE,TN,37203
2924,5088,323 21ST AVE NORTH,NASHVILLE,TN,37203
2925,5089,1916 HAYES STREET,NASHVILLE,TN,37203
2926,5090,328 22ND AVE NORHT,NASHVILLE,TN,37203
2927,5091,2026 CLIFTON AVE.,NASHVILLE,TN,37203
2928,5092,324 22ND AVE N.,NASHVILLE,TN,37203
2929,5093,3127 LONG BLVD APT 308,NASHVILLE,TN,37203
2930,5094,328 22ND AVE N,NASHVILLE,TN,37203
2931,5095,124 30TH AVE N,NASHVILLE,TN,37203
2932,5097,1800 WEST END AVENUE,NASHVILLE,TN,37203
2933,5098,207 23RD AVE N,NASHVILLE,TN,37203
2934,5102,207 TWENTY THIRD AVENUE NORTH,NASHVILLE,TN,37203
2935,5105,311 23RD AVE N,NASHVILLE,TN,37203
2936,5106,310 23RD AVE N,NASHVILLE,TN,37203
2937,5110,2400 PATTERSON ST,NASHVILLE,TN,37203
2938,5112,110 31ST AVE N APT 505,NASHVILLE,TN,37203
2939,5113,113 23RD AVE N,NASHVILLE,TN,37203
2940,5117,341 22ND AVE N,NASHVILLE,TN,37203
2941,5118,2106 CHARLOTTE AVE,NASHVILLE,TN,37203
2942,5134,309 22ND AVE N,NASHVILLE,TN,37203
2943,5135,326 21ST AVE N,NASHVILLE,TN,37203
2944,5136,333 21ST AVE N,NASHVILLE,TN,37203
2945,5137,2026 CLIFTON AVE,NASHVILLE,TN,37203
2946,5139,2011 CHARLOTTE AVE,NASHVILLE,TN,37203
2947,5141,1900 PATTERSON ST,NASHVILLE,TN,37203
2948,5145,5357 MT VIEW RD,NASHVILLE,TN,37203
2949,5147,1829 JO JOHNSTON AVENUE,NASHVILLE,TN,37203
2950,5149,1900 PATTERSON ST STE 101,NASHVILLE,TN,37203
2951,5150,1915 CHARLOTTE AVE,NASHVILLE,TN,37203
2952,5153,300 20TH AVE N,NASHVILLE,TN,37203
2953,5154,1916 PATTERSON ST STE 605,NASHVILLE,TN,37203
2954,5155,1914 CHARLOTTE AVE,NASHVILLE,TN,37203
2955,5156,1801 CHURCH ST,NASHVILLE,TN,37203
2956,5159,1915 CHURCH ST,NASHVILLE,TN,37203
2957,5160,1913 CHURCH ST,NASHVILLE,TN,37203
2958,5161,1926 HAYES ST,NASHVILLE,TN,37203
2959,5163,1801 W END AVE STE 1100,NASHVILLE,TN,37203
2960,5164,1829 JO JOHNSTON AVE,NASHVILLE,TN,37203
2961,5165,1721 PATTERSON ST,NASHVILLE,TN,37203
2962,5171,1633 CHURCH ST STE 200,NASHVILLE,TN,37203
2963,5172,1506 CHURCH ST,NASHVILLE,TN,37203
2964,5174,701 BROADWAY STE 130,NASHVILLE,TN,37203
2965,5175,701 BROADWAY,NASHVILLE,TN,37203
2966,5184,"701 BROADWAY, SUITE 130",NASHVILLE,TN,37203
2967,5191,224 11TH AVENUE S,NASHVILLE,TN,37203
2968,5193,639 LAFAYETTE ST,NASHVILLE,TN,37203
2969,5194,121 21ST AVE N,NASHVILLE,TN,37203
2970,5195,1900 12TH AVE SO,NASHVILLE,TN,37203
2971,5196,300 20TH AVE N STE 606,NASHVILLE,TN,37203
2972,5197,15 MUSIC SQ W,NASHVILLE,TN,37203
2973,5198,2400 PATTERSON ST STE 316,NASHVILLE,TN,37203
2974,5199,3319 W END AVE STE 970,NASHVILLE,TN,37203
2975,5201,531 ELM ST,NEW HAVEN,CT,6511
2976,5202,1623 THE VANDERBILT CLINIC,NASHVILLE,TN,37232
2977,5204,650 E 25TH ST,KANSAS CITY,MO,64108
2978,5205,800 ROSE ST RM D-508,LEXINGTON,KY,40536
2979,5206,8052 MALL PKWY STE 205,LITHONIA,GA,30038
2980,5210,203 CHAMPION WAY STE 6,GEORGETOWN,KY,40324
2981,5211,13035 LEE JACKSON MEMORIAL HWY STE A,FAIRFAX,VA,22033
2982,5213,1371 BROADY RD,NESBIT,MS,38651
2983,5215,1938 LYDA AVE,BOWLING GREEN,KY,42104
2984,5216,4012 O'HALLORN,THOMPSONS STATION,TN,37179
2985,5217,2000 TOLLGATE BLVD STE 205,THOMPSONS STATION,TN,37179
2986,5220,4720 TRADERS WAY,THOMPSONS STATION,TN,37179
2987,5222,2908 AMERICUS DR,THOMPSONS STATION,TN,37179
2988,5223,6215 RIVERVIEW CROSSING DR STE C,KNOXVILLE,TN,37924
2989,5225,2964 MILLER PLACE WAY,KNOXVILLE,TN,37924
2990,5228,7541 CROSSWOOD BLVD,KNOXVILLE,TN,37924
2991,5230,3001 KNOXVILLE CENTER DR,KNOXVILLE,TN,37924
2992,5233,16018 RANKIN AVE,DUNLAP,TN,37327
2993,5234,7268 SR 28,DUNLAP,TN,37327
2994,5235,7268 STATE ROUTE 28,DUNLAP,TN,37327
2995,5236,76 CATES ST,DUNLAP,TN,37327
2996,5237,550 TOWN CREEK RD E,LENOIR CITY,TN,37772
2997,5238,550 TOWN CREEK RD E STE 101,LENOIR CITY,TN,37772
2998,5239,550 TOWN CREEK RD E STE 202,KNOXVILLE,TN,37772
2999,5245,13190 N. MAIN ST,SOMERVILLE,TN,38068
3000,5246,90 YUM YUM RD,SOMERVILLE,TN,38068
3001,5247,17395 HIGHWAY 64,SOMERVILLE,TN,38068
3002,5248,17395 US HIGHWAY 64,SOMERVILLE,TN,38068
3003,5250,17965 US HIGHWAY 64,SOMERVILLE,TN,38068
3004,5256,305 LAKE DR,SOMERVILLE,TN,38068
3005,5258,2280 FAIRVIEW BLVD,FAIRVIEW,TN,37062
3006,5259,1696 FAIRVIEW BLVD,FAIRVIEW,TN,37062
3007,5260,1696 FAIRVIEW BLVD STE 104,FAIRVIEW,TN,37062
3008,5261,7022 CITY CENTER WAY,FAIRVIEW,TN,37062
3009,5262,2140 FAIRVIEW BLVD,FAIRVIEW,TN,37062
3010,5264,116 VICKSBURG AVE,CAMDEN,TN,38320
3011,5265,180 HOSPITAL DR,CAMDEN,TN,38320
3012,5266,110 N FORREST AVE,CAMDEN,TN,38320
3013,5267,210 CEDAR FORK RD.,TAZEWELL,TN,37879
3014,5268,210 CEDAR FORK RD,TAZEWELL,TN,37879
3015,5269,1839 MAIN ST,TAZEWELL,TN,37879
3016,5270,209 IRISH CEMETERY RD,TAZEWELL,TN,37879
3017,5272,51 SMITH AVE,HOHENWALD,TN,38462
3018,5273,20 E MAIN ST,HOHENWALD,TN,38462
3019,5276,902 SUMMERTOWN HWY,HOHENWALD,TN,38462
3020,5277,11400 N KENDALL DR STE 205,MIAMI,FL,33176
3021,5279,3086 MAIN STREET,PIKEVILLE,TN,37367
3022,5280,3086 MAIN ST.,PIKEVILLE,TN,37367
3023,5281,3086 MAIN ST,PIKEVILLE,TN,37367
3024,5282,1461 MUNFORD AVE,MUNFORD,TN,38058
3025,5283,28 N TIPTON,MUNFORD,TN,38058
3026,5284,843 TIPTON ROAD,MUNFORD,TN,38058
3027,5285,35 E MAIN ST,MUNFORD,TN,38058
3028,5286,843 SOUTH TIPTON ROAD,MUNFORD,TN,38058
3029,5293,1934 CEDAR STA,MCKENZIE,TN,38201
3030,5294,594 MAIN ST N,MC KENZIE,TN,38201
3031,5295,2381 CEDAR AVE,MCKENZIE,TN,38201
3032,5296,14815 HIGHLAND DR,MC KENZIE,TN,38201
3033,5298,113 ROANE ST,OLIVER SPRINGS,TN,37840
3034,5299,102 BENNETT RD,OLIVER SPRINGS,TN,37840
3035,5303,3802 MAYNARDVILLE HWY,MAYNARDVILLE,TN,37807
3036,5306,4330 MAYNARDVILLE HWY,MAYNARDVILLE,TN,37807
3037,5311,8201 MOUNT CARMEL RD,BRIGHTON,TN,38011
3038,5312,415 E UNIVERSITY ST,LIVINGSTON,TN,38570
3039,5316,215 OAK ST,LIVINGSTON,TN,38570
3040,5321,11092 HIGHWAY 51 S STE B,ATOKA,TN,38004
3041,5324,11092 HIGHWAY 51 S,ATOKA,TN,38004
3042,5325,10825 OLD HWY 64,BOLIVAR,TN,38008
3043,5326,105 SOUTH PORTER STREET,BOLIVAR,TN,38008
3044,5327,301 W MARKET ST,BOLIVAR,TN,38008
3045,5328,407 W LAFAYETTE ST,BOLIVAR,TN,38008
3046,5330,390 RAILROAD ST STE D,BOLIVAR,TN,38008
3047,5331,10825 OLD HIGHWAY 64,BOLIVAR,TN,38008
3048,5332,934 OLDHAM DR STE 100,NOLENSVILLE,TN,37135
3049,5334,7171 NOLENSVILLE ROAD,NOLENSVILLE,TN,37135
3050,5335,7269 NOLENSVILLE RD,NOLENSVILLE,TN,37135
3051,5336,7024 NOLENSVILLE RD,NOLENSVILLE,TN,37135
3052,5339,921 OLDHAM DR,NOLENSVILLE,TN,37135
3053,5340,7171 NOLENSVILLE RD,NOLENSVILLE,TN,37135
3054,5342,7146 NOLENSVILLE RD,NOLENSVILLE,TN,37135
3055,5345,460 INDUSTRIAL LN,ONEIDA,TN,37841
3056,5346,204 SOUTH BANK STREET,ONEIDA,TN,37841
3057,5347,117 S THOMPSON ST,ONEIDA,TN,37841
3058,5348,116 CALDWELL LN,ONEIDA,TN,37841
3059,5349,459 INDUSTRIAL LANE,ONEIDA,TN,37841
3060,5350,459 INDUSTRIAL LN,ONEIDA,TN,37841
3061,5352,474 INDUSTRIAL LN,ONEIDA,TN,37841
3062,5354,ONE ANDREWS WAY,TRENTON,TN,38382
3063,5355,204 S COLLEGE ST,TRENTON,TN,38382
3064,5356,2066 US HIGHWAY 45 BYP S,TRENTON,TN,38382
3065,5363,2066 HIGHWAY 45 BY PASS,TRENTON,TN,38382
3066,5366,7033 HIGHWAY 64,OAKLAND,TN,38060
3067,5367,7066 HIGHWAY 64,OAKLAND,TN,38060
3068,5368,14710 HIGHWAY 194,OAKLAND,TN,38060
3069,5370,147 NORTH ST,JACKSBORO,TN,37757
3070,5373,162 SHARP AND PERKINS RD,JACKSBORO,TN,37757
3071,5374,3088 APPALACHIAN HWY STE 2,JACKSBORO,TN,37757
3072,5376,116 CUMBERLAND LN,JACKSBORO,TN,37757
3073,5377,116 CUMBERLAND LN # 1,JACKSBORO,TN,37757
3074,5378,2707 JACKSBORO PIKE,JACKSBORO,TN,37757
3075,5381,2946 WINFIELD DUNN PKWY,KODAK,TN,37764
3076,5382,9618 GUNNIES DR,KODAK,TN,37764
3077,5387,177 COURT AVE,SELMER,TN,38375
3078,5388,710 FEDERAL DRIVE,SELMER,TN,38375
3079,5390,710 FEDERAL DR,SELMER,TN,38375
3080,5391,718 FEDERAL DR,SELMER,TN,38375
3081,5394,485 MULBERRY AVE,SELMER,TN,38375
3082,5396,1012 PLEASANT GROVE RD,WESTMORELAND,TN,37186
3083,5397,1032 PLEASANT GROVE RD,WESTMORELAND,TN,37186
3084,5399,9406 N RUGGLES FERRY PIKE,STRAWBERRY PLAINS,TN,37871
3085,5400,2684 W HIGHWAY 11E,STRAWBERRY PLAINS,TN,37871
3086,5403,207 W RHOA AVE,SPRING CITY,TN,37381
3087,5404,801B W MAIN ST,WOODBURY,TN,37190
3088,5406,801 W MAIN ST,WOODBURY,TN,37190
3089,5408,313 W HIGH ST,WOODBURY,TN,37190
3090,5411,119 CHURCH ST,HUNTINGDON,TN,38344
3091,5412,560 RB WILSON DR,HUNTINGDON,TN,38344
3092,5413,25 STONE RIDGE CV,HUNTINGDON,TN,38344
3093,5415,210 E MAIN ST,WAVERLY,TN,37185
3094,5416,611 E MAIN ST,WAVERLY,TN,37185
3095,5419,103 S CHURCH ST,WAVERLY,TN,37185
3096,5421,6350 W ANDREW JOHNSON HWY,TALBOTT,TN,37877
3097,5422,"400 WEST CRAWFORD AVENUE, SUITE C",MONTEREY,TN,38574
3098,5423,400 W CRAWFORD AVE,MONTEREY,TN,38574
3099,5424,212 FORREST AVE.,NEW TAZEWELL,TN,37825
3100,5426,7786 RUTLEDGE PIKE,RUTLEDGE,TN,37861
3101,5427,395 RIVER RD,DECATUR,TN,37322
3102,5428,415 VETERANS MEMORIAL DR,TELLICO PLAINS,TN,37385
3103,5429,704 HIGHWAY 100 STE 101,CENTERVILLE,TN,37033
3104,5430,704 HIGHWAY 100,CENTERVILLE,TN,37033
3105,5431,108 E SWAN ST,CENTERVILLE,TN,37033
3106,5432,1824 RAY MORRISON DR,CENTERVILLE,TN,37033
3107,5434,703 N MAIN ST,MT PLEASANT,TN,38474
3108,5436,703 N. MAIN ST.,MT. PLEASANT,TN,38474
3109,5437,703 NORTH MAIN STREET,MT PLEASANT,TN,38474
3110,5438,619 W MAIN ST,NEWBERN,TN,38059
3111,5439,920 HIGHWAY 411 NORTH,ETOWAH,TN,37331
3112,5440,620 TENNESSEE AVE,ETOWAH,TN,37331
3113,5442,507 BETSY PACK DR SUITE B,JASPER,TN,37347
3114,5443,19 W 3RD ST,JASPER,TN,37347
3115,5444,507 BETSY PACK DR,JASPER,TN,37347
3116,5447,224 OLD MILL RD,WARTBURG,TN,37887
3117,5448,1111 KNOXVILLE HIGHWAY,WARTBURG,TN,37887
3118,5450,3353 UNION HILL RD,JOELTON,TN,37080
3119,5452,3353B UNION HILL RD,JOELTON,TN,37080
3120,5453,3515 OLD CLARKSVILLE PIKE,JOELTON,TN,37080
3121,5454,360 E H CRUMP BLVD,MEMPHIS,TN,38126
3122,5455,516 VANCE AVE,MEMPHIS,TN,38126
3123,5457,920 PORTER ST,MEMPHIS,TN,38126
3124,5458,360 E EH CRUMP BLVD,MEMPHIS,TN,38126
3125,5460,6522 HIGHWAY 41A,PLEASANT VIEW,TN,37146
3126,5462,254 REN MAR DR,PLEASANT VIEW,TN,37146
3127,5464,6509 HIGHWAY 41A,PLEASANT VIEW,TN,37146
3128,5466,6312 HIGHWAY 41A,PLEASANT VIEW,TN,37146
3129,5468,6312 HIGHWAY 41A STE 100,PLEASANT VIEW,TN,37146
3130,5471,311 SPRING ST,DOVER,TN,37058
3131,5472,1021 SPRING ST,DOVER,TN,37058
3132,5475,445 HIGHWAY 79,DOVER,TN,37058
3133,5476,108 POPLAR RIDGE RD,PINEY FLATS,TN,37686
3134,5479,102 ERVIN DR.,CARTHAGE,TN,37030
3135,5480,120 HOSPITAL DR,CARTHAGE,TN,37030
3136,5482,102 ERVIN DR,CARTHAGE,TN,37030
3137,5483,619 MAIN ST N STE A,CARTHAGE,TN,37030
3138,5484,303 HIGH ST N,CARTHAGE,TN,37030
3139,5485,110 MCMURRY BLVD,HARTSVILLE,TN,37074
3140,5487,140 MACON WAY,HARTSVILLE,TN,37074
3141,5488,3159 HIGHWAY 64 STE 100,EADS,TN,38028
3142,5489,3161 HIGHWAY 64,EADS,TN,38028
3143,5492,2735 HIGHWAY 64,EADS,TN,38028
3144,5493,4527 HWY 70 EAST,WHITE BLUFF,TN,37187
3145,5494,4335 HWY 70 E,WHITE BLUFF,TN,37187
3146,5495,4335 HIGHWAY 70 E,WHITE BLUFF,TN,37187
3147,5496,207 KINGS CT,ALCOA,TN,37701
3148,5497,310 SANDERSON STREET,ALCOA,TN,37701
3149,5498,1053 HUNTERS XING,ALCOA,TN,37701
3150,5502,260 HAMILTON CROSSING DR,ALCOA,TN,37701
3151,5505,243 JOULE ST,ALCOA,TN,37701
3152,5506,310 SANDERSON ST,ALCOA,TN,37701
3153,5508,354 GLASCOCK ST,ALCOA,TN,37701
3154,5509,134 N RANKIN RD,ALCOA,TN,37701
3155,5511,228 HAMILTON CROSSING DRIVE,ALCOA,TN,37701
3156,5512,7650 W VIRGINIA AVE UNIT A,LAKEWOOD,CO,80226
3157,5513,802 N MAIN ST,ESTILL SPRINGS,TN,37330
3158,5515,3231 ROY MESSER HWY,WHITE PINE,TN,37890
3159,5516,240 CODY ROAD,WHITE PINE,TN,37890
3160,5517,1938 MAPLE ST,WHITE PINE,TN,37890
3161,5518,4565 NASHVILLE HWY,CHAPEL HILL,TN,37034
3162,5520,2610 FLORENCE DRIVE,PIGEON FORGE,TN,37863
3163,5521,1277 HWY 11W,BEAN STATION,TN,37708
3164,5522,1277 HIGHWAY 11W STE E,BEAN STATION,TN,37708
3165,5523,1277 HIGHWAY 11W,BEAN STATION,TN,37708
3166,5524,103 EAST GORE AVE.,GAINESBORO,TN,38562
3167,5525,103 EAST GORE AVE,GAINESBORO,TN,38562
3168,5530,111 UPPERMAN LANE,BAXTER,TN,38544
3169,5531,111 UPPERMAN LN,BAXTER,TN,38544
3170,5532,124 WESTMORELAND ST,HARROGATE,TN,37752
3171,5533,119 WESTMORELAND ST,HARROGATE,TN,37752
3172,5534,163 BEECH ST,HARROGATE,TN,37752
3173,5535,211 SOUTH HIGH STREET,WAYNESBORO,TN,38485
3174,5536,161 RAILROAD ST SOUTH,MCEWEN,TN,37101
3175,5537,161 RAILROAD ST S,MC EWEN,TN,37101
3176,5539,1904 S CEDAR AVE,SOUTH PITTSBURG,TN,37380
3177,5541,106 W MAPLE ST,DRESDEN,TN,38225
3178,5542,107 E LOCUST ST,DRESDEN,TN,38225
3179,5543,145 HERITAGE DR,DRESDEN,TN,38225
3180,5544,493 N FRONT ST SUITE 101,MEMPHIS,TN,38105
3181,5545,525 N MAIN ST,MEMPHIS,TN,38105
3182,5547,ST. JUDE CHILDREN'S RESEARCH HOSPITAL,MEMPHIS,TN,38105
3183,5551,814 JEFFERSON AVE,MEMPHIS,TN,38105
3184,5560,720 EAST MAIN ST,ADAMSVILLE,TN,38310
3185,5561,349 EAST MAIN STREET,ADAMSVILLE,TN,38310
3186,5562,518 E MAIN ST,ADAMSVILLE,TN,38310
3187,5563,349 E MAIN ST,ADAMSVILLE,TN,38310
3188,5568,409 PARK AVE,ADAMSVILLE,TN,38310
3189,5569,3309 CUMMINGS HWY,CHATTANOOGA,TN,37419
3190,5571,382 TENNESSEE AVE N,PARSONS,TN,38363
3191,5572,213 W MAIN ST,PARSONS,TN,38363
3192,5577,519 FLORIDA AVE N,PARSONS,TN,38363
3193,5579,305 S MAIN ST,LAKE CITY,TN,37769
3194,5580,305 S MAIN ST,ROCKY TOP,TN,37769
3195,5582,23 GARRETT DR,MEDINA,TN,38355
3196,5584,121 WEST MAIN STREET,WATERTOWN,TN,37184
3197,5585,121 W MAIN ST,WATERTOWN,TN,37184
3198,5586,1565 SALEM LOOP,GREENBACK,TN,37742
3199,5587,1761 HIGHWAY 95 S,GREENBACK,TN,37742
3200,5588,714 CENTRAL AVE,CHATTANOOGA,TN,37403
3201,5589,1042 E 3RD ST,CHATTANOOGA,TN,37403
3202,5590,102 WALNUT ST STE G,CHATTANOOGA,TN,37403
3203,5591,102 WALNUT ST,CHATTANOOGA,TN,37403
3204,5596,410 HIGH ST,CHATTANOOGA,TN,37403
3205,5597,651 E 4TH ST,CHATTANOOGA,TN,37403
3206,5598,921 E 3RD ST,CHATTANOOGA,TN,37403
3207,5602,975 E 3RD ST,CHATTANOOGA,TN,37403
3208,5604,730 E 11TH ST,CHATTANOOGA,TN,37403
3209,5605,4731 TROUSDALE DRIVE,NASHVILLE,TN,37220
3210,5606,4105 HILLSBORO CIRCLE,NASHVILLE,TN,37220
3211,5607,4809 TROUSDALE DR,NASHVILLE,TN,37220
3212,5609,4731 TROUSDALE DR STE 8,NASHVILLE,TN,37220
3213,5610,5207 SHENANDOAH CT,NASHVILLE,TN,37220
3214,5611,5544 FRANKLIN PIKE STE 102,NASHVILLE,TN,37220
3215,5612,5544 FRANKLIN PIKE,NASHVILLE,TN,37220
3216,5614,201 GUM BRANCH RD,BURNS,TN,37029
3217,5617,960 STATE ROUTE 212,TIPTONVILLE,TN,38079
3218,5618,100 PERRY STREET,LINDEN,TN,37096
3219,5620,5103 HIGHWAY 100,LYLES,TN,37098
3220,5621,7723 CLEARVIEW CHURCH LN,LYLES,TN,37098
3221,5623,7723 CLEARVIEW CHURCH LN STE 200,LYLES,TN,37098
3222,5625,102 MARY SHARP DR,DECHERD,TN,37324
3223,5628,111 BRUCE RD,GATLINBURG,TN,37738
3224,5630,6058 HWY 412 SOUTH,BELLS,TN,38006
3225,5631,6058 HIGHWAY 412 S,BELLS,TN,38006
3226,5636,4889 EAST MAIN STREET,ERIN,TN,37061
3227,5637,4889 E MAIN ST,ERIN,TN,37061
3228,5639,480 GREEN CHAPEL RD,HENNING,TN,38041
3229,5640,1277 HIGHWAY 411,VONORE,TN,37885
3230,5643,7996 HIGHWAY 19 E,ROAN MOUNTAIN,TN,37687
3231,5644,1861 MAIN ST,SNEEDVILLE,TN,37869
3232,5647,12173 MAIN ST STE B,MASON,TN,38049
3233,5649,1085 RIVER VILLAGE LN,AFTON,TN,37616
3234,5650,6151 HWY 411,BENTON,TN,37307
3235,5651,108 LIFESTYLE WAY,BENTON,TN,37307
3236,5653,45 S COURT ST,ALAMO,TN,38001
3237,5654,181 POWELL VALLEY SCHOOL LN,SPEEDWELL,TN,37870
3238,5655,977 MOUNTAIN CIR,MC DONALD,TN,37353
3239,5656,1201 INDUSTRIAL PARK RD,SOUTH FULTON,TN,38257
3240,5658,435 HIGHWAY 321,HAMPTON,TN,37658
3241,5659,107 DONALDSON AVENUE,CELINA,TN,38551
3242,5660,3353 HIGHWAY 11W,SURGOINSVILLE,TN,37873
3243,5661,1001 CARTER STREET,CHATTANOOGA,TN,37402
3244,5662,537 MARKET ST,CHATTANOOGA,TN,37402
3245,5663,540 MCCALLIE AVE,CHATTANOOGA,TN,37402
3246,5664,951 RIVERFRONT PKWY,CHATTANOOGA,TN,37402
3247,5670,951 RIVERFRONT PKWY STE 101,CHATTANOOGA,TN,37402
3248,5671,901 RIVERFRONT PKWY STE 202,CHATTANOOGA,TN,37402
3249,5673,100 WEST MLK BLVD,CHATTANOOGA,TN,37402
3250,5674,1301 CARTER ST,CHATTANOOGA,TN,37402
3251,5675,434 CHESTNUT ST,CHATTANOOGA,TN,37402
3252,5676,1001 CARTER ST,CHATTANOOGA,TN,37402
3253,5682,1201 CARTER STREET,CHATTANOOGA,TN,37402
3254,5683,1001 CARTER ST STE B,CHATTANOOGA,TN,37402
3255,5685,137 MAIN ST N,MIDDLETON,TN,38052
3256,5686,907 OLD MCMINNVILLE ST,SPENCER,TN,38585
3257,5687,1340 UNIVERSITY AVENUE,SEWANEE,TN,37375
3258,5688,488 HURRICANE CREEK RD,LYNCHBURG,TN,37352
3259,5689,526 MAJORS BLVD,LYNCHBURG,TN,37352
3260,5690,402 W HIGHLAND ST,DECATURVILLE,TN,38329
3261,5691,1244 5TH ST,JELLICO,TN,37762
3262,5692,640 W HIGHWAY 92 STE 3,WILLIAMSBURG,KY,40769
3263,5693,206 MAIN ST.,GLEASON,TN,38229
3264,5694,206 MAIN ST,GLEASON,TN,38229
3265,5695,440 SOUTH POPLAR STREET,KENTON,TN,38233
3266,5696,3918 TENNESSEE AVE,CHATTANOOGA,TN,37409
3267,5698,27001 MAIN ST.,ARDMORE,TN,38449
3268,5699,26741 MAIN ST,ARDMORE,TN,38449
3269,5701,27001 MAIN ST,ARDMORE,TN,38449
3270,5704,350 COURT STREET,HUNTSVILLE,TN,37756
3271,5706,7719 HIGHWAY 131,WASHBURN,TN,37888
3272,5707,7601 OLD HIGHWAY 73,TOWNSEND,TN,37882
3273,5708,344 EAGLE LN,EVENSVILLE,TN,37332
3274,5709,25 OLD SOUTH RD,COUNCE,TN,38326
3275,5710,16 SOUTH CENTRAL AVE.,MONTEAGLE,TN,37356
3276,5711,16 S. CENTRAL ST,MONTEAGLE,TN,37356
3277,5712,16 S CENTRAL AVE,MONTEAGLE,TN,37356
3278,5713,75 GRAND AVENUE,COPPERHILL,TN,37317
3279,5714,102 GRAND AVENUE,COPPERHILL,TN,37317
3280,5716,122 COLONIAL AVE,COPPERHILL,TN,37317
3281,5718,17 1ST ST E,STANTON,TN,38069
3282,5719,14 MAIN ST E,GORDONSVILLE,TN,38563
3283,5720,400 MAIN STREET,HUNTLAND,TN,37345
3284,5721,111 S. PUBLIC SQ,ALEXANDRIA,TN,37012
3285,5722,111 S PUBLIC SQ,ALEXANDRIA,TN,37012
3286,5723,101 UNION ST,NASHVILLE,TN,37201
3287,5725,205 DEMONBREUN ST APT 1503,NASHVILLE,TN,37201
3288,5727,109 FRONT ST S,COWAN,TN,37318
3289,5728,608 S TRENTON ST,RUTHERFORD,TN,38369
3290,5730,120 N WATAUGA LN,LOOKOUT MTN,TN,37350
3291,5731,120 N WATAUGA LN,LOOKOUT MOUNTAIN,TN,37350
3292,5732,507 HWY 57,GRAND JUNCTION,TN,38039
3293,5733,5612 HIGHWAY 68,TURTLETOWN,TN,37391
3294,5736,9310 APISON PIKE,O COLLEGEDALE,TN,37315
3295,5737,200 W MAIN ST,CHATTANOOGA,TN,37408
3296,5738,204 W MAIN ST,CHATTANOOGA,TN,37408
3297,5740,19 WEST NORRIS RD,NORRIS,TN,37828
3298,5741,1372 MAIN ST,ALTAMONT,TN,37301
3299,5742,1499 R W MOORE MEMORIAL HWY,ONLY,TN,37140
3300,5743,11765 MCMINNVILLE HWY,WALLING,TN,38587
3301,5746,414 UNION STREET - 8TH FLOOR,NASHVILLE,TN,37219
3302,5747,"414 UNION STREET, 8TH FLOOR",NASHVILLE,TN,37219
3303,5748,414 UNION STREET 8TH FLOOR,NASHVILLE,TN,37219
3304,5760,16 ARCADE UNIT 198747,NASHVILLE,TN,37219
3305,5761,401 CHURCH ST STE 1400,NASHVILLE,TN,37219
3306,5762,162 4TH AVE N STE 100,NASHVILLE,TN,37219
3307,5763,162 4TH AVE N,NASHVILLE,TN,37219
3308,5764,618 CHURCH ST,NASHVILLE,TN,37219
3309,5767,500 CHURCH ST STE 430,NASHVILLE,TN,37219
3310,5768,1971 EVELYN BYRD AVE STE F,HARRISONBURG,VA,22801
3311,5769,5722 INTEGRITY DRIVE,MILLINGTON,TN,38054
3312,5770,5722 INTEGRITY DRIVE BUILDING S-771,MILLINGTON,TN,38054
3313,5771,5722 INTEGRITY DR,MILLINGTON,TN,38054
3314,5774,2781 AIRWAYS BLVD,MEMPHIS,TN,38132
3315,5775,310 GREAT CIRCLE ROAD,NASHVILLE,TN,37243
3316,5776,MID-CUMBERLAND REGIONAL HEALTH DEPT,NASHVILLE,TN,37243
