,address_1,city,state,postal_code
0,2323 MOODY PKWY,MOODY,AL,35004
1,2301 MOODY PKWY,MOODY,AL,35004
2,1236 EBENEZER RD,ROCK HILL,SC,29732
3,4050 VETERANS MEMORIAL DRIVE,ADAMSVILLE,AL,35005
4,2820 VETERANS MEMORIAL DR,ADAMSVILLE,AL,35005
5,9200 HIGHWAY 119,ALABASTER,AL,35007
6,219 1ST STREET N,ALABASTER,AL,35007
7,100 S. COLONIAL DR,ALABASTER,AL,35007
8,122 7TH AVE NE,ALABASTER,AL,35007
9,1130 1ST STREET N,ALABASTER,AL,35007
10,9100 HIGHWAY 119,ALABASTER,AL,35007
11,129 1ST ST N,ALABASTER,AL,35007
12,100 COLONIAL PROMENADE PKWY,ALABASTER,AL,35007
13,100 S COLONIAL DR STE 800,ALABASTER,AL,35007
14,909 MOUNT OLIVE RD,GARDENDALE,AL,35071
15,117 BUCK CREEK PLZ,ALABASTER,AL,35007
16,420 1ST ST N,ALABASTER,AL,35007
17,100 PROFESSIONAL PL,CARROLLTON,GA,30117
18,901 LEIGHTON AVE STE 401,ANNISTON,AL,36207
19,223 1ST ST N,ALABASTER,AL,35007
20,219 1ST ST N,ALABASTER,AL,35007
21,227B 1ST ST N,ALABASTER,AL,35007
22,1130 1ST ST N,ALABASTER,AL,35007
23,202 INVERNESS CENTER DR STE 301,BIRMINGHAM,AL,35242
24,817A RIVERBEND DR,GADSDEN,AL,35901
25,100 PROFESSIONAL PL STE 105,CARROLLTON,GA,30117
26,1841 MONTCLAIRE LN,VESTAVIA HILLS,AL,35216
27,1633 MONTGOMERY HWY STE 5,VESTAVIA HILLS,AL,35216
28,4616 MONTEVALLO RD STE 200,IRONDALE,AL,35210
29,4810 WOODS CROSSING DR,MONTGOMERY,AL,36106
30,1901 MULBERRY ST,MONTGOMERY,AL,36106
31,5336 STADIUM TRACE PKWY STE 102,HOOVER,AL,35244
32,5590 CHALKVILLE MOUNTAIN ROAD,BIRMINGHAM,AL,35235
33,112 BROADWAY ST,HOMEWOOD,AL,35209
34,7224 GOVERNORS WEST NW,HUNTSVILLE,AL,35806
35,2045 BROOKWOOD MEDICAL CTR DR STE 22,BIRMINGHAM,AL,35209
36,5750 BENTLEY WAY,TRUSSVILLE,AL,35173
37,8301 HIGHWAY 31 N,MORRIS,AL,35116
38,1840 MONTCLAIRE DR,VESTAVIA HILLS,AL,35216
39,8301 HIGHWAY 31 N STE 109,MORRIS,AL,35116
40,112 BROADWAY ST,BIRMINGHAM,AL,35209
41,3940 MONTCLAIR RD STE 206,MOUNTAIN BRK,AL,35213
42,340 CHURCH ST,ALEXANDER CITY,AL,35010
43,748 COMMERCE DRIVE,ALEXANDER CITY,AL,35010
44,125 ALISON DRIVE,ALEXANDER CITY,AL,35010
45,780 COMMERCE DRIVE,ALEXANDER CITY,AL,35010
46,659 ALEX CITY SHOPPING CENTER DR,ALEXANDER CITY,AL,35010
47,6 FRANKLIN ST,ALEXANDER CITY,AL,35010
48,163 ALABAMA ST,ALEXANDER CITY,AL,35010
49,748 COMMERCE DR,ALEXANDER CITY,AL,35010
50,139 ALIANT PARKWAY,ALEXANDER CITY,AL,35010
51,1572 MILL SQUARE,ALEXANDER CITY,AL,35010
52,1572 MILL SQ,ALEXANDER CITY,AL,35010
53,980 AIRPORT DR,ALEXANDER CITY,AL,35010
54,125 ALISON DR STE 9,ALEXANDER CITY,AL,35010
55,186 LEDGES TRL,ALEXANDER CITY,AL,35010
56,1957 E SAMFORD AVE,AUBURN,AL,36830
57,201 NORTH AVE,GAINESVILLE,GA,30501
58,747 N DEAN RD,AUBURN,AL,36830
59,2971 CORPORATE PARK DR,OPELIKA,AL,36801
60,839 AIRPORT DR STE 103,ALEXANDER CITY,AL,35010
61,4405 N STADIUM DR STE A,COLUMBUS,GA,31909
62,320 NORTH MAIN STREET,ARAB,AL,35016
63,633 CULLMAN RD,ARAB,AL,35016
64,1178 N BRINDLEE MTN PKWY,ARAB,AL,35016
65,1178 N BRINDLEE MOUNTAIN PKWY,ARAB,AL,35016
66,227 S BRINDLEE MOUNTAIN PKWY,ARAB,AL,35016
67,15 12TH AVE NW,ARAB,AL,35016
68,15 12TH AVE NE,ARAB,AL,35016
69,55 GOLFVIEW DR NE,ARAB,AL,35016
70,1518 N BRINDLEE MOUNTAIN PKWY,ARAB,AL,35016
71,1600 4TH AVE N,BESSEMER,AL,35020
72,429 17TH ST N,BESSEMER,AL,35020
73,1430 3RD AVE N,BESSEMER,AL,35020
74,2201 ARLINGTON AVE,BIRMINGHAM,AL,35020
75,5227 BESSEMER HIGHWAY,BESSEMER,AL,35020
76,2700 5TH AVE N,BESSEMER,AL,35020
77,1700 6TH AVE N,BESSEMER,AL,35020
78,1729 6TH AVE N,BESSEMER,AL,35020
79,816 9TH ST N,BESSEMER,AL,35020
80,431 17TH ST N,BESSEMER,AL,35020
81,"3439 B MCGEHEE ROAD, SUITE 22",MONTGOMERY,AL,36111
82,1599 FORT HENRY DR STE 102,KINGSPORT,TN,37664
83,TN-46 S,DICKSON,TN,37055
84,1202 E MAIN ST,TISHOMINGO,OK,73460
85,6850 W 52ND AVE STE 100,ARVADA,CO,80002
86,1202 S BROAD ST,SCOTTSBORO,AL,35768
87,4000 PINE LN SE,BESSEMER,AL,35022
88,5751 POCAHONTAS ROAD,BESSEMER,AL,35022
89,5751 POCAHONTAS RD,BESSEMER,AL,35022
90,5751 POCAHONTAS RD STE A,BESSEMER,AL,35022
91,6260 PARK SOUTH DR,BESSEMER,AL,35022
92,895 MEMORIAL DR,BESSEMER,AL,35022
93,4941 PROMENADE PKWY,BESSEMER,AL,35022
94,16625 MOUNTAIN RD,MONTPELIER,VA,23192
95,980 MAIN ST,MONTEVALLO,AL,35115
96,4501 SOUTHLAKE PKWY STE 100,HOOVER,AL,35244
97,223 PIERSON AVE,CENTREVILLE,AL,35042
98,3098 ALLISON BONNETT MEMORIAL DR,HUEYTOWN,AL,35023
99,111 FOREST ROAD,HUEYTOWN,AL,35023
100,3098 ALLISON BONNETT MEMORIAL DRIVE,HUEYTOWN,AL,35023
101,115 FOREST ROAD,HUEYTOWN,AL,35023
102,120 BROOKLANE DRIVE,HUEYTOWN,AL,35023
103,120 BROOKLANE DR.,HUEYTOWN,AL,35023
104,3098 ALLISON BONNETT MEMORIAL DR,BESSEMER,AL,35023
105,"234 GOODMAN STREET, ML0803",CINCINNATI,OH,45219
106,111 FOREST RD,HUEYTOWN,AL,35023
107,716 MEMORIAL DRIVE,BESSEMER,AL,35023
108,69118 MAIN ST,BLOUNTSVILLE,AL,35031
109,2939 MAIN ST,BRENT,AL,35034
110,565 BIBB LN,BRENT,AL,35034
111,625 19TH STREET SOUTH,BIRMINGHAM,AL,35249
112,2930 4TH AVE S,BIRMINGHAM,AL,35233
113,19330 HIGHWAY 139,BRIERFIELD,AL,35035
114,"5075 HWY 31 UNIT B,",CALERA,AL,35040
115,5075 HIGHWAY 31 UNIT B,CALERA,AL,35040
116,101 HIGHWAY 87,CALERA,AL,35040
117,101 HIGHWAY 87 BLDG 200,CALERA,AL,35040
118,71 LIMESTONE PKWY,CALERA,AL,35040
119,100 HAMPTON DR STE A,CALERA,AL,35040
120,8000 LIBERTY PKWY STE 126,VESTAVIA,AL,35242
121,260 WALNUT ST.,CENTREVILLE,AL,35042
122,260 WALNUT ST,CENTREVILLE,AL,35042
123,2731 MARTIN LUTHER KING BLVD,TUSCALOOSA,AL,35401
124,"300 JADE PARK,",CHELSEA,AL,35043
125,407 CHELSEA CROSSRAODS,CHELSEA,AL,35043
126,300 JADE PARK,CHELSEA,AL,35043
127,407 CHELSEA CROSSROADS,CHELSEA,AL,35043
128,100 CHELSEA CORNERS WAY STE 113,CHELSEA,AL,35043
129,100 CHELSEA CORNERS WAY,CHELSEA,AL,35043
130,16233 HIGHWAY 280,CHELSEA,AL,35043
131,300 JADE PARK STE 302,CHELSEA,AL,35043
132,300 JADE PARK STE 301,CHELSEA,AL,35043
133,4909 GROVE AVE,RICHMOND,VA,23226
134,1215 LEE ST,CHARLOTTESVILLE,VA,22908
135,3000 SOUTHLAKE PARK STE 200,HOOVER,AL,35244
136,311 8TH AVE SW,CHILDERSBURG,AL,35044
137,33044 US HIGHWAY 280,CHILDERSBURG,AL,35044
138,138 9TH AVE SW,CHILDERSBURG,AL,35044
139,34011 US HIGHWAY 280,CHILDERSBURG,AL,35044
140,34011B US HIGHWAY 280,CHILDERSBURG,AL,35044
141,700 7TH ST S,CLANTON,AL,35045
142,101 BAKER AVENUE,CLANTON,AL,35045
143,1141 JASPER DENNIS RD,CLANTON,AL,35045
144,102 POPWELL AVE,CLANTON,AL,35045
145,105 MEDICAL CENTER DR,CLANTON,AL,35045
146,101 BAKER AVE,CLANTON,AL,35045
147,405 2ND AVE N,CLANTON,AL,35045
148,204 MCFARLAND CIR N,TUSCALOOSA,AL,35406
149,17609 STATE HIGHWAY 160,CLEVELAND,AL,35049
150,22727 HWY 25 BYPASS,COLUMBIANA,AL,35051
151,22727 AL-25,COLUMBIANA,AL,35051
152,204 MILDRED ST,COLUMBIANA,AL,35051
153,22727 HIGHWAY 25,COLUMBIANA,AL,35051
154,4701 MISTY RIDGE CIR,BIRMINGHAM,AL,35235
155,15215 SHADY GROVE RD,ROCKVILLE,MD,20850
156,1705 MAIN AVE SW STE A,CULLMAN,AL,35055
157,1541 3RD ST NE,CULLMAN,AL,35055
158,210 MAIN AVE NW,CULLMAN,AL,35055
159,506 1ST AVE S.E,CULLMAN,AL,35055
160,920 OLIVE ST SW,CULLMAN,AL,35055
161,509 5TH ST SW,CULLMAN,AL,35055
162,305 6TH AVE SE,CULLMAN,AL,35055
163,1851 MAIN AVE SE,CULLMAN,AL,35055
164,407 4TH AVE NE,CULLMAN,AL,35055
165,205 4TH AVE NE STE 101,CULLMAN,AL,35055
166,205 4TH AVE NE,CULLMAN,AL,35055
167,103 2ND AVE NE,CULLMAN,AL,35055
168,406 3RD AVE NE,CULLMAN,AL,35055
169,307 ELIZABETH ST NE,CULLMAN,AL,35055
170,208 2ND AVE SE,CULLMAN,AL,35055
171,311 6TH AVE SE,CULLMAN,AL,35055
172,212 4TH AVE SE,CULLMAN,AL,35055
173,513 5TH ST SW,CULLMAN,AL,35055
174,704 2ND AVE SW,CULLMAN,AL,35055
175,506 1ST AVE SE,CULLMAN,AL,35055
176,1625 MAIN AVE SW,CULLMAN,AL,35055
177,322 GRAHAM ST SW,CULLMAN,AL,35055
178,2016 MAIN AVE SW,CULLMAN,AL,35055
179,1705 MAIN AVE SW,CULLMAN,AL,35055
180,1906 MARKET PLATZ CTR SW,CULLMAN,AL,35055
181,18708 US HWY 31 N,CULLMAN,AL,35058
182,1096 COUNTRY ROAD 1579,CULLMAR,AL,35058
183,2020 2ND AVE NW,CULLMAN,AL,35058
184,1965 AL HIGHWAY 157 STE A,CULLMAN,AL,35058
185,1965 AL HIGHWAY 157,CULLMAN,AL,35058
186,2780 AL HIGHWAY 157,CULLMAN,AL,35058
187,297 COUNTY ROAD 1493,CULLMAN,AL,35058
188,316 VALLEY ROAD,FAIRFIELD,AL,35064
189,325 VALLEY ROAD,FAIRFIELD,AL,35064
190,6200 EJ OLIVER BLVD,FAIRFIELD,AL,35064
191,4614 CARNEGIE AVE,FAIRFIELD,AL,35064
192,316 VALLEY RD,FAIRFIELD,AL,35064
193,1017 BELWOOD CIR,FAIRFIELD,AL,35064
194,3345 LOWERY PKWY STE 1120,FULTONDALE,AL,35068
195,1810 DECATUR HWY STE 212,FULTONDALE,AL,35068
196,3325 LORNA RD STE 5,HOOVER,AL,35216
197,3325 LORNA RD STE 5,VESTAVIA HILLS,AL,35216
198,2757 GREEN SPRINGS HWY,BIRMINGHAM,AL,35209
199,2619 DECATUR HWY,FULTONDALE,AL,35068
200,273 CHAPEL HILL TRL,FULTONDALE,AL,35068
201,1919 7TH AVE S,BIRMINGHAM,AL,35233
202,1603 DECATUR HWY,GARDENDALE,AL,35071
203,210 FIELDSTOWN RD STE 120,GARDENDALE,AL,35071
204,1021 FULTON AVE,GARDENDALE,AL,35071
205,1324 MAIN ST,GARDENDALE,AL,35071
206,919 SHARIT AVE STE 201,GARDENDALE,AL,35071
207,116 WEST TARRANT DRIVE,GARDENDALE,AL,35071
208,210 REDMAYNE RD.,GARDENDALE,AL,35071
209,2334 DECATUR HWY,GARDENDALE,AL,35071
210,210 REDMAYNE RD,GARDENDALE,AL,35071
211,907 MAIN ST,GARDENDALE,AL,35071
212,1001 ODUM RD STE 103,GARDENDALE,AL,35071
213,425 DECATUR HIGHWAY,GARDENDALE,AL,35071
214,425 DECATUR HWY,GARDENDALE,AL,35071
215,1038 MT. OLIVE ROAD,GARDENDALE,AL,35071
216,1038 MOUNT OLIVE RD,GARDENDALE,AL,35071
217,527 FIELDSTOWN RD STE B,GARDENDALE,AL,35071
218,925 SHARIT AVE,GARDENDALE,AL,35071
219,925 SHARIT AVE STE 113,GARDENDALE,AL,35071
220,655 AL HIGHWAY 69 S,HANCEVILLE,AL,35077
221,508 BANGOR AVE SE,HANCEVILLE,AL,35077
222,1555 PELHAM RD S STE G,JACKSONVILLE,AL,36265
223,100 VILLAGE PL,HELENA,AL,35080
224,215 VILLAGE PARKWAY,HELENA,AL,35080
225,3397 HELENA RD.,HELENA,AL,35080
226,3397 HELENA ROAD,HELENA,AL,35080
227,3397 HELENA RD,HELENA,AL,35080
228,2492 HELENA RD,HELENA,AL,35080
229,1001 ASHLEY BROOK LN,HELENA,AL,35080
230,500 RIVERWOODS CT STE B,HELENA,AL,35080
231,4685 HIGHWAY 17 STE C,HELENA,AL,35080
232,2600 HIGHWAY 58,HELENA,AL,35080
233,100 BROOK DR STE A,HELENA,AL,35080
234,1500 SHERMER RD STE 100,NORTHBROOK,IL,60062
235,2029 OLD MONTGOMERY HWY,BIRMINGHAM,AL,35244
236,4730 HIGHWAY 17,HELENA,AL,35080
237,108 BROOKLYN ROAD,HOLLY POND,AL,35083
238,25210 US HWY 31 NORTH,JEMISON,AL,35085
239,1209 6TH ST,LEEDS,AL,35094
240,1101 HIGROVE PKWY,LEEDS,AL,35094
241,1101 HIGROVE PKWY STE 105,LEEDS,AL,35094
242,7314 MIAMI AVE,LEEDS,AL,35094
243,7800 PARKWAY DR,LEEDS,AL,35094
244,8125 PARKWAY DR,LEEDS,AL,35094
245,141 MAGNOLIA ST S,LINCOLN,AL,35096
246,29984 STATE HWY 79,LOCUST FORK,AL,35097
247,29984 STATE HIGHWAY 79 STE 300,LOCUST FORK,AL,35097
248,29984 STATE HIGHWAY 79,LOCUST FORK,AL,35097
249,7067 SUMMERDALE DRIVE,MCCALLA,AL,35111
250,4817 MCADORY SCHOOL RD,MC CALLA,AL,35111
251,4817 MCADORY SCHOOL ROAD,MCCALLA,AL,35111
252,4760 EASTERN VALLEY RD STE 136,MC CALLA,AL,35111
253,4764 EASTERN VALLEY RD,MC CALLA,AL,35111
254,711 WADSWORTH ST,MONTEVALLO,AL,35115
255,8318 STOUTS RD,MORRIS,AL,35116
256,183 COUNTY ROAD 12,ODENVILLE,AL,35120
257,35 DAVIS DRIVE,ODENVILLE,AL,35120
258,4643 CAMP COLEMAN RD STE 101,TRUSSVILLE,AL,35173
259,35 DAVIS DR,ODENVILLE,AL,35120
260,401 2ND AVE W,ONEONTA,AL,35121
261,6840 MURRAY DR,PINSON,AL,35126
262,52 VALLEY RD,ONEONTA,AL,35121
263,28425 STATE HIGHWAY 75,ONEONTA,AL,35121
264,308 6TH ST S STE 101,ONEONTA,AL,35121
265,308 6TH ST S,ONEONTA,AL,35121
266,27550 STATE HIGHWAY 75 STE 104,ONEONTA,AL,35121
267,2685 PELHAM PKWY,PELHAM,AL,35124
268,305 HUNTLEY PKWY,PELHAM,AL,35124
269,PELHAMDENTALCARE@OUTLOOK.COM,PELHAM,AL,35124
270,2480 PELHAM PKWY,PELHAM,AL,35124
271,102 HILLTOP BUSINESS CTR. DR.,PELHAM,AL,35124
272,2705 PELHAM PARKWAY,PELHAM,AL,35124
273,162 SUGAR DRIVE,PELHAM,AL,35124
274,2490 PELHAM PARKWAY,PELHAM,AL,35124
275,2490 PELHAM PKWY,PELHAM,AL,35124
276,230 E 10TH ST,ANNISTON,AL,36207
277,102 HILLTOP BUSINESS CENTER DR,PELHAM,AL,35124
278,102 HILLTOP BUSINESS DR,PELHAM,AL,35124
279,2619 PELHAM PKWY,PELHAM,AL,35124
280,2657 PELHAM PKWY,PELHAM,AL,35124
281,1973 CHANDALAR DR,PELHAM,AL,35124
282,131 INDIANCREEK DR,PELHAM,AL,35124
283,2705 PELHAM PKWY,PELHAM,AL,35124
284,2705 PELHAM PKWY STE 200,PELHAM,AL,35124
285,2705 PELHAM PKWY UNIT 200,PELHAM,AL,35124
286,9108 HELENA RD,PELHAM,AL,35124
287,5323 MOUNTAIN PARK CIR,INDIAN SPRINGS,AL,35124
288,6496 QUAIL RUN DR,PELHAM,AL,35124
289,389 HUNTLEY PKWY,PELHAM,AL,35124
290,402A COGSWELL AVE,PELL CITY,AL,35125
291,2806 DR JOHN HAYNES DR STE B,PELL CITY,AL,35125
292,1605 COGSWELL AVE,PELL CITY,AL,35125
293,402 COGSWELL AVE,PELL CITY,AL,35125
294,4402 COGSWELL AVE,PELL CITY,AL,35125
295,2290 VALLEYDALE RD STE 100,HOOVER,AL,35244
296,74 PLAZA DR,PELL CITY,AL,35125
297,6727 DEERFOOT PKWY,PINSON,AL,35126
298,6720 OLD SPRINGVILLE ROAD,PINSON,AL,35126
299,6960 HIGHWAY 79,PINSON,AL,35126
300,6662 HIGHWAY 75,PINSON,AL,35126
301,6662 HIGHWAY 75 STE 114,PINSON,AL,35126
302,5239 OLD SPRINGVILLE RD,PINSON,AL,35126
303,904 4TH ST,PLEASANT GROVE,AL,35127
304,114 E BROOKWOOD ROAD,MIDFIELD,AL,35127
305,901 4TH ST,PLEASANT GROVE,AL,35127
306,717 1ST TER,PLEASANT GROVE,AL,35127
307,27 PARK RD,PLEASANT GROVE,AL,35127
308,2043 MARTIN ST S,PELL CITY,AL,35128
309,514 MARTIN STREET SOUTH,PELL CITY,AL,35128
310,2501 STEMLEY BRIDGE RD.,PELL CITY,AL,35128
311,2503 STEMLEY BRIDGE RD,PELL CITY,AL,35128
312,2501 STEMLEY BRIDGE RD,PELL CITY,AL,35128
313,12 CROPWELL DR,PELL CITY,AL,35128
314,90 LARRY GARDNER DR,ANNISTON,AL,36207
315,RR 2 BOX 44,ROCKFORD,AL,35136
316,6324 US HWY 11,SPRINGVILLE,AL,35146
317,106 LEGACY PARK WAY,SPRINGVILLE,AL,35146
318,420 WALKER DR,SPRINGVILLE,AL,35146
319,10015 HIGHWAY 280,WESTOVER,AL,35147
320,385 BRYAN RD STE 300,SUMITON,AL,35148
321,44 OAK STREET,SUMITON,AL,35148
322,385 BRYAN RD,SUMITON,AL,35148
323,44 OAK DRIVE,SUMITON,AL,35148
324,44 OAK DR,SUMITON,AL,35148
325,101 S DOUGLAS AVE,SYLACAUGA,AL,35150
326,101 E 1ST ST,SYLACAUGA,AL,35150
327,499 W 3RD ST,SYLACAUGA,AL,35150
328,1604 TALLADEGA HWY,SYLACAUGA,AL,35150
329,101 EAST 1ST STREET,SYLACAUGA,AL,35150
330,495 W 3RD ST,SYLACAUGA,AL,35150
331,497 W 3RD ST,SYLACAUGA,AL,35150
332,313 AARON DR,BIRMINGHAM,AL,35215
333,5590 CHALKVILLE RD STE C,BIRMINGHAM,AL,35235
334,108 NORTH ST E,TALLADEGA,AL,35160
335,107 SPRING ST N,TALLADEGA,AL,35160
336,129 NORTH ST E,TALLADEGA,AL,35160
337,6 MEDICAL PARK,TALLADEGA,AL,35160
338,116 COFFEE ST E,TALLADEGA,AL,35160
339,205 SOUTH ST E,TALLADEGA,AL,35160
340,1004 SOUTH ST E,TALLADEGA,AL,35160
341,1202 ASHLAND HWY,TALLADEGA,AL,35160
342,12 MINNESOTA AVE,THORSBY,AL,35171
343,12 MINNESOTA AVENUE,THORSBY,AL,35171
344,417 MAIN ST,TRUSSVILLE,AL,35173
345,125 N CHALKVILLE RD,TRUSSVILLE,AL,35173
346,4643 CAMP COLEMAN RD,TRUSSVILLE,AL,35173
347,6995 GADSDEN HWY,TRUSSVILLE,AL,35173
348,125 NORTH CHALKVILLE ROAD,TRUSSVILLE,AL,35173
349,123 N CHALKVILLE RD,TRUSSVILLE,AL,35173
350,116 WATTERSON PKWY,TRUSSVILLE,AL,35173
351,7040 GADSDEN HWY,TRUSSVILLE,AL,35173
352,4901 DEERFOOT PKWY STE 101,TRUSSVILLE,AL,35173
353,4643 CAMP COLEMAN RD STE 125,TRUSSVILLE,AL,35173
354,4643 CAMP COLEMAN ROAD,TRUSSVILLE,AL,35173
355,750 US HIGHWAY 11,TRUSSVILLE,AL,35173
356,750 HWY 11,TRUSSVILLE,AL,35173
357,5336 STADIUM TRACE PKWY STE 112,HOOVER,AL,35244
358,221 RICE MINE RD NE STE 260,TUSCALOOSA,AL,35406
359,1713 HAMRIC DR E STE C,OXFORD,AL,36203
360,404 S 5TH ST,GADSDEN,AL,35901
361,3825 LORNA RD STE 206,HOOVER,AL,35244
362,211 NORTH MAIN STREET,WARRIOR,AL,35180
363,211 N MAIN STREET,WARRIOR,AL,35180
364,205 CALDWELL DR,WARRIOR,AL,35180
365,309 LOUISA ST,WARRIOR,AL,35180
366,2409 ACTON RD STE 117,VESTAVIA,AL,35243
367,WOODSTOCK DENTAL CARE 28716 HWY 5,WOODSTOCK,AL,35188
368,20036 HIGHWAY 11,WOODSTOCK,AL,35188
369,28716 HWY 5 SUITE 4,WOODSTOCK,AL,35188
370,2117 1ST AVE N,BIRMINGHAM,AL,35203
371,1520 7TH AVE N,BIRMINGHAM,AL,35203
372,2001 PARK PL,BIRMINGHAM,AL,35203
373,2228 1ST AVE NO,BIRMINGHAM,AL,35203
374,2100 1ST AVE N,BIRMINGHAM,AL,35203
375,2100 1ST AVE N STE 300,BIRMINGHAM,AL,35203
376,2229 MORRIS AVE,BIRMINGHAM,AL,35203
377,15 11TH CT N,BIRMINGHAM,AL,35204
378,623 8TH AVE W,BIRMINGHAM,AL,35204
379,17411 HORACE HARDING EXPY DEPT OF,FRESH MEADOWS,NY,11365
380,"56-45 MAIN ST,",FLUSHING,NY,11355
381,139 3RD AVE W,BIRMINGHAM,AL,35204
382,930 20TH ST S,BIRMINGHAM,AL,35205
383,2305 ARLINGTON AVE S,BIRMINGHAM,AL,35205
384,2114 10TH AVE SOUTH,BIRMINGHAM,AL,35205
385,944 SO 18TH ST,BHAM,AL,35205
386,101 6TH AVENUE SOUTH,BIRMINGHAM,AL,35205
387,2011 9TH AVE SO.,BIRMINGHAM,AL,35205
388,2011 9TH AVE SO,BIRMINGHAM,AL,35205
389,1112 19TH ST S,BIRMINGHAM,AL,35205
390,1 BUCKTON RD,BIRMINGHAM,AL,35242
391,2940 CLAIRMONT AVE S,BIRMINGHAM,AL,35205
392,1101 28TH PL S,BIRMINGHAM,AL,35205
393,2660 10TH AVE S,BIRMINGHAM,AL,35205
394,2660 10TH AVE S STE 632,BIRMINGHAM,AL,35205
395,2900 REDMONT PARK CIR,BIRMINGHAM,AL,35205
396,3350 ALTAMONT RD S APT B12,BIRMINGHAM,AL,35205
397,2114 10TH AVE S,BIRMINGHAM,AL,35205
398,2311 HIGHLAND AVE S,BIRMINGHAM,AL,35205
399,1018 17TH ST S,BIRMINGHAM,AL,35205
400,920 18TH ST S,BIRMINGHAM,AL,35205
401,1200 20TH ST S,BIRMINGHAM,AL,35205
402,1200 20TH ST S STE 202,BIRMINGHAM,AL,35205
403,2121 14TH AVE S,BIRMINGHAM,AL,35205
404,2112 14TH AVE S,BIRMINGHAM,AL,35205
405,2301 ARLINGTON AVE S,BIRMINGHAM,AL,35205
406,1613 11TH AVE S,BIRMINGHAM,AL,35205
407,1715 11TH AVE S STE C,BIRMINGHAM,AL,35205
408,1715 11TH AVE S,BIRMINGHAM,AL,35205
409,1021 19TH ST S,BIRMINGHAM,AL,35205
410,1500 20TH ST S,BIRMINGHAM,AL,35205
411,1801 14TH AVE S,BIRMINGHAM,AL,35205
412,1830 14TH AVE S,BIRMINGHAM,AL,35205
413,1500 19TH ST S,BIRMINGHAM,AL,35205
414,1613 12TH ST S,BIRMINGHAM,AL,35205
415,617 19TH CT S,BIRMINGHAM,AL,35205
416,333 GREEN SPRINGS AVE S,BIRMINGHAM,AL,35205
417,9133 PARKWAY E,BIRMINGHAM,AL,35206
418,601 WEST BLVD,BIRMINGHAM,AL,35206
419,9133 PARKWAY E STE 101B,BIRMINGHAM,AL,35206
420,9131 PARKWAY EAST,BIRMINGHAM,AL,35206
421,3200 27TH ST N,BIRMINGHAM,AL,35207
422,3200 16TH ST N,BIRMINGHAM,AL,35207
423,2152 46TH PLACE ENSLEY,BIRMINGHAM,AL,35208
424,4317 AVENUE T,BIRMINGHAM,AL,35208
425,1723 3RD AVE W,BIRMINGHAM,AL,35208
426,2152 46TH PL W,BIRMINGHAM,AL,35208
427,242 WEST VALLEY AVENUE SUITE 101,BIRMINGHAM,AL,35209
428,2045 BROOKWOOD MEDICAL CTR DR,HOMEWOOD,AL,35209
429,"1045 BROADWAY PARK, SUITE 101",BIRMINGHAM,AL,35209
430,2045 BROOKWOOD MEDICAL CTR DR,BIRMINGHAM,AL,35209
431,2045 MEDICAL CENTER DRIVE,BIRMINGHAM,AL,35209
432,1919 OXMOOR RD,HOMEWOOD,AL,35209
433,1628 29TH CT. S,BIRMINGHAM,AL,35209
434,2828 CENTRAL AVE,HOMEWOOD,AL,35209
435,1910 28TH AVE S # 100,HOMEWOOD,AL,35209
436,3507 OLD MONTGOMERY HWY,BIRMINGHAM,AL,35209
437,1120 BEACON PKWY E APT 307,BIRMINGHAM,AL,35209
438,2340 WOODCREST PL,BIRMINGHAM,AL,35209
439,406 HOLLYWOOD BLVD,BIRMINGHAM,AL,35209
440,1626 29TH CT S,HOMEWOOD,AL,35209
441,2828 CENTRAL AVE,BIRMINGHAM,AL,35209
442,2901 CENTRAL AVE,HOMEWOOD,AL,35209
443,2901 CENTRAL AVE,BIRMINGHAM,AL,35209
444,2341 WHITESBURG DR SE,HUNTSVILLE,AL,35801
445,2925 CRESCENT AVE,BIRMINGHAM,AL,35209
446,1900 28TH AVE S STE 109,HOMEWOOD,AL,35209
447,3500 INDEPENDENCE DR,HOMEWOOD,AL,35209
448,3500 INDEPENDENCE DR,BIRMINGHAM,AL,35209
449,1900 28TH AVE S,HOMEWOOD,AL,35209
450,242 W VALLEY AVE STE 101,BIRMINGHAM,AL,35209
451,1752 OXMOOR RD,HOMEWOOD,AL,35209
452,1754 OXMOOR RD,HOMEWOOD,AL,35209
453,1856 LANCASTER RD,HOMEWOOD,AL,35209
454,3045 INDEPENDENCE DR,HOMEWOOD,AL,35209
455,1651 INDEPENDENCE CT,BIRMINGHAM,AL,35209
456,502 LATHROP AVE,BIRMINGHAM,AL,35209
457,1023 OXMOOR RD,BIRMINGHAM,AL,35209
458,1023 OXMOOR RD,HOMEWOOD,AL,35209
459,3530 INDEPENDENCE DR,BIRMINGHAM,AL,35209
460,1045 BROADWAY PARK STE 109,BIRMINGHAM,AL,35209
461,1045 BROADWAY STREET #109,HOMEWOOD,AL,35209
462,415 W OXMOOR RD,BIRMINGHAM,AL,35209
463,536 COBB ST,BIRMINGHAM,AL,35209
464,536 COBB ST,HOMEWOOD,AL,35209
465,103 LUCERNE BLVD,HOMEWOOD,AL,35209
466,511 BROOKWOOD BLVD,BIRMINGHAM,AL,35209
467,2045 MEDICAL CENTER DR,BIRMINGHAM,AL,35209
468,2045 MEDICAL CENTER DR STE 4,BIRMINGHAM,AL,35209
469,2045 BROOKWOOD MEDICAL CTR DR STE 4,BIRMINGHAM,AL,35209
470,625 19TH ST S,BIRMINGHAM,AL,35233
471,2045 BRKWD MED CTR DR STE 24,BIRMINGHAM,AL,35209
472,2045 BROOKWOOD MEDICAL CTR DR STE 6,HOMEWOOD,AL,35209
473,2018 BROOKWOOD MEDICAL CTR DR,BIRMINGHAM,AL,35209
474,328 OAKS DR,BIRMINGHAM,AL,35209
475,3351 INDEPENDENCE DR,HOMEWOOD,AL,35209
476,1424 MONTCLAIR RD,IRONDALE,AL,35210
477,4500 MONTEVALLO RD,BIRMINGHAM,AL,35210
478,1024 GRANTS MILL RD,IRONDALE,AL,35210
479,1811 2ND AVE N,IRONDALE,AL,35210
480,3920 GRANTS MILL RD,BIRMINGHAM,AL,35210
481,3920 GRANTS MILL ROAD,BIRMINGHAM,AL,35210
482,5113 OPORTO MADRID BLVD S,BIRMINGHAM,AL,35210
483,1675 MONTCLAIR RD,BIRMINGHAM,AL,35210
484,1675 MONTCLAIR RD,IRONDALE,AL,35210
485,112 ELDER ST,IRONDALE,AL,35210
486,209 WOODSIDE DR,IRONDALE,AL,35210
487,4616 MONTEVALLO RD,IRONDALE,AL,35210
488,4616 MONTEVALLO RD STE 100,IRONDALE,AL,35210
489,317 ROSEWOOD ST,IRONDALE,AL,35210
490,4500 MONTEVALLO ROAD,BIRMINGHAM,AL,35210
491,4500 MONTEVALLO RD STE B105,IRONDALE,AL,35210
492,4500 MONTEVALLO RD,IRONDALE,AL,35210
493,2806 RUFFNER RD,IRONDALE,AL,35210
494,2836 LAKESHORE PKWY,BIRMINGHAM,AL,35211
495,2850 VENICE RD,BIRMINGHAM,AL,35211
496,230 E 10TH ST STE 106,ANNISTON,AL,36207
497,859 LOMB AVE SW,BIRMINGHAM,AL,35211
498,401 TUSCALOOSA AVE SW,BIRMINGHAM,AL,35211
499,727 STONERIVER DR,BIRMINGHAM,AL,35211
500,2826 LAKESHORE PKWY,BIRMINGHAM,AL,35211
501,1436 BEAUTY CIR,BIRMINGHAM,AL,35214
502,1618 HIGHWAY 78 E,JASPER,AL,35501
503,107 OXMOOR GLEN CIR,BIRMINGHAM,AL,35211
504,5720 FIRST AVENUE SOUTH,BIRMINGHAM,AL,35212
505,6 61ST STREET NORTH,BIRMINGHAM,AL,35212
506,100 57TH ST SO,BIRMINGHAM,AL,35212
507,5528 1ST AVE N,BIRMINGHAM,AL,35212
508,5500 1ST AVE S,BIRMINGHAM,AL,35212
509,5720 1ST AVE S,BIRMINGHAM,AL,35212
510,100 57TH ST S,BIRMINGHAM,AL,35212
511,6 61ST ST N,BIRMINGHAM,AL,35212
512,5143 6TH AVE S,BIRMINGHAM,AL,35212
513,702 S QUINTARD AVE,ANNISTON,AL,36201
514,1598 MONTGOMERY HWY,HOOVER,AL,35216
515,721 MONTCLAIR RD,BIRMINGHAM,AL,35213
516,27 CHURCH ST,MOUNTAIN BRK,AL,35213
517,924 MONTCLAIR ROAD,BIRMINGHAM,AL,35213
518,1117 GLADSTONE AVE,BIRMINGHAM,AL,35213
519,1324 LARRY LN,BIRMINGHAM,AL,35213
520,4369 RUTH RD,BIRMINGHAM,AL,35213
521,808 SHARPSBURG CIR,BIRMINGHAM,AL,35213
522,840 MONTCLAIR RD,BIRMINGHAM,AL,35213
523,3900 MONTCLAIR RD,BIRMINGHAM,AL,35213
524,3918 MONTCLAIR RD,BIRMINGHAM,AL,35213
525,3940 MONTCLAIR RD,BIRMINGHAM,AL,35213
526,121 PEACHTREE RD,BIRMINGHAM,AL,35213
527,120 EUCLID AVE,BIRMINGHAM,AL,35213
528,120 EUCLID AVE,MOUNTAIN BRK,AL,35213
529,27 CHURCH ST,BIRMINGHAM,AL,35213
530,48 CHURCH ST,BIRMINGHAM,AL,35213
531,48 CHURCH STREET,BIRMINGHAM,AL,35213
532,2850 CAHABA RD,MOUNTAIN BRK,AL,35223
533,301 DEXTER AVE,BIRMINGHAM,AL,35213
534,36 CHURCH ST,MOUNTAIN BRK,AL,35213
535,244 COUNTRY CLUB PARK,BIRMINGHAM,AL,35213
536,244 COUNTRY CLUB PARK,MOUNTAIN BRK,AL,35213
537,300 BEECH CIR APT 7311,BIRMINGHAM,AL,35213
538,220 WALKER RD,BIRMINGHAM,AL,35214
539,2129 FORESTDALE BLVD,BIRMINGHAM,AL,35214
540,2685 PELHAM PKWY,BIRMINGHAM,AL,35214
541,100 AVE. W PRATT CITY,BIRMINGHAM,AL,35214
542,612 RED LANE RD,BIRMINGHAM,AL,35215
543,2500 CENTER POINT PKWY,BIRMINGHAM,AL,35215
544,2525 CENTERPOINT PARKWAY,BIRMINGHAM,AL,35215
545,2232 CENTER POINT PARKWAY,BIRMINGHAM,AL,35215
546,2302 CENTER POINT PKWY,BIRMINGHAM,AL,35215
547,2525 CENTER POINT PKWY,BIRMINGHAM,AL,35215
548,2302 CENTER POINT PKWY,CENTER POINT,AL,35215
549,2216 OLD SPRINGVILLE RD,CENTER POINT,AL,35215
550,2462 OLD SPRINGVILLE RD,BIRMINGHAM,AL,35215
551,2232 CENTER POINT PKWY,BIRMINGHAM,AL,35215
552,101 21ST AVE NE,BIRMINGHAM,AL,35215
553,1516 CENTER POINT PKWY,BIRMINGHAM,AL,35215
554,1263 CENTER POINT PKWY,BIRMINGHAM,AL,35215
555,524 RED LANE RD,BIRMINGHAM,AL,35215
556,524 RED LANE RD STE F,BIRMINGHAM,AL,35215
557,1029 35TH ST WEST ENSLEY,BIRMINGHAM,AL,35216
558,1771 INDEPENDENCE CT,VESTAVIA,AL,35216
559,3055 LORNA RD STE 100,HOOVER,AL,35216
560,1932 LAUREL RD,VESTAVIA,AL,35216
561,3284 MORGAN DR STE 104,VESTAVIA HILLS,AL,35216
562,3055 LORNA ROAD,HOOVER,AL,35216
563,3284 MORGAN DRIVE,BIRMINGHAM,AL,35216
564,2034 PATTON CHAPEL ROAD,BIRMINGHAM,AL,35216
565,1913 LAUREL ROAD,VESTAVIA,AL,35216
566,1932 LAUREL ROAD,VESTAVIA HILLS,AL,35216
567,1771 INDEPENDENCE COURT,BIRMINGHAM,AL,35216
568,1932 LAUREL ROAD STE. 1A,VESTAVIA,AL,35216
569,2038 PATTON CHAPEL ROAD,BIRMINGHAM,AL,35216
570,2030 PATTON CHAPEL ROAD,HOOVER,AL,35216
571,2151 OLD ROCKY RIDGE ROAD,HOOVER,AL,35216
572,1932 LAUREL RD,BIRMINGHAM,AL,35216
573,2040 PATTON CHAPEL ROAD,HOOVER,AL,35216
574,1771 INDEPENDENCE CT,BIRMINGHAM,AL,35216
575,1771 INDEPENDENCE CT.,BIRMINGHAM,AL,35216
576,2034 PATTON CHAPEL RD,HOOVER,AL,35216
577,2038 PATTON CHAPEL RD,BIRMINGHAM,AL,35216
578,502 MONTGOMERY HWY,BIRMINGHAM,AL,35216
579,2040 PATTON CHAPEL RD STE 100,HOOVER,AL,35216
580,1771 INDEPENDENCE CT STE 3,BIRMINGHAM,AL,35216
581,1771 INDEPENDENCE CT STE 1,VESTAVIA,AL,35216
582,1771 INDEPENDENCE CT STE 1,VESTAVIA HILLS,AL,35216
583,1771 INDEPENDENCE CT STE 2,VESTAVIA HILLS,AL,35216
584,1957 HOOVER CT,BIRMINGHAM,AL,35226
585,1771 INDEPENDENCE CT,VESTAVIA HILLS,AL,35216
586,300 MONTGOMERY HWY,VESTAVIA HILLS,AL,35216
587,1913 LAUREL RD,VESTAVIA,AL,35216
588,701 MONTGOMERY HWY,VESTAVIA HILLS,AL,35216
589,701 MONTGOMERY HWY,VESTAVIA,AL,35216
590,1932 LAUREL RD,VESTAVIA HILLS,AL,35216
591,502 MONTGOMERY HWY,VESTAVIA HILLS,AL,35216
592,502 MONTGOMERY HWY,VESTAVIA,AL,35216
593,1841 MONTCLAIRE LN,BIRMINGHAM,AL,35216
594,1841 MONTCLAIRE LN,VESTAVIA,AL,35216
595,521 MONTGOMERY HWY STE 125,BIRMINGHAM,AL,35216
596,521 HIGHWAY 31 S STE 125,VESTAVIA HILLS,AL,35216
597,521 MONTGOMERY HWY,BIRMINGHAM,AL,35216
598,1000 CHESTNUT ST,BIRMINGHAM,AL,35216
599,2816 COLUMBIANA RD,VESTAVIA,AL,35216
600,2816 COLUMBIANA RD,VESTAVIA HILLS,AL,35216
601,1848 NOTTINGHAM DR,VESTAVIA,AL,35216
602,2501 CROSSGATE PL,BIRMINGHAM,AL,35216
603,2720 MASSEY CIR,VESTAVIA HILLS,AL,35216
604,2011 VESTAVIA PARK LN APT A,VESTAVIA,AL,35216
605,1705 VESTAVIA PKWY,BIRMINGHAM,AL,35216
606,1705 VESTAVIA PKWY,VESTAVIA,AL,35216
607,3021 LORNA RD STE 110,BIRMINGHAM,AL,35216
608,3021 LORNA RD STE 307,BIRMINGHAM,AL,35216
609,2046 GREENVALE LN,HOOVER,AL,35216
610,3055 LORNA RD STE 110,HOOVER,AL,35216
611,3057 LORNA RD STE 102,BIRMINGHAM,AL,35216
612,1598 MONTGOMERY HWY,VESTAVIA HILLS,AL,35216
613,2642 OLD ROCKY RIDGE RD,HOOVER,AL,35216
614,1633 MONTGOMERY HWY STE 5,HOOVER,AL,35216
615,1633 MONTGOMERY HWY,HOOVER,AL,35216
616,1633 MONTGOMERY HWY,BIRMINGHAM,AL,35216
617,2112 LYNNGATE DR,HOOVER,AL,35216
618,2112 LYNNGATE DR,BIRMINGHAM,AL,35216
619,2512 CHRISTIE CIR,BIRMINGHAM,AL,35216
620,2036 PATTON CHAPEL RD,HOOVER,AL,35216
621,2030 PATTON CHAPEL RD,HOOVER,AL,35216
622,2030 PATTON CHAPEL RD,BIRMINGHAM,AL,35216
623,2036 PATTON CHAPEL RD,VESTAVIA HILLS,AL,35216
624,2034 PATTON CHAPEL RD,BIRMINGHAM,AL,35216
625,2038 PATTON CHAPEL RD,HOOVER,AL,35216
626,1451 RIVER WALK CIR,BIRMINGHAM,AL,35216
627,1108 NORTHWOOD DR,BIRMINGHAM,AL,35217
628,1710 JACKSON BLVD,BIRMINGHAM,AL,35217
629,1744 LILIHA ST,HONOLULU,HI,96817
630,5300 57TH ST N BLDG 120,BIRMINGHAM,AL,35217
631,1700 AVENUE E,BIRMINGHAM,AL,35218
632,1029 35TH.ST.WEST,BIRMINGHAM,AL,35218
633,3804 11TH AVE S,BIRMINGHAM,AL,35222
634,357 OFFICE PARK DR,MOUNTAIN BRK,AL,35223
635,2850 CAHABA RD STE 140,MOUNTAIN BRK,AL,35223
636,357 OFFICE PARK DR,BIRMINGHAM,AL,35223
637,3300 CAHABA RD,BIRMINGHAM,AL,35223
638,3705 BRIAR OAK CIR,MOUNTAIN BRK,AL,35223
639,3140 OVERTON RD,BIRMINGHAM,AL,35223
640,3140 OVERTON RD,MOUNTAIN BRK,AL,35223
641,120 OFFICE PARK DR STE 240,MOUNTAIN BRK,AL,35223
642,400 CENTURY PARK S,BIRMINGHAM,AL,35226
643,589A SHADES CREST RD,HOOVER,AL,35226
644,1310 ALFORD AVE,HOOVER,AL,35226
645,2201 GRAND AVE STE 113,HOOVER,AL,35226
646,2161 CLEARBROOK ROAD,HOOVER,AL,35226
647,763 SHADES MOUNTAIN PLAZA,BIRMINGHAM,AL,35226
648,763 SHADES MOUNTAIN PLZ,BIRMINGHAM,AL,35226
649,2161 CLEARBROOK RD,HOOVER,AL,35226
650,2170 CLEARBROOK RD,HOOVER,AL,35226
651,1310 ALFORD AVE,BIRMINGHAM,AL,35226
652,1600 DEO DARA DR,HOOVER,AL,35226
653,1600 DEO DARA DR,BIRMINGHAM,AL,35226
654,711 VAN BUREN DR,VESTAVIA,AL,35226
655,1957 HOOVER CT,HOOVER,AL,35226
656,500 SOUTHLAND DR,BIRMINGHAM,AL,35226
657,500 SOUTHLAND DR STE 150,BIRMINGHAM,AL,35226
658,2201 GRAND AVE,HOOVER,AL,35226
659,2201 GRAND AVE,BIRMINGHAM,AL,35226
660,225 CENTRE ST,BOSTON,MA,02119
661,2394 ABBEYGLEN CIR,HOOVER,AL,35226
662,3139 SAWYER DR,HOOVER,AL,35226
663,111 B Y WILLIAMS SR DR,MIDFIELD,AL,35228
664,111 BY WILLIAMS SR DR,MIDFIELD,AL,35228
665,111 B Y WILLIAMS SR DR STE 211,MIDFIELD,AL,35228
666,114 BROOKWOOD RD E,MIDFIELD,AL,35228
667,9775 HIGHWAY 64 STE 101,ARLINGTON,TN,38002
668,1600 7TH AVE S # CLINIC9,BIRMINGHAM,AL,35233
669,700 SOUTH 19TH ST,BIRMINGHAM,AL,35233
670,619 19TH STREET SOUTH,BIRMINGHAM,AL,35233
671,418 SCHOOL OF DENTISTRY BUILDING,BIRMINGHAM,AL,35233
672,700 S 19TH ST,BIRMINGHAM,AL,35233
673,1400 6TH AVE S,BIRMINGHAM,AL,35233
674,1600 7TH AVE S,BIRMINGHAM,AL,35233
675,700 19TH ST S,BIRMINGHAM,AL,35233
676,1802 6TH AVE S,BIRMINGHAM,AL,35233
677,1919 7TH AVE S # SBD537,BIRMINGHAM,AL,35233
678,1919 7TH AVE S RM 538,BIRMINGHAM,AL,35233
679,1919 7TH AVE S STE 524E,BIRMINGHAM,AL,35233
680,707 RICHARD ARRINGTON JR BLVD S,BIRMINGHAM,AL,35233
681,707 RICHARD ARRINGTON JR BLVD SO,BIRMINGHAM,AL,35233
682,2000 6TH AVE S,BIRMINGHAM,AL,35233
683,2128 7TH AVE. S.,BIRMINGHAM,AL,35233
684,2128 7TH AVE S,BIRMINGHAM,AL,35233
685,2320 7TH AVE S,BIRMINGHAM,AL,35233
686,716 32ND ST S,BIRMINGHAM,AL,35233
687,313 E 10TH ST,ANNISTON,AL,36207
688,3829 CLEGHORN AVE,NASHVILLE,TN,37215
689,591 S HORSEBARN RD,ROGERS,AR,72758
690,1021 BROADWAY ST,BUFFALO,NY,14212
691,2496 ROCKY RIDGE RD,VESTAVIA,AL,35243
692,1813 6TH AVE S,BIRMINGHAM,AL,35233
693,250 S MAIN ST STE 212,BLACKSBURG,VA,24060
694,2239 HIGHWAY 20 SE,CONYERS,GA,30013
695,60 ROCK POINTE LN,WARRENTON,VA,20186
696,104 N MAIN ST,HOPEWELL,VA,23860
697,230 MAPLE ST,HOLYOKE,MA,01040
698,2711 TAMPA RD,PALM HARBOR,FL,34684
699,8324 CROSSLAND LOOP,MONTGOMERY,AL,36117
700,1430 JOHN WESLEY GILBERT DRIVE,AUGUSTA,GA,30912
701,4702 MISTY RIDGE CIR,BIRMINGHAM,AL,35235
702,4702 MISTY RIDGE CIR.,BIRMINGHAM,AL,35235
703,1930 EDWARDS LAKE ROAD,BIRMINGHAM,AL,35235
704,5590 CHALKVILLE ROAD,BIRMINGHAM,AL,35235
705,5975 CHALKVILLE MT LANE,BIRMINGHAM,AL,35235
706,4701 MISTY RIDGE CIRCLE,BIRMINGHAM,AL,35235
707,1820 GADSDEN HWY STE 112,BIRMINGHAM,AL,35235
708,39 CALLE REINA CRISTINA,GUAYNABO,PR,00969
709,5620 CHALKVILLE ROAD,BIRMINGHAM,AL,35235
710,628 GADSDEN HWY,BIRMINGHAM,AL,35235
711,3240 EDWARDS LAKE PKWY STE 200,BIRMINGHAM,AL,35235
712,1808 GADSDEN HWY,BIRMINGHAM,AL,35235
713,1808 GADSDEN HWY STE 134,BIRMINGHAM,AL,35235
714,5024 PINNACLE SQ STE 116,BIRMINGHAM,AL,35235
715,3713 MARY TAYLOR RD,BIRMINGHAM,AL,35235
716,48 MEDICAL PARK DR E,BIRMINGHAM,AL,35235
717,1930 EDWARDS LAKE RD,BIRMINGHAM,AL,35235
718,5590 CHALKVILLE RD,BIRMINGHAM,AL,35235
719,5891 VALLEY RD,BIRMINGHAM,AL,35235
720,4960 VALLEYDALE RD STE 100,BIRMINGHAM,AL,35242
721,2224 CAHABA VALLEY DR,BIRMINGHAM,AL,35242
722,4516 VALLEYDALE ROAD,BIRMINGHAM,AL,35242
723,101 MISSIONARY RDG STE 101,BIRMINGHAM,AL,35242
724,4647 HIGHWAY 280 STE E,BIRMINGHAM,AL,35242
725,254 INVERNESS CENTER DRIVE,BIRMINGHAM,AL,35242
726,4960 VALLEYDALE ROAD,HOOVER,AL,35242
727,5470 CALDWELL MILL ROAD,BIRMINGHAM,AL,35242
728,8000 LIBERTY PARKWAY,VESTAVIA HILLS,AL,35242
729,120 DOUG BAKER BLVD,BIRMINGHAM,AL,35242
730,1063 NARROWS WAY,BIRMINGHAM,AL,35242
731,5291 VALLEYDALE ROAD,BIRMINGHAM,AL,35242
732,8000 LIBERY PKWY,BIRMINGHAM,AL,35242
733,5104 CYRUS CIRCLE,BIRMINGHAM,AL,35242
734,13521 OLD HIGHWAY 280 STE 229,BIRMINGHAM,AL,35242
735,58 MANNING PL,BIRMINGHAM,AL,35242
736,4000 EAGLE POINT CORPORATE DR,BIRMINGHAM,AL,35242
737,1950 STONEGATE DR STE 100,VESTAVIA HLS,AL,35242
738,2213 CAHABA VALLEY DR,BIRMINGHAM,AL,35242
739,2800 GREYSTONE COMMERCIAL BLVD,BIRMINGHAM,AL,35242
740,6930 CAHABA VALLEY RD,BIRMINGHAM,AL,35242
741,6930 CAHABA VALLEY RD STE 1,BIRMINGHAM,AL,35242
742,6807 TATTERSAL WAY,BIRMINGHAM,AL,35242
743,2020 PROXIMITY DR,CHARLESTON,SC,29414
744,4960 VALLEYDALE RD,BIRMINGHAM,AL,35242
745,5100 CYRUS CIR,BIRMINGHAM,AL,35242
746,5104 CYRUS CIR,BIRMINGHAM,AL,35242
747,5113 CYRUS CIR,BIRMINGHAM,AL,35242
748,120 DOUG BAKER BLVD,HOOVER,AL,35242
749,4516 VALLEYDALE RD,BIRMINGHAM,AL,35242
750,4518 VALLEYDALE RD,BIRMINGHAM,AL,35242
751,1 INVERNESS CENTER PKWY,BIRMINGHAM,AL,35242
752,1 INVERNESS CENTER PKWY STE 200,BIRMINGHAM,AL,35242
753,301 W LAUREL AVE,FOLEY,AL,36535
754,4647 HIGHWAY 280,BIRMINGHAM,AL,35242
755,1908 SPRINGFIELD LOOP W,BIRMINGHAM,AL,35242
756,140 VILLAGE ST,BIRMINGHAM,AL,35242
757,101 MISSIONARY RDG,BIRMINGHAM,AL,35242
758,1469 BRISTOL MNR,BIRMINGHAM,AL,35242
759,919 TRINITY CT,BIRMINGHAM,AL,35242
760,7350 CAHABA VALLEY RD,BIRMINGHAM,AL,35242
761,7350 CAHABA VALLEY RD STE 106,BIRMINGHAM,AL,35242
762,111 VILLAGE ST,BIRMINGHAM,AL,35242
763,5510 HIGHWAY 280,BIRMINGHAM,AL,35242
764,5511 HIGHWAY 280,BIRMINGHAM,AL,35242
765,1000 EAGLE POINT CORPORATE DR STE 102,BIRMINGHAM,AL,35242
766,1112 LIBERTY PARK LOOP,VESTAVIA,AL,35242
767,8000 LIBERTY PKWY,VESTAVIA,AL,35242
768,8000 LIBERTY PKWY,BIRMINGHAM,AL,35242
769,202 INVERNESS CENTER DR,BIRMINGHAM,AL,35242
770,5291 VALLEYDALE RD,BIRMINGHAM,AL,35242
771,5291 VALLEYDALE RD STE 129,BIRMINGHAM,AL,35242
772,101 HEATHERBROOKE PARK DR,BIRMINGHAM,AL,35242
773,100 HEATHERBROOKE PARK DR,BIRMINGHAM,AL,35242
774,141 NARROWS DR,BIRMINGHAM,AL,35242
775,194 NARROWS DR,BIRMINGHAM,AL,35242
776,3015 WILSON AVE,LOUISVILLE,KY,40211
777,2512 D ROCKY RIDGE ROAD,BIRMINGHAM,AL,35243
778,3145 GREEN VALLEY RD STE 101,VESTAVIA,AL,35243
779,3265 CAHABA HEIGHTS RD,BIRMINGHAM,AL,35243
780,3145 GREEN VALLEY ROAD,VESTANA HILLS,AL,35243
781,3142 CUHABA HEIGHTS RD,VESTAVIA,AL,35243
782,4704 CAHABA RIVER RD,BIRMINGHAM,AL,35243
783,4851 CAHABA RIVER RD,BIRMINGHAM,AL,35243
784,2894 ACTON RD,BIRMINGHAM,AL,35243
785,2470 ROCKY RIDGE RD,BIRMINGHAM,AL,35243
786,127 CAHABA RIVER PARC,BIRMINGHAM,AL,35243
787,3419 COLONNADE PKWY,BIRMINGHAM,AL,35243
788,2512 ROCKY RIDGE RD STE D,BIRMINGHAM,AL,35243
789,2531 ROCKY RIDGE RD,BIRMINGHAM,AL,35243
790,2401 DOLLY RIDGE RD,VESTAVIA,AL,35243
791,3400 OAK CANYON DR.,BIRMINGHAM,AL,35243
792,3100 WELLINGTON PKWY,VESTAVIA,AL,35243
793,4005 CROSSHAVEN DR,BIRMINGHAM,AL,35243
794,3172 CAHABA HEIGHTS RD,BIRMINGHAM,AL,35243
795,3145 GREEN VALLEY RD,VESTAVIA,AL,35243
796,3159 GREEN VALLEY RD,BIRMINGHAM,AL,35243
797,4213 DOLLY RIDGE RD,VESTAVIA,AL,35243
798,4244 CAHABA HEIGHTS CT STE 300,VESTAVIA,AL,35243
799,2006 OLD MONTGOMERY HWY,BIRMINGHAM,AL,35244
800,2041 VALLEYDALE RD,BIRMINGHAM,AL,35244
801,1015 BROCKS GAP PKWY,HOOVER,AL,35244
802,2200 VALLEYDALE RD STE 110,HOOVER,AL,35244
803,500 EMERY DR W,HOOVER,AL,35244
804,4501 SOUTHLAKE PKWY,HOOVER,AL,35244
805,5190 MEDFORD DR # 100,HOOVER,AL,35244
806,2801 HWY 150,HOOVER,AL,35244
807,3 RIVERCHASE OFFICE PLAZA,BIRMINGHAM,AL,35244
808,2117 DATA PARK,HOOVER,AL,35244
809,3825 LORNA ROAD,HOOVER,AL,35244
810,1871 CHACE DRIVE,HOOVER,AL,35244
811,2029 OLD MONTGOMERY HIGHWAY,BIRMINGHAM,AL,35244
812,2321 HIGHWAY 150,HOOVER,AL,35244
813,5336 STADIUM TRACE PARKWAY,BIRMINGHAM,AL,35244
814,2949 JOHN HAWKINS PKWY,BIRMINGHAM,AL,35244
815,3821 LORNA RD,HOOVER,AL,35244
816,2113 DATA PARK CIR,BIRMINGHAM,AL,35244
817,705 CRESTED FERN LN,BIRMINGHAM,AL,35244
818,2290 VALLEYDALE ROAD,BIRMINGHAM,AL,35244
819,2074 VALLEYDALE RD,HOOVER,AL,35244
820,2633 VALLEYDALE RD,BIRMINGHAM,AL,35244
821,3825 LORNA RD STE 210,BIRMINGHAM,AL,35244
822,3825 LORNA RD,HOOVER,AL,35244
823,3825 LORNA RD,BIRMINGHAM,AL,35244
824,3825 LORNA RD STE 260,HOOVER,AL,35244
825,3000 SOUTHLAKE PARK,HOOVER,AL,35244
826,4515 SOUTHLAKE PKWY,BIRMINGHAM,AL,35244
827,2318 JOHN HAWKINS PKWY,HOOVER,AL,35244
828,2321 JOHN HAWKINS PKWY,HOOVER,AL,35244
829,2000 SOUTHLAKE PARK,HOOVER,AL,35244
830,4501 SOUTHLAKE PKWY STE 201,HOOVER,AL,35244
831,4730 CHACE CIR,HOOVER,AL,35244
832,149 SKYLAND BLVD,TUSCALOOSA,AL,35405
833,2801 HIGHWAY 150,HOOVER,AL,35244
834,2801 JOHN HAWKINS PKWY STE 175,HOOVER,AL,35244
835,425 EMERY DR,HOOVER,AL,35244
836,5336 STADIUM TRACE PKWY,HOOVER,AL,35244
837,5346 STADIUM TRACE PKWY,BIRMINGHAM,AL,35244
838,5346 STADIUM TRACE PKWY,HOOVER,AL,35244
839,5346 STADIUM TRACE PKWY STE 108,HOOVER,AL,35244
840,5391 MAGNOLIA TRCE,HOOVER,AL,35244
841,514 CROWNE RESERVE DR,HOOVER,AL,35244
842,3825 LORNA RD STE 248,HOOVER,AL,35244
843,600 UNIVERSITY BLVD E,TUSCALOOSA,AL,35401
844,601 HARGROVE RD E,TUSCALOOSA,AL,35401
845,510 13TH ST,TUSCALOOSA,AL,35401
846,600 UNIVERSITY BLVD EAST,TUSCALOOSA,AL,35401
847,600 UNIVERSITY BLVD E STE B4,TUSCALOOSA,AL,35401
848,610 HARGROVE ROAD EAST,TUSCALOOSA,AL,35401
849,600 A UNIVERSITY BLVD EAST,TUSCALOOSA,AL,35401
850,601 HARGROVE ROAD EAST,TUSCALOOSA,AL,35401
851,1101 JACKSON AVENUE,TUSCALOOSA,AL,35401
852,1712 HACKBERRY LANE,TUSCALOOSA,AL,35401
853,1434 2ND COURT EAST,TUSCALOOSA,AL,35401
854,BRYCE HOSPITAL,TUSCALOOSA,AL,35401
855,1102 HACKBERRY LN,TUSCALOOSA,AL,35401
856,1106 HACKBERRY LN,TUSCALOOSA,AL,35401
857,1434 2ND CT E,TUSCALOOSA,AL,35401
858,410 15TH ST E # B,TUSCALOOSA,AL,35401
859,410 15TH ST E,TUSCALOOSA,AL,35401
860,610 HARGROVE RD E,TUSCALOOSA,AL,35401
861,400 E HARGROVE RD,TUSCALOOSA,AL,35401
862,2731 MLK JR BLVD,TUSCALOOSA,AL,35401
863,2731 ML KING JR BLVD,TUSCALOOSA,AL,35401
864,535 JACK WARNER PKWY NE,TUSCALOOSA,AL,35404
865,621 HELEN KELLER BLVD,TUSCALOOSA,AL,35404
866,1701 MCFARLAND BLVD E,TUSCALOOSA,AL,35404
867,3701 LOOP ROAD,TUSCALOOSA,AL,35404
868,535 JACK WARNER PKWAY NE SUITE J1,TUSCALSOSA,AL,35404
869,641 HELEN KELLER BLVD,TUSCALOOSA,AL,35404
870,1600 UNIVERSITY BLVD E,TUSCALOOSA,AL,35404
871,601 HELEN KELLER BLVD,TUSCALOOSA,AL,35404
872,1701 MCFARLAND BLVD #122,TUSCALOOSA,AL,35404
873,621 HELEN KELLER BLVD STE 300,TUSCALOOSA,AL,35404
874,621 HELEN KELLER BLVD STE 200,TUSCALOOSA,AL,35404
875,621 HELEN KELLER BLVD STE 100,TUSCALOOSA,AL,35404
876,651 HELEN KELLER BLVD,TUSCALOOSA,AL,35404
877,631 HELEN KELLER BLVD,TUSCALOOSA,AL,35404
878,2415 VETERANS MEMORIAL PKWY,TUSCALOOSA,AL,35404
879,1402 VETERANS MEMORIAL PKWY,TUSCALOOSA,AL,35404
880,3701 LOOP RD,TUSCALOOSA,AL,35404
881,535 JACK WARNER PKWY NE STE D,TUSCALOOSA,AL,35404
882,1203 MASON RIDGE DR,DEMOPOLIS,AL,36732
883,1701 MCFARLAND BLVD E STE 122,TUSCALOOSA,AL,35404
884,274 N 3RD ST,GADSDEN,AL,35901
885,1516 SKYLAND BLVD E,TUSCALOOSA,AL,35405
886,1100 ENGLEWOOD VILLAGE DRIVE,TUSCALOOSA,AL,35405
887,7402 HIGHWAY 69 S,TUSCALOOSA,AL,35405
888,7402 HIGHWAY 69 S STE H,TUSCALOOSA,AL,35405
889,1911 SKYLAND BLVD E,TUSCALOOSA,AL,35405
890,2350 HARGROVE RD E,TUSCALOOSA,AL,35405
891,6541 HIGHWAY 69 S STE B,TUSCALOOSA,AL,35405
892,1911 SKYLAND BLVD E STE A3,TUSCALOOSA,AL,35405
893,6525 OLD GREENSBORO RD,TUSCALOOSA,AL,35405
894,6541 HIGHWAY 69 S,TUSCALOOSA,AL,35405
895,1736 TEAL CIR,TUSCALOOSA,AL,35405
896,1600 SW ARCHER RD # D11-6,GAINESVILLE,FL,32610
897,805 RICE MINE RD N,TUSCALOOSA,AL,35406
898,100 RICE MINE RD N,TUSCALOOSA,AL,35406
899,217 MCFARLAND CIRCLE NORTH,TUSCALOOSA,AL,35406
900,222 MCFARLAND CIR N,TUSCALOOSA,AL,35406
901,217 MCFARLAND CIR N,TUSCALOOSA,AL,35406
902,401 TOWNCENTER BLVD STE A,TUSCALOOSA,AL,35406
903,1800 MCFARLAND BLVD N STE 230,TUSCALOOSA,AL,35406
904,1825 MCFARLAND BLVD N STE D,TUSCALOOSA,AL,35406
905,1663 MCFARLAND BLVD N,TUSCALOOSA,AL,35406
906,1825 MCFARLAND BLVD N,TUSCALOOSA,AL,35406
907,1224 MCFARLAND BLVD NE,TUSCALOOSA,AL,35406
908,815 RICE MINE RD N,TUSCALOOSA,AL,35406
909,100 RICE MINE RD N STE D,TUSCALOOSA,AL,35406
910,221 RICE MINE RD NE,TUSCALOOSA,AL,35406
911,1490 N BANK PKWY STE 130,TUSCALOOSA,AL,35406
912,5520 RICE MINE RD NE,TUSCALOOSA,AL,35406
913,1100 FAIRFAX PARK,TUSCALOOSA,AL,35406
914,4851 RICE MINE RD NE,TUSCALOOSA,AL,35406
915,1771 COMMONS NORTH LOOP,TUSCALOOSA,AL,35406
916,27290 HWY 86,GORDO,AL,35466
917,106 5TH ST NE,ALICEVILLE,AL,35442
918,109 HOSPITAL DR,LIVINGSTON,AL,35470
919,105 HOSPITAL DRIVE,LIVINGSTON,AL,35470
920,525 ENERGY CENTER BLVD,NORTHPORT,AL,35473
921,12410 WILDCAT DR,NORTHPORT,AL,35475
922,13576 HIGHWAY 43 N,NORTHPORT,AL,35475
923,2810 20TH AVE STE A,NORTHPORT,AL,35476
924,2820 LURLEEN WALLACE BOULEVARD,NORTHPORT,AL,35476
925,2820 LURLEEN WALLACE BLVD,NORTHPORT,AL,35476
926,2820 LURLEEN B WALLACE BLVD,NORTHPORT,AL,35476
927,2810 20TH AVE STE B,NORTHPORT,AL,35476
928,2810 20TH AVE,NORTHPORT,AL,35476
929,225 MCFARLAND BLVD,NORTHPORT,AL,35476
930,106 3RD AVE SE,REFORM,AL,35481
931,106 THIRD AVENUE SOUTHEAST,REFORM,AL,35481
932,1606 6TH AVE S,JASPER,AL,35501
933,1608 HIGHWAY 78 W,JASPER,AL,35501
934,1208 HIGHWAY 78 E,JASPER,AL,35501
935,1208 HIGHWAY 78 EAST,JASPER,AL,35501
936,1206 HWY 78 EAST,JASPER,AL,35501
937,1206 HWY 78 E,JASPER,AL,35501
938,1206 HIGHWAY 78 EAST,JASPER,AL,35501
939,20 MEDICAL CENTER DR,JASPER,AL,35501
940,1400 HIGHWAY 78 W,JASPER,AL,35501
941,601 HWY 78 WEST,JASPER,AL,35501
942,1206 HIGHWAY 78 E,JASPER,AL,35501
943,1508 W 10TH ST,LAUREL,MS,39440
944,914 HIGHWAY 78 E,JASPER,AL,35501
945,1606 HIGHWAY 78 E,JASPER,AL,35501
946,400 19TH ST E,JASPER,AL,35501
947,4801 HIGHWAY 78 E,JASPER,AL,35501
948,4500 HIGHWAY 78 E,JASPER,AL,35501
949,4330 HIGHWAY 78 E,JASPER,AL,35501
950,5100 CURRY HWY,JASPER,AL,35503
951,441 THE MALL WAY,JASPER,AL,35504
952,300 N AIRPORT RD,JASPER,AL,35504
953,300 NORTH AIRPORT ROAD,JASPER,AL,35504
954,1606 HWY 78 E,JASPER,AL,35504
955,101 6TH AVE NW,JASPER,AL,35504
956,25734 HIGHWAY 195,DOUBLE SPRINGS,AL,35553
957,301 5TH ST NE,FAYETTE,AL,35555
958,303 1ST AVE NE,FAYETTE,AL,35555
959,161 12TH AVE W STE C,GUIN,AL,35563
960,1201 21ST ST,HALEYVILLE,AL,35565
961,1001 HWY 13,HALEYVILLE,AL,35565
962,2095 20TH AVENUE,HALEYVILLE,AL,35565
963,1001 HIGHWAY 13,HALEYVILLE,AL,35565
964,2095 20TH AVE,HALEYVILLE,AL,35565
965,1760 MILITARY HIGHWAY SOUTH,HAMILTON,AL,35570
966,160 MCCLUNG STR,PHIL CAMPBELL,AL,35570
967,1760 MILITARY HIGHWAY SO,HAMILTON,AL,35570
968,571 BEXAR AVE W,HAMILTON,AL,35570
969,224 2ND AVE SW,HAMILTON,AL,35570
970,1760 MILITARY HWY SO.,HAMILTON,AL,35570
971,1760 MILITARY ST S,HAMILTON,AL,35570
972,2131 MILITARY ST S,HAMILTON,AL,35570
973,6496 HWY 269 SUITE 201,PARRISH,AL,35580
974,5947 HIGHWAY 269,PARRISH,AL,35580
975,160 MCCLUNG STREET,PHIL CAMPBELL,AL,35581
976,1115 4TH ST. NW,RED BAY,AL,35582
977,513 W 3RD ST,RED BAY,AL,35582
978,445 FRONT STREET,SULLIGENT,AL,35586
979,121 10TH ST NW,VERNON,AL,35592
980,895 BANKHEAD HWY,WINFIELD,AL,35594
981,170 CITY HALL STREET,WINFIELD,AL,35594
982,125 STATE HIGHWAY 253,WINFIELD,AL,35594
983,1316 SOMERVILLE RD SE STE 2,DECATUR,AL,35601
984,1316 STRATFORD ROAD SE,DECATUR,AL,35601
985,1316 STRATFORD RD SE,DECATUR,AL,35601
986,"2112A DANVILLE RD., SW",DECATUR,AL,35601
987,203B COMMERCE CIRCLE SW,DECATUR,AL,35601
988,2020 STRATFORD CT SE,DECATUR,AL,35601
989,1906 FLINT ROAD SE,DECATUR,AL,35601
990,1320 STRATFORD ROAD SE,DECATUR,AL,35601
991,1306 14TH AVE SE,DECATUR,AL,35601
992,1241 POINT MALLARD PARKWAY,DECATUR,AL,35601
993,1821 BELTLINE RD SW,DECATUR,AL,35601
994,431 JOHNSTON ST SE,DECATUR,AL,35601
995,1316 SOMERVILLE RD SE,DECATUR,AL,35601
996,1215 13TH AVE SE,DECATUR,AL,35601
997,1304 14TH AVE SE,DECATUR,AL,35601
998,2122A DANVILLE RD SW,DECATUR,AL,35601
999,2112 DANVILLE RD SW STE A,DECATUR,AL,35601
1000,2112 DANVILLE RD SW STE B,DECATUR,AL,35601
1001,1621 WOLVERINE DR SE,DECATUR,AL,35601
1002,1823 SOMERVILLE RD SE,DECATUR,AL,35601
1003,1815 SOMERVILLE RD SE,DECATUR,AL,35601
1004,105 HINE ST S,ATHENS,AL,35611
1005,4072 SULLIVAN ST STE A,MADISON,AL,35758
1006,2046 BELTLINE RD SW,DECATUR,AL,35601
1007,1318 STRATFORD RD SE,DECATUR,AL,35601
1008,2002 FLINT RD SE,DECATUR,AL,35601
1009,1401 STRATFORD RD SE,DECATUR,AL,35601
1010,1906 FLINT RD SE,DECATUR,AL,35601
1011,1906 FLINT RD SE.,DECATUR,AL,35601
1012,809 BELTLINE RD SW STE A,DECATUR,AL,35601
1013,2026 6TH AVE SE,DECATUR,AL,35601
1014,203 COMMERCE CIR SW STE B,DECATUR,AL,35601
1015,2691 SANDLIN RD SW STE C,DECATUR,AL,35601
1016,7278 HIGHWAY 72 W STE A,MADISON,AL,35758
1017,16090 US-72,ROGERSVILLE,AL,35652
1018,1815 SOMERVILLE RD SE STE A,DECATUR,AL,35601
1019,4001 BALMORAL DR SW,HUNTSVILLE,AL,35801
1020,2699 SANDLIN RD SW STE B7,DECATUR,AL,35601
1021,24 HUGHES RD,MADISON,AL,35758
1022,6727 HIGHWAY 431 S,OWENS CROSS ROADS,AL,35763
1023,2426 DANVILLE ROAD SW,DECATUR,AL,35603
1024,2424 DANVILLE ROAD SUITE O,DECATUR,AL,35603
1025,2012 DANVILLE PARK DR SW,DECATUR,AL,35603
1026,2014 DANVILLE PARK DR SW,DECATUR,AL,35603
1027,2023 DANVILLE PARK DR SW,DECATUR,AL,35603
1028,3231 FIELDSTONE DR SW,DECATUR,AL,35603
1029,2514 DANVILLE RD SW,DECATUR,AL,35603
1030,2422 DANVILLE RD SW STE B,DECATUR,AL,35603
1031,2506 DANVILLE RD SW,DECATUR,AL,35603
1032,2349 DANVILLE RD SW,DECATUR,AL,35603
1033,2426 DANVILLE RD SW,DECATUR,AL,35603
1034,466 HIGHWAY 67 S,DECATUR,AL,35603
1035,105 S HINE ST,ATHENS,AL,35611
1036,110 COLLEGE ST,ATHENS,AL,35611
1037,306 EAST HOBBS STREET,ATHENS,AL,35611
1038,110 COLLEGE ST.,ATHENS,AL,35611
1039,220 D FRENCH FARMS BLVD,ATHENS,AL,35611
1040,1323 US HIGHWAY 72 E,ATHENS,AL,35611
1041,200 E HOBBS ST,ATHENS,AL,35611
1042,609 E HOBBS ST,ATHENS,AL,35611
1043,607 E HOBBS ST,ATHENS,AL,35611
1044,107 S HINE ST,ATHENS,AL,35611
1045,107 HINE ST S,ATHENS,AL,35611
1046,102 S MALONE ST,ATHENS,AL,35611
1047,1005 W MARKET ST,ATHENS,AL,35611
1048,721 W MARKET ST,ATHENS,AL,35611
1049,721 W MARKET ST STE A,ATHENS,AL,35611
1050,102 S MALONE ST STE B,ATHENS,AL,35611
1051,220 FRENCH FARMS BLVD STE D,ATHENS,AL,35611
1052,310 W ELM ST,ATHENS,AL,35611
1053,601 MEDICAL CENTER PKWY,BOAZ,AL,35957
1054,32 HAMBRICK DRIVE,DOUGLAS,AL,35964
1055,921 AVALON AVE STE C,MUSCLE SHOALS,AL,35661
1056,22041 US HIGHWAY 72,ATHENS,AL,35613
1057,22051 HWY 72 EAST,ATHENS,AL,35613
1058,22051 US HIGHWAY 72,ATHENS,AL,35613
1059,22051 US HIGHWAY 72 STE F,ATHENS,AL,35613
1060,115 E 5TH ST,TUSCUMBIA,AL,35674
1061,1100 MERIDIAN ST N,HUNTSVILLE,AL,35801
1062,27453 CAPSHAW RD,ATHENS,AL,35613
1063,4208 EVA RD,EVA,AL,35621
1064,4208 EVA ROAD,EVA,AL,35621
1065,1947 FLORENCE BLVD,FLORENCE,AL,35630
1066,2138 HELTON DR,FLORENCE,AL,35630
1067,2801 W MALL DR,FLORENCE,AL,35630
1068,642 COX CREEK PARKWAY,FLORENCE,AL,35630
1069,401 NORTH CEDAR ST,FLORENCE,AL,35630
1070,405 N CEDAR ST,FLORENCE,AL,35630
1071,1829 DARBY DRIVE,FLORENCE,AL,35630
1072,2615 DARBY DR,FLORENCE,AL,35630
1073,154 TITAN DRIVE,FLORENCE,AL,35630
1074,721 COX CREEK PKWY,FLORENCE,AL,35630
1075,723 COX CREEK PKWY,FLORENCE,AL,35630
1076,2247 HELTON DR,FLORENCE,AL,35630
1077,2247 HELTON DRIVE,FLORENCE,AL,35630
1078,2461 HELTON DR,FLORENCE,AL,35630
1079,640 COX CREEK PKWY,FLORENCE,AL,35630
1080,642 COX CREEK PKWY,FLORENCE,AL,35630
1081,154 TITAN DR,FLORENCE,AL,35630
1082,2126 HELTON DR,FLORENCE,AL,35630
1083,1901 BRUIN DR,FLORENCE,AL,35630
1084,1903 BRUIN DR,FLORENCE,AL,35630
1085,2906 MALL DR,FLORENCE,AL,35630
1086,310 COX CREEK PKWY,FLORENCE,AL,35630
1087,1602 MOCKINGBIRD CT,FLORENCE,AL,35630
1088,162 ANA DR,FLORENCE,AL,35630
1089,334 W CLEVELAND AVE,FLORENCE,AL,35630
1090,1603 N WOOD AVE,FLORENCE,AL,35630
1091,1845 DARBY DR,FLORENCE,AL,35630
1092,1829 DARBY DR STE A,FLORENCE,AL,35630
1093,401 N CEDAR ST,FLORENCE,AL,35630
1094,220 W TENNESSEE ST,FLORENCE,AL,35630
1095,313 WEST COLLEGE ST,FLORENCE,AL,35630
1096,309 W COLLEGE ST,FLORENCE,AL,35630
1097,410 S PINE ST,FLORENCE,AL,35630
1098,301 WEST STATE AVE,MUSCLE SHOALS,AL,35661
1099,310 W DR HICKS BLVD,FLORENCE,AL,35630
1100,412 S CEDAR ST,FLORENCE,AL,35630
1101,422 S CEDAR ST,FLORENCE,AL,35630
1102,1906 BRUIN DR,FLORENCE,AL,35630
1103,1910 BRUIN DR,FLORENCE,AL,35630
1104,1916 BRUIN DR,FLORENCE,AL,35630
1105,1912 BRUIN DR,FLORENCE,AL,35630
1106,3500 CLOVERDALE RD,FLORENCE,AL,35633
1107,819 HIGHWAY 31 NW,HARTSELLE,AL,35640
1108,819 HWY 31 NW SUITE A,HARTSELLE,AL,35640
1109,819 HIGHWAY 31 N.W.,HARTSELLE,AL,35640
1110,602 MAIN ST W,HARTSELLE,AL,35640
1111,1511 HIGHWAY 31 SW,HARTSELLE,AL,35640
1112,1500 HIGHWAY 31 SW,HARTSELLE,AL,35640
1113,50 N MEDICAL DR,SALT LAKE CITY,UT,84132
1114,601 SPARKMAN ST SW,HARTSELLE,AL,35640
1115,1303 HIGHWAY 72,KILLEN,AL,35645
1116,150 J C MAULDIN HWY,KILLEN,AL,35645
1117,1301 HIGHWAY 72,KILLEN,AL,35645
1118,1367 HIGHWAY 72,KILLEN,AL,35645
1119,10106 HWY 64,LEXINGTON,AL,35648
1120,926 EAST STREET,MOULTON,AL,35650
1121,627 LAWRENCE ST,MOULTON,AL,35650
1122,16025 HWY 72,ROGERSVILLE,AL,35652
1123,16090 HIGHWAY 72,ROGERSVILLE,AL,35652
1124,510 ENGLE DR SE,RUSSELLVILLE,AL,35653
1125,15591 HWY 43,RUSSELLVILLE,AL,35653
1126,243 UNDERWOOD RD,RUSSELLVILLE,AL,35653
1127,531 SAINT CLAIR ST SE,RUSSELLVILLE,AL,35653
1128,398 ASHE BLVD,SHEFFIELD,AL,35660
1129,4012 HATCH BLVD,SHEFFIELD,AL,35660
1130,518 N NASHVILLE AVE,SHEFFIELD,AL,35660
1131,1100 SOUTH JACKSON HIGHWAY,SHEFFIELD,AL,35660
1132,301 W STATE ST,MUSCLE SHOALS,AL,35661
1133,1013 E AVALON AVENUE,MUSCLE SHOALS,AL,35661
1134,1708 FIRESTONE AVE,MUSCLE SHOALS,AL,35661
1135,1011 AVALON AVE,MUSCLE SHOALS,AL,35661
1136,1013 AVALON AVE,MUSCLE SHOALS,AL,35661
1137,1108 AVALON AVE,MUSCLE SHOALS,AL,35661
1138,1610 EDISON AVE,MUSCLE SHOALS,AL,35661
1139,121 E 5TH ST,TUSCUMBIA,AL,35674
1140,208 EAST FIFTH STREET,TUSCUMBIA,AL,35674
1141,121 E 6TH ST,TUSCUMBIA,AL,35674
1142,121 E. 6TH ST.,TUSCUMBIA,AL,35674
1143,114 EMMETT AYERS ROAD,GRANT,AL,35747
1144,114 EMMETT AYERS RD,GRANT,AL,35747
1145,5850 HIGHWAY 53,HARVEST,AL,35749
1146,14244 HIGHWAY 231/431 N,HAZEL GREEN,AL,35750
1147,13596 HIGHWAY 231 431 N,HAZEL GREEN,AL,35750
1148,14244 HIGHWAY 231 431 N,HAZEL GREEN,AL,35750
1149,4258 HIGHWAY 231,LACEYS SPRING,AL,35754
1150,12090 COUNTY LINE RD,MADISON,AL,35756
1151,15048 AL HIGHWAY 20,MADISON,AL,35756
1152,7561 WALL TRIANA HWY,MADISON,AL,35757
1153,12205 COUNTY LINE RD,MADISON,AL,35758
1154,7185 HIGHWAY 72 W STE C,MADISON,AL,35758
1155,581 HUGHES RD,MADISON,AL,35758
1156,7185 HIGHWAY 72 W,MADISON,AL,35758
1157,230 HUGHES RD,MADISON,AL,35758
1158,540 HUGHES RD,MADISON,AL,35758
1159,8263 MADISON BOULEVAURD,MADISON,AL,35758
1160,870 SLAUGHTER RD,MADISON,AL,35758
1161,810 PALMER PLAZA,MADISON,AL,35758
1162,10871 COUNTY LINE RD STE A,MADISON,AL,35758
1163,577 HUGHES RD,MADISON,AL,35758
1164,7666 HIGHWAY 72 W,MADISON,AL,35758
1165,119 ARLINGTON DRIVE,MADISON,AL,35758
1166,34 HUGHES ROAD,MADISON,AL,35758
1167,8097 MADISON BLVD,MADISON,AL,35758
1168,7898 MADISON PIKE,MADISON,AL,35758
1169,136 PLAZA BLVD,MADISON,AL,35758
1170,119 ARLINGTON DR,MADISON,AL,35758
1171,8263 MADISON BLVD STE A,MADISON,AL,35758
1172,875 UNION AVE,MEMPHIS,TN,38103
1173,44 HUGHES RD,MADISON,AL,35758
1174,20 HUGHES RD # 104,MADISON,AL,35758
1175,34 HUGHES RD,MADISON,AL,35758
1176,810 PALMER RD STE 103,MADISON,AL,35758
1177,4072 SULLIVAN ST,MADISON,AL,35758
1178,120 W DUBLIN DR,MADISON,AL,35758
1179,10871 COUNTY LINE RD,MADISON,AL,35758
1180,7950 HIGHWAY 72 W STE F,MADISON,AL,35758
1181,7185 HIGHWAY 72 W STE G,MADISON,AL,35758
1182,12205 COUNTY LINE RD STE A,MADISON,AL,35758
1183,115 RAINBOW DR,MADISON,AL,35758
1184,1041 BALCH RD,MADISON,AL,35758
1185,1920 SLAUGHTER RD,MADISON,AL,35758
1186,7559 HIGHWAY 72 W,MADISON,AL,35758
1187,7559 HIGHWAY 72 W STE 105A105B,MADISON,AL,35758
1188,7559C HIGHWAY 72 WEST,MADISON,AL,35758
1189,7771 HIGHWAY 72 W,MADISON,AL,35758
1190,7771 HIGHWAY 72 W STE B,MADISON,AL,35758
1191,7559 HIGHWAY 72 W STE 108,MADISON,AL,35758
1192,7559 HIGHWAY 72 W STE 105A,MADISON,AL,35758
1193,8263 MADISON BLVD,MADISON,AL,35758
1194,7564 HIGHWAY 72 W STE C,MADISON,AL,35758
1195,8371 HIGHWAY 72 W STE 208,MADISON,AL,35758
1196,8141 HIGHWAY 72 W,MADISON,AL,35758
1197,7690 HIGHWAY 72 W,MADISON,AL,35758
1198,7690 HIGHWAY 72 W STE 101,MADISON,AL,35758
1199,4004 BALMORAL DR SW STE B,HUNTSVILLE,AL,35801
1200,130 E JERICHO TPKE,MINEOLA,NY,11501
1201,11808 HIGHWAY 231 431 N,MERIDIANVILLE,AL,35759
1202,11808 HWY 231 431 N,MERIDIANVILLE,AL,35759
1203,5487 MAIN DR,NEW HOPE,AL,35760
1204,210 SUTTON RD SE,OWENS CROSS ROADS,AL,35763
1205,6838 HIGHWAY 431 S STE B,OWENS CROSS ROADS,AL,35763
1206,184 OLD HWY 431,HAMPTON COVE,AL,35763
1207,6388B HIGHWAY 431 S,OWENS CROSS ROADS,AL,35763
1208,184 OLD HIGHWAY 431,HAMPTON COVE,AL,35763
1209,110 WOODSIDE DR SE,OWENS CROSS ROADS,AL,35763
1210,11093 ALABAMA HWY 71,PISGAH,AL,35765
1211,11093 AL HIGHWAY 71,PISGAH,AL,35765
1212,420 S MARKET ST,SCOTTSBORO,AL,35768
1213,416 E LAUREL ST,SCOTTSBORO,AL,35768
1214,416 E LAUREL,SCOTTSBORO,AL,35768
1215,921 SOUTH BROAD ST,SCOTTSBORO,AL,35768
1216,313 PARKS AVE,SCOTTSBORO,AL,35768
1217,313 PARKS AVENUE,SCOTTSBORO,AL,35768
1218,412 E WILLOW ST,SCOTTSBORO,AL,35768
1219,114 E WILLOW ST,SCOTTSBORO,AL,35768
1220,416 PARKS AVE,SCOTTSBORO,AL,35768
1221,921 S BROAD ST,SCOTTSBORO,AL,35768
1222,1005 S BROAD ST,SCOTTSBORO,AL,35768
1223,23730 JOHN T REID PKWY,SCOTTSBORO,AL,35768
1224,23730 JOHN T REID PKWY STE B,SCOTTSBORO,AL,35768
1225,85 CHURCH AVE,RAINSVILLE,AL,35986
1226,311 PARKS AVE,SCOTTSBORO,AL,35768
1227,289 MAIN ST SOUTH,SECTION,AL,35771
1228,105 ADAMS STREET,STEVENSON,AL,35772
1229,105 ADAMS ST,STEVENSON,AL,35772
1230,111 SHANNON DRIVE,STEVENSON,AL,35772
1231,43200 US HIGHWAY 72,STEVENSON,AL,35772
1232,8208 ALABAMA 53,TONEY,AL,35773
1233,200 BOB WALLACE AVE SW,HUNTSVILLE,AL,35801
1234,807 REGAL DR SW,HUNTSVILLE,AL,35801
1235,1101 EAGLETREE LN SW,HUNTSVILLE,AL,35801
1236,2337 PANSY ST SW,HUNTSVILLE,AL,35801
1237,1105 GLENEAGLES DR SW,HUNTSVILLE,AL,35801
1238,810 SHONEY DR SW,HUNTSVILLE,AL,35801
1239,2331 PANSY ST SW,HUNTSVILLE,AL,35801
1240,2305 WHITESBURG DR SE,HUNTSVILLE,AL,35801
1241,4240 BALMORAL DR SW STE 200,HUNTSVILLE,AL,35801
1242,2321 WHITESBURG DR SE,HUNTSVILLE,AL,35801
1243,2333 PANSY STREET,HUNTSVILLE,AL,35801
1244,915 BOB WALLACE AVENUE,HUNTSVILLE,AL,35801
1245,2353 WHITESBURG DRIVE,HUNTSVILLE,AL,35801
1246,1807 UNIVERSITY DR,HUNTSVILLE,AL,35801
1247,2006 FRANKLIN ST SUITE 209,HUNTSVILLE,AL,35801
1248,2410 L AND N DRIVE,HUNTSVILLE,AL,35801
1249,2305 STARMOUNT CIRCLE SW,HUNTSVILLE,AL,35801
1250,4004 BALMORAL DRIVE,HUNTSVILLE,AL,35801
1251,1140 EAGLE TREE LANE SW,HUNTSVILLE,AL,35801
1252,4032 BALMORAL DR SW,HUNTSVILLE,AL,35801
1253,107 MARSHEUTZ AVE,HUNTSVILLE,AL,35801
1254,2410 L&N DRIVE,HUNTSVILLE,AL,35801
1255,822 FRANKLIN STREET,HUNTSVILLE,AL,35801
1256,401 LOWELL DR SE,HUNTSVILLE,AL,35801
1257,2334 WHITESBURG DR,HUNTSVILLE,AL,35801
1258,500 WHITESPORT DR SW,HUNTSVILLE,AL,35801
1259,910 ADAMS ST SE,HUNTSVILLE,AL,35801
1260,910 ADAMS ST SE STE 215,HUNTSVILLE,AL,35801
1261,2342B BRANDON ST SW,HUNTSVILLE,AL,35801
1262,2314 PANSY ST SW,HUNTSVILLE,AL,35801
1263,2338 PANSY ST SW,HUNTSVILLE,AL,35801
1264,108 CENTRAL AVE SE,HUNTSVILLE,AL,35801
1265,2304 STARMOUNT CIR SW,HUNTSVILLE,AL,35801
1266,2306 STARMOUNT CIR SW,HUNTSVILLE,AL,35801
1267,2307 STARMOUNT CIR SW,HUNTSVILLE,AL,35801
1268,2315 STARMOUNT CIR SW,HUNTSVILLE,AL,35801
1269,2213 STARMOUNT CIR.,HUNTSVILLE,AL,35801
1270,2303 STARMOUNT CIR SW,HUNTSVILLE,AL,35801
1271,2313 STARMOUNT CIR SW,HUNTSVILLE,AL,35801
1272,2317 WHITESBURG DR S,HUNTSVILLE,AL,35801
1273,2305 WHITESBURG DR S,HUNTSVILLE,AL,35801
1274,2321 WHITESBURG DR S,HUNTSVILLE,AL,35801
1275,2323 WHITESBURG DR S,HUNTSVILLE,AL,35801
1276,2319 WHITESBURG DR S,HUNTSVILLE,AL,35801
1277,114 BOB WALLACE AVE SW,HUNTSVILLE,AL,35801
1278,2333 PANSY ST SW,HUNTSVILLE,AL,35801
1279,2334 WHITESBURG DR S,HUNTSVILLE,AL,35801
1280,2341 WHITESBURG DR S,HUNTSVILLE,AL,35801
1281,2310 WHITESBURG DR S,HUNTSVILLE,AL,35801
1282,411 HOLMES AVE NE,HUNTSVILLE,AL,35801
1283,301 WILLIAMS AVE SE,HUNTSVILLE,AL,35801
1284,204 LOWE AVE SE,HUNTSVILLE,AL,35801
1285,822 FRANKLIN ST SE,HUNTSVILLE,AL,35801
1286,107 MARSHEUTZ AVE SW,HUNTSVILLE,AL,35801
1287,2006 FRANKLIN ST SE,HUNTSVILLE,AL,35801
1288,1110 MERIDIAN ST N,HUNTSVILLE,AL,35801
1289,600 SAINT CLAIR AVE SW,HUNTSVILLE,AL,35801
1290,602 DAVIS CIR SW,HUNTSVILLE,AL,35801
1291,606 DAVIS CIR SW,HUNTSVILLE,AL,35801
1292,604 DAVIS CIR SW,HUNTSVILLE,AL,35801
1293,2410 L AND N DR SW,HUNTSVILLE,AL,35801
1294,303 WILLIAMS AVE SW STE 1331,HUNTSVILLE,AL,35801
1295,4000 BALMORAL DR SW,HUNTSVILLE,AL,35801
1296,4004 BALMORAL DR SW,HUNTSVILLE,AL,35801
1297,4004B BALMORAL DR SW,HUNTSVILLE,AL,35801
1298,4031 BALMORAL DR SW,HUNTSVILLE,AL,35801
1299,1108 GLENEAGLES DR SW,HUNTSVILLE,AL,35801
1300,1101 GLENEAGLES DR SW,HUNTSVILLE,AL,35801
1301,1111 GLENEAGLES DR,HUNTSVILLE,AL,35801
1302,401 BALMORAL DR,HUNTSVILLE,AL,35801
1303,4101 BALMORAL DR SW,HUNTSVILLE,AL,35801
1304,4038 BALMORAL DR SW,HUNTSVILLE,AL,35801
1305,4240 BALMORAL DR SW,HUNTSVILLE,AL,35801
1306,4245 BALMORAL DR SW,HUNTSVILLE,AL,35801
1307,1140 EAGLETREE LN SE,HUNTSVILLE,AL,35801
1308,1105 EAGLETREE LN SE,HUNTSVILLE,AL,35801
1309,1101 EAGLETREE LN SE,HUNTSVILLE,AL,35801
1310,915 BOB WALLACE AVE SW,HUNTSVILLE,AL,35801
1311,925 BOB WALLACE AVE SW STE 30,HUNTSVILLE,AL,35801
1312,2801 MEMORIAL PKWY SW,HUNTSVILLE,AL,35801
1313,1111 GLENEAGLES DR SW,HUNTSVILLE,AL,35801
1314,1111 GLENEAGLES DR SW STE A,HUNTSVILLE,AL,35801
1315,4000 BALMORAL DR SW STE 201,HUNTSVILLE,AL,35801
1316,4000 BALMORAL DR SW STE 202,HUNTSVILLE,AL,35801
1317,400 E DIAMOND AVE,EVANSVILLE,IN,47711
1318,8315 WHITESBURG DR SE,HUNTSVILLE,AL,35802
1319,112 LILY FLAGG RD SW STE B,HUNTSVILLE,AL,35802
1320,112 LILY FLAGG RD SW STE A,HUNTSVILLE,AL,35802
1321,600 ARIPORT ROAD SW,HUNTSVILLE,AL,35802
1322,4601 WHITESBURG DRIVE,HUNTSVILLE,AL,35802
1323,580 AIRPORT RD SW,HUNTSVILLE,AL,35802
1324,600 AIRPORT RD,HUNTSVILLE,AL,35802
1325,600 AIRPORT RD SW,HUNTSVILLE,AL,35802
1326,4601 WHITESBURG DR SE,HUNTSVILLE,AL,35802
1327,4605 BELLEWOOD CIR,HUNTSVILLE,AL,35802
1328,7540 MEMORIAL PKWY SW,HUNTSVILLE,AL,35802
1329,513 FOUR MILE POST RD SE,HUNTSVILLE,AL,35802
1330,2045 CECIL ASHBURN DR SE,HUNTSVILLE,AL,35802
1331,2045 CECIL ASHBURN DR SE STE 203,HUNTSVILLE,AL,35802
1332,2124 CECIL ASHBURN DR SE,HUNTSVILLE,AL,35802
1333,2124 CECIL ASHBURN DR SE STE 130,HUNTSVILLE,AL,35802
1334,7605B BAILEY COVE RD SE,HUNTSVILLE,AL,35802
1335,8315 WHITESBURG DR S,HUNTSVILLE,AL,35802
1336,112 LILY FLAGG RD SW,HUNTSVILLE,AL,35802
1337,116 LILY FLAGG RD SW,HUNTSVILLE,AL,35802
1338,7900 BAILEY COVE RD SE STE 6,HUNTSVILLE,AL,35802
1339,8501 HICKORY HILL LN SE,HUNTSVILLE,AL,35802
1340,8004 CHARLOTTE DR SW,HUNTSVILLE,AL,35802
1341,10300 BAILEY COVE RD SE,HUNTSVILLE,AL,35803
1342,1403 WEATHERLY PLZ SE,HUNTSVILLE,AL,35803
1343,213 GREEN COVE RD SE,HUNTSVILLE,AL,35803
1344,11513 S MEMORIAL PKWY,HUNTSVILLE,AL,35803
1345,2227 DRAKE AVE SW,HUNTSVILLE,AL,35805
1346,1658 OLD MONROVIA RD,HUNTVILLE,AL,35806
1347,1410 PARAMOUNT DR STE A,HUNTSVILLE,AL,35806
1348,100 PROVIDENCE MAIN ST STE C,HUNTSVILLE,AL,35806
1349,1410 PARAMOUNT DR,HUNTSVILLE,AL,35806
1350,6870 RESEARCH PARK BLVD NW,HUNTSVILLE,AL,35806
1351,6275 UNIVERSITY DR NW # 37-127,HUNTSVILLE,AL,35806
1352,1005 DR D B TODD BLVD,NASHVILLE,TN,37208
1353,7224 GOVERNORS DR NW,HUNTSVILLE,AL,35806
1354,7736 MADISON BLVD,HUNTSVILLE,AL,35806
1355,7736 HIGHWAY 20 W,HUNTSVILLE,AL,35806
1356,1047 JEFF RD NW,HUNTSVILLE,AL,35806
1357,111 PARK PLACE DR,HUNTSVILLE,AL,35806
1358,111 PARK PLACE DR STE F,HUNTSVILLE,AL,35806
1359,475 PROVIDENCE MAIN ST NW,HUNTSVILLE,AL,35806
1360,100 PROVIDENCE MAIN ST NW STE C,HUNTSVILLE,AL,35806
1361,100 PROVIDENCE MAIN ST NW,HUNTSVILLE,AL,35806
1362,8 BATTERY ST,HUNTSVILLE,AL,35806
1363,2510 PULASKI PIKE NW,HUNTSVILLE,AL,35810
1364,4985 SPARKMAN DR NW,HUNTSVILLE,AL,35810
1365,2585 SPARKMAN DR,HUNTSVILLE,AL,35810
1366,5045 NORTH MEMORIAL PARKWAY,HUNSTVILLE,AL,35810
1367,5045 N MEMORIAL PKWY,HUNTSVILLE,AL,35810
1368,5045 MEMORIAL PKWY NW,HUNTSVILLE,AL,35810
1369,3700 BLUE SPRING RD NW STE F,HUNTSVILLE,AL,35810
1370,1523 S HIGHLAND AVE,JACKSON,TN,38301
1371,2500 N STATE ST,JACKSON,MS,39216
1372,3700 BLUE SPRING RD NW,HUNTSVILLE,AL,35810
1373,2585 SPARKMAN DR NW,HUNTSVILLE,AL,35810
1374,4815 SPARKMAN DR NW,HUNTSVILLE,AL,35810
1375,2246 WINCHESTER RD NE,HUNTSVILLE,AL,35811
1376,1392 JORDAN ROAD STE A,HUNTSVILLE,AL,35811
1377,3112 MERIDIAN ST N,HUNTSVILLE,AL,35811
1378,2246 WINCHESTER RD NE STE 106,HUNTSVILLE,AL,35811
1379,1812 WINCHESTER RD NE STE D,HUNTSVILLE,AL,35811
1380,1392 JORDAN RD,HUNTSVILLE,AL,35811
1381,5404 PRESTON RD,FRISCO,TX,75034
1382,4710 UNIVERSITY DR NW STE L,HUNTSVILLE,AL,35816
1383,1717 PULASKI PIKE NW,HUNTSVILLE,AL,35816
1384,4925 UNIVERSITY DR NW,HUNTSVILLE,AL,35816
1385,4530 BONNELL DR NW,HUNTSVILLE,AL,35816
1386,1616 PULASKI PIKE NW,HUNTSVILLE,AL,35816
1387,1636 PULASKI PIKE NW STE B,HUNTSVILLE,AL,35816
1388,751 PLEASANT ROW NW,HUNTSVILLE,AL,35816
1389,2288 ZIERDT RD,HUNTSVILLE,AL,35824
1390,104 CHERRY ST,GADSDEN,AL,35901
1391,320 S 3RD ST,GADSDEN,AL,35901
1392,315 S 4TH ST,GADSDEN,AL,35901
1393,412 S 2ND ST,GADSDEN,AL,35901
1394,315 N 3RD ST,GADSDEN,AL,35901
1395,1415 RAINBOW DR,GADSDEN,AL,35901
1396,513 S. 3RD STREET,GADSDEN,AL,35901
1397,315 NTH 3RD STREET,GADSDEN,AL,35901
1398,427 SOUTH 4TH STREET,GADSDEN,AL,35901
1399,412 SOUTH 2ND STREET,GADSDEN,AL,35901
1400,415 SOUTH 4TH STREET,GADSDEN,AL,35901
1401,513 S 3RD STREET,GADSDEN,AL,35901
1402,948 FORREST AVE,GADSDEN,AL,35901
1403,522 WALNUT STREET,GADSDEN,AL,35901
1404,819 RIVERBEND DR,GADSDEN,AL,35901
1405,819 RIVERBEND DR.,GADSDEN,AL,35901
1406,813 RIVERBEND DRIVE,GADSDEN,AL,35901
1407,819 RIVER BEND DR STE A,GADSDEN,AL,35901
1408,817 A RIVERBEND DRIVE,GADSDEN,AL,35901
1409,819 RIVERBEND DR STE A,GADSDEN,AL,35901
1410,938 FORREST AVE,GADSDEN,AL,35901
1411,241 S 4TH ST,GADSDEN,AL,35901
1412,313 S 5TH ST,GADSDEN,AL,35901
1413,311 S 5TH ST,GADSDEN,AL,35901
1414,405 S 5TH ST,GADSDEN,AL,35901
1415,407 S 2ND ST,GADSDEN,AL,35901
1416,427 S 4TH ST,GADSDEN,AL,35901
1417,427 S 4TH ST STE B,GADSDEN,AL,35901
1418,513 S 3RD ST,GADSDEN,AL,35901
1419,1163 SEAY AVE,BOAZ,AL,35957
1420,1907 RAINBOW DR,GADSDEN,AL,35901
1421,1954 RAINBOW DR,GADSDEN,AL,35901
1422,116 MERIT CIR,GADSDEN,AL,35901
1423,910 GOODYEAR AVE,GADSDEN,AL,35903
1424,100 MEDICAL CENTER DR,GADSDEN,AL,35903
1425,508 E MEIGHAN BLVD,GADSDEN,AL,35903
1426,927 RALEY ST,GADSDEN,AL,35903
1427,1411 PIEDMONT CUTOFF,GADSDEN,AL,35903
1428,3879 US HIGHWAY 278 E,GADSDEN,AL,35903
1429,103 MAIN ST E,GLENCOE,AL,35905
1430,2729 RAINBOW DR,RAINBOW CITY,AL,35906
1431,112 W GRAND AVE,RAINBOW CITY,AL,35906
1432,180 INDEPENDENT DR,RAINBOW CITY,AL,35906
1433,3228 RAINBOW DR,RAINBOW CITY,AL,35906
1434,3343 RAINBOW DR,RAINBOW CITY,AL,35906
1435,1750 BABE JACKSON DR,RAINBOW CITY,AL,35906
1436,1745 HIGHWAY 77,SOUTHSIDE,AL,35907
1437,215 S BROAD ST,ALBERTVILLE,AL,35950
1438,100 A ANDREW STREET,ALBERTVILLE,AL,35950
1439,215 S BROAD STREET,ALBERTVILLE,AL,35950
1440,100 ANDREW STREET,ALBERTVILLE,AL,35950
1441,8835 US HIGHWAY 431,ALBERTVILLE,AL,35950
1442,3487 US HIGHWAY 431,ALBERTVILLE,AL,35950
1443,100 ANDREW ST STE A,ALBERTVILLE,AL,35950
1444,100 ANDREW ST,ALBERTVILLE,AL,35950
1445,200 EAST SAND MOUNTAIN DRIVE,ALBERTVILLE,AL,35950
1446,65 WALL ST,ALBERTVILLE,AL,35951
1447,101 BUSINESS PARK DR,ALBERTVILLE,AL,35951
1448,416 MARTLING ROAD,ALBERTVILLE,AL,35951
1449,416 MARTLING RD,ALBERTVILLE,AL,35951
1450,88223 US HWY 278,SNEAD,AL,35952
1451,279 5TH AVE,ASHVILLE,AL,35953
1452,125 MEDICAL CIRCLE,ASHVILLE,AL,35953
1453,404 4TH ST NW,ATTALLA,AL,35954
1454,940 GILBERT FERRY RD SE,ATTALLA,AL,35954
1455,701 MEDICAL CENTER PKWY,BOAZ,AL,35957
1456,201 N MAIN ST,BOAZ,AL,35957
1457,201 N MAIN ST STE J,BOAZ,AL,35957
1458,222 S MAIN ST,BOAZ,AL,35957
1459,603B MEDICAL CENTER PKWY,BOAZ,AL,35957
1460,1230 W MAIN ST,CENTRE,AL,35960
1461,1509 W MAIN ST,CENTRE,AL,35960
1462,1780 W MAIN ST,CENTRE,AL,35960
1463,2101 GRAND AVE NW,FORT PAYNE,AL,35967
1464,302 4TH ST SW,FORT PAYNE,AL,35967
1465,302 4TH ST SW,FT. PAYNE,AL,35967
1466,405 ALABAMA AVE NW,FORT PAYNE,AL,35967
1467,2105 GRAND AVE NW,FORT PAYNE,AL,35967
1468,110 23RD ST NW,FORT PAYNE,AL,35967
1469,1201 BRIARWOOD AVE SW,FORT PAYNE,AL,35967
1470,2110 GLENN BLVD SW,FORT PAYNE,AL,35968
1471,1516 MAIN ST,FYFFE,AL,35971
1472,41832 AL HIGHWAY 75,GERALDINE,AL,35974
1473,819 GUNTER AVE,GUNTERSVILLE,AL,35976
1474,12062 AL HIGHWAY 227,GERALDINE,AL,35974
1475,2100 GUNTER AVE,GUNTERSVILLE,AL,35976
1476,1621 BLOUNT AVE,GUNTERSVILLE,AL,35976
1477,256 BLOUNT AVE,GUNTERSVILLE,AL,35976
1478,312 GUNTER AVE,GUNTERSVILLE,AL,35976
1479,1724 GUNTER AVE,GUNTERSVILLE,AL,35976
1480,1606 BLOUNT AVE,GUNTERSVILLE,AL,35976
1481,1500 GUNTER AVE,GUNTERSVILLE,AL,35976
1482,1939 PATTERSON ST STE 103,GUNTERSVILLE,AL,35976
1483,11521 US HIGHWAY 431 STE V,GUNTERSVILLE,AL,35976
1484,3123 W 23RD ST,PANAMA CITY,FL,32405
1485,11460 US HIGHWAY 431,GUNTERSVILLE,AL,35976
1486,4233 LAKECREST DR,GUNTERSVILLE,AL,35976
1487,18358 ALABAMA HIGHWAY 75,HENAGAR,AL,35978
1488,18358 ALABAMA HWY 75,HENAGAR,AL,35978
1489,215C INDUSTRIAL BLVD,LEESBURG,AL,35983
1490,103 CHURCH AVENUE,RAINSVILLE,AL,35986
1491,89 CHURCH AVE,RAINSVILLE,AL,35986
1492,569 MCCURDY AVE N,RAINSVILLE,AL,35986
1493,20 BARTLETT AVE,RAINSVILLE,AL,35986
1494,371 MCCURDY AVE S,RAINSVILLE,AL,35986
1495,175 N MIDWAY ST,CLAYTON,AL,36016
1496,379 HIGHWAY 239,CLAYTON,AL,36016
1497,585 CLAUD RD,ECLECTIC,AL,36024
1498,2690 MARION SPILLWAY ROAD,ELMORE,AL,36025
1499,150 N ORANGE AVE,EUFAULA,AL,36027
1500,130 N RANDOLPH AVE,EUFAULA,AL,36027
1501,623 E BROAD ST,EUFAULA,AL,36027
1502,131 E BROAD ST,EUFAULA,AL,36027
1503,1324 S EUFAULA AVE,EUFAULA,AL,36027
1504,119 OLD FORT ROAD,FORT DEPOSIT,AL,36032
1505,402 E COMMERCE STREET,GREENVILLE,AL,36037
1506,106 CEDAR ST.,GREENVILLE,AL,36037
1507,106 FORT DALE,GREENVILLE,AL,36037
1508,106 FORT DALE ESTS,GREENVILLE,AL,36037
1509,100 N PINE ST,GREENVILLE,AL,36037
1510,106 FORT DALE ST,GREENVILLE,AL,36037
1511,126 ACADEMY DR,GREENVILLE,AL,36037
1512,137 INTERSTATE DR,GREENVILLE,AL,36037
1513,1666 S FOREST AVE,LUVERNE,AL,36049
1514,79 S GLENWOOD AVE,LUVERNE,AL,36049
1515,720 MONUMENT DRIVE,MILLBROOK,AL,36054
1516,4210 ALABAMA HIGHWAY,MILLBROOK,AL,36054
1517,720 MONUMENT DR,MILLBROOK,AL,36054
1518,3095 HIGHWAY 14,MILLBROOK,AL,36054
1519,4771 MAIN ST,MILLBROOK,AL,36054
1520,11123 CHANTILLY PKWY CT,PIKE ROAD,AL,36064
1521,31 BRIDGE ST,PIKE ROAD,AL,36064
1522,454 MCQUEEN SMITH RD S,PRATTVILLE,AL,36066
1523,474 MCQUEEN SMITH RD S,PRATTVILLE,AL,36066
1524,711 KORNEGAY DRIVE,PRATTVILLE,AL,36066
1525,597 SOUTH MEMORIAL DRIVE,PRATTVILLE,AL,36066
1526,1831 GLYNWOOD DRIVE,PRATTVILLE,AL,36066
1527,2489 COBBS FORD ROAD,PRATTVILLE,AL,36066
1528,548 MCQUEEN SMITH RD N,PRATTVILLE,AL,36066
1529,542 MCQUEEN SMITH RD N,PRATTVILLE,AL,36066
1530,1783 E MAIN ST,PRATTVILLE,AL,36066
1531,1831 GLYNWOOD DR,PRATTVILLE,AL,36066
1532,3150 ZELDA CT,MONTGOMERY,AL,36106
1533,1803 STATION DRIVE,PRATTVILLE,AL,36066
1534,1101 E MAIN ST,PRATTVILLE,AL,36066
1535,1803 STATION DR,PRATTVILLE,AL,36066
1536,2481 PINNACLE WAY,PRATTVILLE,AL,36066
1537,701 MCQUEEN SMITH RD S,PRATTVILLE,AL,36066
1538,660 MCQUEEN SMITH RD N,PRATTVILLE,AL,36066
1539,711 KORNEGAY DR,PRATTVILLE,AL,36066
1540,2580 COBBS FORD RD,PRATTVILLE,AL,36066
1541,2489 COBBS FORD RD,PRATTVILLE,AL,36066
1542,1851 MACGREGOR DOWNS RD,GREENVILLE,NC,27834
1543,10529 CRESTWOOD DR,MANASSAS,VA,20109
1544,1934 CHANCELLOR RIDGE RD,PRATTVILLE,AL,36066
1545,113 E MAIN,PRATTVILLE,AL,36067
1546,268 1ST ST.,PRATTVILLE,AL,36067
1547,141 N CHESTNUT ST,PRATTVILLE,AL,36067
1548,597 S MEMORIAL DR,PRATTVILLE,AL,36067
1549,745 DAVIS ST,PRATTVILLE,AL,36067
1550,1608 GILMER AVE,TALLASSEE,AL,36078
1551,1608B GILMER AVENUE,TALLASSEE,AL,36078
1552,1 S DUBOIS ST,TALLASSEE,AL,36078
1553,1619 GILMER AVE,TALLASSEE,AL,36078
1554,98 OAK PARK DR,TROY,AL,36079
1555,448 ELBA HWY,TROY,AL,36079
1556,705 GEORGE WALLACE DR,TROY,AL,36081
1557,101 HUNTERS MOUNTAIN PARKWAY,TROY,AL,36081
1558,448 ELBA HIGHWAY,TROY,AL,36081
1559,603 N 3 NOTCH ST,TROY,AL,36081
1560,1300 HIGHWAY 231 S,TROY,AL,36081
1561,815 S BRUNDIDGE ST,TROY,AL,36081
1562,403 E ELM ST,TROY,AL,36081
1563,302 N ELM ST,TUSKEGEE,AL,36083
1564,401 E MARTIN LUTHER KING HWY,TUSKEGEE,AL,36083
1565,2400 HOSPITAL RD,TUSKEGEE,AL,36083
1566,1201 NOTASULGA ROAD,TUSKEGEE,AL,36083
1567,1904B HAGGINS STREET,TUSKEGEE INSTITUTE,AL,36088
1568,113 CONECUH AVE W,UNION SPRINGS,AL,36089
1569,206 CONECUH AVE E,UNION SPRINGS,AL,36089
1570,301 PRAIRIE ST N,UNION SPRINGS,AL,36089
1571,4045 HWY 231,WETUMPKA,AL,36093
1572,4045 US HIGHWAY 231,WETUMPKA,AL,36093
1573,25 CAMBRIDGE DR,WETUMPKA,AL,36093
1574,150 S PERRY ST,MONTGOMERY,AL,36104
1575,1000 ADAMS AVE,MONTGOMERY,AL,36104
1576,602 S LAWRENCE ST,MONTGOMERY,AL,36104
1577,1710 NORMAN BRIDGE RD,MONTGOMERY,AL,36104
1578,4146 CARMICHAEL RD STE A,MONTGOMERY,AL,36106
1579,1554 E TRINITY BLVD,MONTGOMERY,AL,36106
1580,4730 WOODMERE BLVD,MONTGOMERY,AL,36106
1581,4224 CARMICHAEL ROAD,MONTGOMERY,AL,36106
1582,4130 CARMICHAEL ROAD,MONTGOMERY,AL,36106
1583,1565 A EAST TRINITY BLVD,MONTGOMERY,AL,36106
1584,2415 CENTRAL PARKWAY,MONTGOMERY,AL,36106
1585,4590 WOODMERE BLVD,MONTGOMERY,AL,36106
1586,110 BERGEN ST RM B854,NEWARK,NJ,07103
1587,12018 CHENAL PKWY,LITTLE ROCK,AR,72211
1588,10809 EXECUTIVE CENTER DR STE 100,LITTLE ROCK,AR,72211
1589,4270 CARMICHAEL ROAD,MONTGOMERY,AL,36106
1590,1220 CARMICHAEL WAY,MONTGOMERY,AL,36106
1591,3150 ZELDA COURT,MONTGOMERY,AL,36106
1592,1551 EAST TRINITY BLVD,MONTGOMERY,AL,36106
1593,2895 ZELDA RD,MONTGOMERY,AL,36106
1594,2897 ZELDA RD,MONTGOMERY,AL,36106
1595,4270 CARMICHAEL RD,MONTGOMERY,AL,36106
1596,1550 E TRINITY BLVD,MONTGOMERY,AL,36106
1597,1401 I 85 PARKWAY,MONTGOMERY,AL,36106
1598,1401 I85 PKWY STE D,MONTGOMERY,AL,36106
1599,4635 WOODMERE BLVD,MONTGOMERY,AL,36106
1600,4275 LOMAC ST,MONTGOMERY,AL,36106
1601,4724 WOODMERE BLVD,MONTGOMERY,AL,36106
1602,4790 WOODMERE BLVD,MONTGOMERY,AL,36106
1603,4740 WOODMERE BLVD,MONTGOMERY,AL,36106
1604,655 SOUTH 7TH STREET BLDG 700/700-A,ROBINS AFB,GA,31098
1605,1601 CALIFORNIA AVE,JOINT BASE ANDREWS,MD,20762
1606,4736 BERRY BLVD,MONTGOMERY,AL,36106
1607,2415 CENTRAL PKWY,MONTGOMERY,AL,36106
1608,4164 CARMICHAEL RD,MONTGOMERY,AL,36106
1609,4282 LOMAC ST,MONTGOMERY,AL,36106
1610,4162 LOMAC ST,MONTGOMERY,AL,36106
1611,1556 E TRINITY BLVD,MONTGOMERY,AL,36106
1612,4001 CARMICHAEL RD,MONTGOMERY,AL,36106
1613,4146 CARMICHAEL RD,MONTGOMERY,AL,36106
1614,4130 CARMICHAEL RD,MONTGOMERY,AL,36106
1615,1344 CARMICHAEL WAY,MONTGOMERY,AL,36106
1616,1555 E TRINITY BLVD,MONTGOMERY,AL,36106
1617,1551 E TRINITY BLVD,MONTGOMERY,AL,36106
1618,1845 CHERRY ST,MONTGOMERY,AL,36107
1619,3060 MOBILE HIGHWAY,MONTGOMERY,AL,36108
1620,2828 W EDGEMONT AVE,MONTGOMERY,AL,36108
1621,3060 MOBILE HWY,MONTGOMERY,AL,36108
1622,4421 ATLANTA HWY,MONTGOMERY,AL,36109
1623,125 COLISEUM BLVD,MONTGOMERY,AL,36109
1624,4711 ATLANTA HWY,MONTGOMERY,AL,36109
1625,215 PERRY HILL RD,MONTGOMERY,AL,36109
1626,3845 INTERSTATE CT STE 2,MONTGOMERY,AL,36109
1627,3845 INTERSTATE CT,MONTGOMERY,AL,36109
1628,3052 MCGEHEE RD,MONTGOMERY,AL,36111
1629,524 E EDGEMONT AVE,MONTGOMERY,AL,36111
1630,3439 MCGEHEE RD STE B,MONTGOMERY,AL,36111
1631,3439 MCGEHEE RD,MONTGOMERY,AL,36111
1632,3439 MCGEHEE RD STE 22,MONTGOMERY,AL,36111
1633,3439 MCGEHEE RD STE 22B,MONTGOMERY,AL,36111
1634,2227 WORLEY DR,ALEXANDRIA,LA,71302
1635,42 ADOS/SGGN,MAXWELL AFB,AL,36112
1636,300 S TWINING ST,MAXWELL AFB,AL,36112
1637,300 SOUTH TWINING ST. BLDG 760,MONTGOMERY,AL,36112
1638,300 TWINING ST BLDG 760,MONTGOMERY,AL,36112
1639,"300 S. TWINING STREET, BLDG 760",MAXWELL AFB,AL,36112
1640,42D MEDICAL GROUP,MAXWELL AFB,AL,36112
1641,UNIT 3690,APO,AE,09126
1642,42ND MEDICAL GROUP,MAXWELL AFB,AL,36112
1643,300 S. TWINING ST,MAXWELL AFB,AL,36112
1644,6713 TAYLOR CIR,MONTGOMERY,AL,36117
1645,300 TWINING ST BLDG 760,MAXWELL AFB,AL,36112
1646,7321 BALMER ST BLDG 570,HILL AFB,UT,84056
1647,2133 PEPPERRELL ST,LACKLAND A F B,TX,78236
1648,300 S TWINING STREET,MAXWELL AFB,AL,36112
1649,2441 21 ST.,FORT CAMPBELL,KY,42223
1650,18TH MEDICAL GROUP,APO,AP,96368
1651,1304 BEECH ST,MONTGOMERY,AL,36113
1652,8161 SEATON PL STE A,MONTGOMERY,AL,36116
1653,7022 VAUGHN RD,MONTGOMERY,AL,36116
1654,755 E SOUTH BLVD,MONTGOMERY,AL,36116
1655,901B EAST SOUTH BOULEVARD,MONTGOMERY,AL,36116
1656,8161 SEATON PLACE,MONTGOMERY,AL,36116
1657,2920 MARTI LANE,MONTGOMERY,AL,36116
1658,755 EAST SOUTH BOULEVARD,MONTGOMERY,AL,36116
1659,6956 VAUGHN RD,MONTGOMERY,AL,36116
1660,6910 VAUGHN ROAD,MONTGOMERY,AL,36116
1661,3525 YOUNG MEADOWS RD,MONTGOMERY,AL,36116
1662,5011 BUSINESS PARK DR,MONTGOMERY,AL,36116
1663,3084 WOODLEY RD,MONTGOMERY,AL,36116
1664,8101 SEATON PL.,MONTGOMERY,AL,36116
1665,8101 SEATON PL,MONTGOMERY,AL,36116
1666,2642 BELL RD,MONTGOMERY,AL,36117
1667,6905 ATLANTA HWY,MONTGOMERY,AL,36117
1668,5740 CARMICHAEL RD,MONTGOMERY,AL,36117
1669,210 WINTON M BLOUNT LOOP,MONTGOMERY,AL,36117
1670,265 WINTON BLOUNT LOOP,MONTGOMERY,AL,36117
1671,5833 CARMICHAEL RD,MONTGOMERY,AL,36117
1672,7051 HALCYON SUMMIT DRIVE,MONTGOMERY,AL,36117
1673,553 N. EASTERN BLVD,MONTGOMERY,AL,36117
1674,7200 HALCYON SUMMIT DRIVE,MONTGOMERY,AL,36117
1675,2560 BELL RD,MONTGOMERY,AL,36117
1676,2560 BELL ROAD,MONTGOMERY,AL,36117
1677,10650 CHANTILLY PARKWAY,MONTOGMERY,AL,36117
1678,10650 CHANTILLY PARKWAY,MONTGOMERY,AL,36117
1679,5833 CARMICHAEL ROAD,MONTGOMERY,AL,36117
1680,315 RAY THORINGTON ROAD,MONTGOMERY,AL,36117
1681,210 WINTON BLOUNT LOOP,MONTGOMERY,AL,36117
1682,2101 EASTERN BLVD,MONTGOMERY,AL,36117
1683,5731 WOODMERE BLVD,MONTGOMERY,AL,36117
1684,553 N EASTERN BLVD,MONTGOMERY,AL,36117
1685,5741 CARMICHAEL PKWY,MONTGOMERY,AL,36117
1686,737 AMITY LN,MONTGOMERY,AL,36117
1687,2149 TAYLOR RD,MONTGOMERY,AL,36117
1688,2201 TAYLOR ROAD,MONTGOMERY,AL,36117
1689,2201 TAYLOR RD,MONTGOMERY,AL,36117
1690,252 WINTON M BLOUNT LOOP,MONTGOMERY,AL,36117
1691,265 WINTON M BLOUNT LOOP,MONTGOMERY,AL,36117
1692,2564 BERRYHILL RD,MONTGOMERY,AL,36117
1693,2640 BELL RD,MONTGOMERY,AL,36117
1694,2600 BELL RD,MONTGOMERY,AL,36117
1695,4401 PENN AVE,PITTSBURGH,PA,15224
1696,11101 ATLANTA HWY,MONTGOMERY,AL,36117
1697,6941 EASTCHASE LOOP,MONTGOMERY,AL,36117
1698,5607 NW 27TH AVE,MIAMI,FL,33142
1699,2030 BERRY CHASE PL,MONTGOMERY,AL,36117
1700,7051 HALCYON SUMMIT DR,MONTGOMERY,AL,36117
1701,7200 HALCYON SUMMIT DR,MONTGOMERY,AL,36117
1702,8565 EASTCHASE PKWY,MONTGOMERY,AL,36117
1703,2642 BELL ROAD,MONTGOMERY,AL,36117
1704,7015 HALCYON PARK DR,MONTGOMERY,AL,36117
1705,7065 FAIN PARK DR,MONTGOMERY,AL,36117
1706,315 RAY THORINGTON RD,MONTGOMERY,AL,36117
1707,100 E 7TH ST,ANNISTON,AL,36201
1708,909 SOUTH QUINTARD AVENUE,ANNISTON,AL,36201
1709,1316 NOBLE ST,ANNISTON,AL,36201
1710,420 SNOW STREET,OXFORD,AL,36203
1711,227 CHOCCOLOCCO STR,OXFORD,AL,36203
1712,227 E CHOCCOLOCCO ST,OXFORD,AL,36203
1713,324 MONGER ST,OXFORD,AL,36203
1714,420 SNOW ST,OXFORD,AL,36203
1715,7 SNOW ST,OXFORD,AL,36203
1716,1409 HAMRIC DR E,OXFORD,AL,36203
1717,5 ALLEN PKWY,OXFORD,AL,36203
1718,1015 COUNTY LINE RD,OXFORD,AL,36203
1719,105 OXFORD EXCHANGE BLVD,OXFORD,AL,36203
1720,2207 GUNNELLS LN,OXFORD,AL,36203
1721,5225 TOUHY AVE,SKOKIE,IL,60077
1722,1177 CALLE VERONA,SAN JUAN,PR,00924
1723,5820 MCCLELLAN BLVD,ANNISTON,AL,36206
1724,5820 MCCLELLAN BOULEVARD,ANNISTON,AL,36206
1725,6118 MCCLELLAN BLVD,ANNISTON,AL,36206
1726,1715 GOLDEN SPRINGS ROAD,ANNISTON,AL,36207
1727,412 EAST 12TH ST,ANNISTON,AL,36207
1728,1701 LEIGHTON AVE,ANNISTON,AL,36207
1729,1703 LEIGHTON AVENUE,ANNISTON,AL,36207
1730,901 LEIGHTON AVENUE,ANNISTON,AL,36207
1731,1115 CHRISTINE AVENUE,ANNISTON,AL,36207
1732,418 EAST 12TH STREET,ANNISTON,AL,36207
1733,4422 3RD AVE,BRONX,NY,10457
1734,350 N CLARK ST STE 600,CHICAGO,IL,60654
1735,1613 LEIGHTON AVE,ANNISTON,AL,36207
1736,1703 LEIGHTON AVE,ANNISTON,AL,36207
1737,1127 LEIGHTON AVE,ANNISTON,AL,36207
1738,1115 CHRISTINE AVE,ANNISTON,AL,36207
1739,1220 CHRISTINE AVE,ANNISTON,AL,36207
1740,1108 WOODSTOCK AVE,ANNISTON,AL,36207
1741,711 E 10TH ST,ANNISTON,AL,36207
1742,711 EAST TENTH STREET,ANNISTON,AL,36207
1743,901 LEIGHTON AVE,ANNISTON,AL,36207
1744,1029 LEIGHTON AVE,ANNISTON,AL,36207
1745,626 LEIGHTON AVE # A,ANNISTON,AL,36207
1746,630 LEIGHTON AVE,ANNISTON,AL,36207
1747,626A LEIGHTON AVE,ANNISTON,AL,36207
1748,3310 HENRY RD,ANNISTON,AL,36207
1749,609 GOLDEN SPRINGS RD,ANNISTON,AL,36207
1750,1695 GOLDEN SPRINGS RD,ANNISTON,AL,36207
1751,1677 GOLDEN SPRINGS RD,ANNISTON,AL,36207
1752,76 COUNTY ROAD 64 STE 1,WOODLAND,AL,36280
1753,619 19TH ST S,BIRMINGHAM,AL,35249
1754,1450 1ST AVE SW,JACKSONVILLE,AL,36265
1755,76 COUNTY ROAD 64,WOODLAND,AL,36280
1756,654 VALLEY CUB DR,ALEXANDRIA,AL,36250
1757,46 TYSON RD,ASHLAND,AL,36251
1758,#46 TYSON RD,ASHLAND,AL,36251
1759,386 ROSS ST,HEFLIN,AL,36264
1760,703 PELHAM RD S,JACKSONVILLE,AL,36265
1761,505 PELHAM RD S,JACKSONVILLE,AL,36265
1762,454 DENSON DR,LINEVILLE,AL,36266
1763,2485 LEDBETTER RD,MUNFORD,AL,36268
1764,207 ROME AVE,PIEDMONT,AL,36272
1765,114 W LADIGA ST,PIEDMONT,AL,36272
1766,108 W POINT ST,ROANOKE,AL,36274
1767,32 MEDICAL DR STE 1,ROANOKE,AL,36274
1768,449 MAIN ST NORTH,WEDOWEE,AL,36278
1769,449 MAIN STREET NORTH,WEDOWEE,AL,36278
1770,2001 ALEXANDER DR,DOTHAN,AL,36301
1771,2803 ROSS CLARK CIRCLE,DOTHAN,AL,36301
1772,1801 WEST MAIN STREET,DOTHAN,AL,36301
1773,1817 W MAIN ST,DOTHAN,AL,36301
1774,2431 W MAIN ST,DOTHAN,AL,36301
1775,1609 WEST MAIN STREET,DOTHAN,AL,36301
1776,1817 W MAIN ST SUITE 2,DOTHAM,AL,36301
1777,2431 W MAIN ST STE 201,DOTHAN,AL,36301
1778,2431 W MAIN ST STE 402,DOTHAN,AL,36301
1779,2431 W MAIN ST STE 601,DOTHAN,AL,36301
1780,2019 W MAIN ST,DOTHAN,AL,36301
1781,1389 W MAIN ST,DOTHAN,AL,36301
1782,1389 W MAIN ST STE 1,DOTHAN,AL,36301
1783,1805 W MAIN ST,DOTHAN,AL,36301
1784,1609 W MAIN ST STE 202,DOTHAN,AL,36301
1785,1801 W MAIN ST,DOTHAN,AL,36301
1786,1609 W MAIN ST,DOTHAN,AL,36301
1787,2729 ROSS CLARK CIR,DOTHAN,AL,36301
1788,1865 E. MAIN ST. SUITE #2,DOTHAN,AL,36301
1789,1435 ROSS CLARK CIR,DOTHAN,AL,36301
1790,1435 ROSS CLARK CIR STE A1,DOTHAN,AL,36301
1791,100 OBRANNON PARK AVE,DOTHAN,AL,36303
1792,102 PROFESSIONAL LN,DOTHAN,AL,36303
1793,200 PARKWEST CIR STE 1,DOTHAN,AL,36303
1794,366 HEALTHWEST DR,DOTHAN,AL,36303
1795,366 HEALTHWEST DRIVE,DOTHAN,AL,36303
1796,318 WESTGATE PARKWAY,DOTHAN,AL,36303
1797,5412 MONTGOMERY HWY,DOTHAN,AL,36303
1798,502 HEALTHWEST DRIVE,DOTHAN,AL,36303
1799,3400 MONTGOMERY HIGHWAY,DOTHAN,AL,36303
1800,318 HEALTHWEST DR.,DOTHAN,AL,36303
1801,206 EXECUTIVE PARK DRIVE,DOTHAN,AL,36303
1802,3400 MONTGOMERY HWY STE 1,DOTHAN,AL,36303
1803,2601 MURPHY MILL RD,DOTHAN,AL,36303
1804,5412 MONTGOMERY HWY STE 8,DOTHAN,AL,36303
1805,318 HEALTHWEST DR,DOTHAN,AL,36303
1806,216 HEALTHWEST DR,DOTHAN,AL,36303
1807,102 METRO DR,DOTHAN,AL,36303
1808,100 METRO DR,DOTHAN,AL,36303
1809,186 HEALTHWEST DR,DOTHAN,AL,36303
1810,3400 MONTGOMERY HWY,DOTHAN,AL,36303
1811,205 EXECUTIVE PARK DR,DOTHAN,AL,36303
1812,1290 WESTGATE PKWY,DOTHAN,AL,36303
1813,107 PROFESSIONAL LN,DOTHAN,AL,36303
1814,209 W TROY STREET,DOTHAN,AL,36303
1815,502 HEALTHWEST DR,DOTHAN,AL,36303
1816,501 HEALTHWEST DR,DOTHAN,AL,36303
1817,102 MEDICAL DR,DOTHAN,AL,36303
1818,103 MEDICAL DR,DOTHAN,AL,36303
1819,334 JOHN D ODOM RD,DOTHAN,AL,36303
1820,200 GROVE PARK LN,DOTHAN,AL,36305
1821,3124 W MAIN ST STE 3,DOTHAN,AL,36305
1822,4440 W MAIN ST,DOTHAN,AL,36305
1823,4440 W MAIN ST STE 2,DOTHAN,AL,36305
1824,400 S WEST ST,BAINBRIDGE,GA,39819
1825,315 KIRKLAND ST,ABBEVILLE,AL,36310
1826,11079 COLUMBIA ST,BLAKELY,GA,39823
1827,301 DOTHAN ROAD,ABBEVILLE,AL,36310
1828,301 DOTHAN RD,ABBEVILLE,AL,36310
1829,2740 BATTLES RD,ASHFORD,AL,36312
1830,526 N DALEVILLE AVE,DALEVILLE,AL,36322
1831,982 DRAYTON AVENUE,ELBA,AL,36323
1832,2 E POINTE CT,ENTERPRISE,AL,36330
1833,1205 N BOLL WEEVIL CIRCLE,ENTERPRISE,AL,36330
1834,442 GLOVER AVE,ENTERPRISE,AL,36330
1835,442 GLOVER AVE.,ENTERPRISE,AL,36330
1836,306 SOUTH EDWARDS STREET,ENTERPRISE,AL,36330
1837,107 S EDWARDS ST,ENTERPRISE,AL,36330
1838,711 GLOVER AVE,ENTERPRISE,AL,36330
1839,412 GLOVER AVE,ENTERPRISE,AL,36330
1840,510 E LEE ST,ENTERPRISE,AL,36330
1841,551 GLOVER AVE,ENTERPRISE,AL,36330
1842,812 BOLL WEEVIL CIR,ENTERPRISE,AL,36330
1843,736 E LEE ST,ENTERPRISE,AL,36330
1844,204 N EDWARDS ST,ENTERPRISE,AL,36330
1845,623C BOLL WEEVIL CIR,ENTERPRISE,AL,36330
1846,623 BOLL WEEVIL CIR STE 1,ENTERPRISE,AL,36330
1847,1008 BOLL WEEVIL CIR STE D,ENTERPRISE,AL,36330
1848,1100 RUCKER BLVD STE A-1,ENTERPRISE,AL,36330
1849,1100 RUCKER BLVD STE A1,ENTERPRISE,AL,36330
1850,151 WESTCHESTER HALL,STONY BROOK,NY,11794
1851,2841 NEAL METCALF RD,ENTERPRISE,AL,36330
1852,706 W. MAPLE AVE,GENEVA,AL,36340
1853,100 W LAKE PROFESSIONAL PARK STE 5,GENEVA,AL,36340
1854,100 W LAKE PROFESSIONAL PARK,GENEVA,AL,36340
1855,209 S 4TH AVE,HARTFORD,AL,36344
1856,123 HOLMAN DRIVE,HEADLAND,AL,36345
1857,812 MITCHELL ST,HEADLAND,AL,36345
1858,15622 S. US HWY 231,MIDLAND CITY,AL,36350
1859,389 JAMES ST,OZARK,AL,36360
1860,415 A JAMES STREET,OZARK,AL,36360
1861,389 JAMES STREET,OZARK,AL,36360
1862,249 S PAINTER AVE,OZARK,AL,36360
1863,415 JAMES ST STE A,OZARK,AL,36360
1864,829 ANDREWS AVE,OZARK,AL,36360
1865,1550 ANDREWS AVE,OZARK,AL,36360
1866,486 ANDREWS AVE,OZARK,AL,36360
1867,BLDG 4405 INN KEEPER ST,FORT RUCKER,AL,36362
1868,4405 INNKEEPER ST.,FT. RUCKER,AL,36362
1869,BLDG 4405 INNKEEPER STREET,FORT RUCKER,AL,36362
1870,US ARMY DENTAL CLINIC COMMAND,FORT RUCKER,AL,36362
1871,104 HILLCREST DR,EVERGREEN,AL,36401
1872,122 COURT STREET,EVERGREEN,AL,36401
1873,100 EDWINA STREET,EVERGREEN,AL,36401
1874,316 S MAIN ST,EVERGREEN,AL,36401
1875,406 E THREE NOTCH ST,ANDALUSIA,AL,36420
1876,116 CRESCENT ST,ANDALUSIA,AL,36420
1877,1104 SANFORD RD,ANDALUSIA,AL,36420
1878,644 W BYPASS,ANDALUSIA,AL,36420
1879,1115 AZALEA PL,BREWTON,AL,36426
1880,420 DOUGLAS AVE,BREWTON,AL,36426
1881,1115 AZALEA PLACE,BREWTON,AL,36426
1882,422 DOUGLAS AVENUE,BREWTON,AL,36426
1883,102 MASON ST,BREWTON,AL,36426
1884,1503 MCMILLAN AVE,BREWTON,AL,36426
1885,422 DOUGLAS AVE,BREWTON,AL,36426
1886,2124 RINGOLD ST,FLOMATON,AL,36441
1887,24244 5TH AVE,FLORALA,AL,36442
1888,1106 E COLLEGE DR,MARSHALL,MN,56258
1889,4020 BOWDEN ST,FRISCO CITY,AL,36445
1890,297 C SOUTH JACKSON ST,GROVE HILL,AL,36451
1891,297 D SOUTH JACKSON ST.,GROVE HILL,AL,36451
1892,297C S JACKSON ST,GROVE HILL,AL,36451
1893,120 W CLAIBORNE ST,MONROEVILLE,AL,36460
1894,959 S ALABAMA AVE,MONROEVILLE,AL,36460
1895,1618 S ALABAMA AVE,MONROEVILLE,AL,36460
1896,104 E GUNTER AVE,OPP,AL,36467
1897,403 N BRANTLEY ST,OPP,AL,36467
1898,403 BRANTLEY ST,OPP,AL,36467
1899,602 BRANTLEY ST,OPP,AL,36467
1900,5811 JACK SPRINGS ROAD,ATMORE,AL,36502
1901,109 7TH AVENUE,ATMORE,AL,36502
1902,604 E NASHVILLE AVE,ATMORE,AL,36502
1903,111 E RIDGELEY ST,ATMORE,AL,36502
1904,109 7TH AVE,ATMORE,AL,36502
1905,208 7TH AVE,ATMORE,AL,36502
1906,610 E NASHVILLE AVE,ATMORE,AL,36502
1907,301 E 1ST ST,BAY MINETTE,AL,36507
1908,1901 HAND AVE,BAY MINETTE,AL,36507
1909,207 BLACKBURN AVE,BAY MINETTE,AL,36507
1910,1340 NORTH WINTZELL AVE.,BAYOU LA BATRE,AL,36509
1911,13040 S. WINTZELL AVENUE,"BAYOU, LA BATRE",AL,36509
1912,13040 N WINTZELL AVE,BAYOU LA BATRE,AL,36509
1913,17530 JORDAN ST,CHATOM,AL,36518
1914,19260 N MOBILE ST,CITRONELLE,AL,36522
1915,27985 US HIGHWAY 98,DAPHNE,AL,36526
1916,27695 U.S. HWY 98,DAPHNE,AL,36526
1917,1303 MAIN STREET,DAPHNE,AL,36526
1918,6475 JORDAN ROAD,DAPHNE,AL,36526
1919,6475 JORDAN AVENUE,DAPHNE,AL,36526
1920,7058 PROFESSIONAL PLACE,DAPHNE,AL,36526
1921,806 WILSON AVE,DAPHNE,AL,36526
1922,2213 US HIGHWAY 98,DAPHNE,AL,36526
1923,2200 US HIGHWAY 98,DAPHNE,AL,36526
1924,1281 MAIN ST,DAPHNE,AL,36526
1925,1303 MAIN ST,DAPHNE,AL,36526
1926,7058 PROFESSIONAL PL,DAPHNE,AL,36526
1927,6491 JORDAN RD,DAPHNE,AL,36526
1928,2004 US HIGHWAY 98,DAPHNE,AL,36526
1929,9815 MILLWOOD CIR,DAPHNE,AL,36526
1930,28668 US HIGHWAY 98,DAPHNE,AL,36526
1931,28668 U S HWY 98,DAPHNE,AL,36526
1932,28080 US HIGHWAY 98 STE A,DAPHNE,AL,36526
1933,28119 N MAIN ST,DAPHNE,AL,36526
1934,6611 PINEHILL RD,DAPHNE,AL,36526
1935,196 ROLLING HILL DR,DAPHNE,AL,36526
1936,8477A COUNTY ROAD 64,DAPHNE,AL,36526
1937,8477A COUNTY ROAD 64 STE 3,DAPHNE,AL,36526
1938,22645 STATE HIGHWAY 59 S,ROBERTSDALE,AL,36567
1939,6890 US HIGHWAY 90,DAPHNE,AL,36526
1940,3716 AIRPORT BLVD,MOBILE,AL,36608
1941,6935 US HIGHWAY 90 STE 200,DAPHNE,AL,36526
1942,2130 S MCKENZIE ST,FOLEY,AL,36535
1943,7765 AIRPORT BLVD STE D200,MOBILE,AL,36608
1944,4015 GORGAS CIR,SAN ANTONIO,TX,78234
1945,6475 SPANISH FORT BLVD,SPANISH FORT,AL,36527
1946,6450 US HIGHWAY 90 STE D,SPANISH FORT,AL,36527
1947,6525 SPANISH FORT BLVD,SPANISH FORT,AL,36527
1948,9807 MCSARA CT.,SPANISH FORT,AL,36527
1949,9807 MCSARA COURT,SPANISH FORT,AL,36527
1950,6593 SPANISH FORT BLVD,SPANISH FORT,AL,36527
1951,9815 MILLWOOD CIR,SPANISH FORT,AL,36527
1952,9808 MCSARA CT,SPANISH FORT,AL,36527
1953,9808 MCSARA CT,DAPHNE,AL,36527
1954,9807 MCSARA CT,SPANISH FORT,AL,36527
1955,30500 STATE HIGHWAY 181 STE 450,SPANISH FORT,AL,36527
1956,33941 FARRINGTON LN,SPANISH FORT,AL,36527
1957,9807 MCSARA COURT,DAPHNE,AL,36527
1958,6450 US HIGHWAY 90,SPANISH FORT,AL,36527
1959,25088 EAST STATE STREET,ELBERTA,AL,36530
1960,101 FLY CREEK AVE STE 301,FAIRHOPE,AL,36532
1961,106 LOTTIE LN,FAIRHOPE,AL,36532
1962,7489 PARKER RD,FAIRHOPE,AL,36532
1963,10939 US HIGHWAY 98,FAIRHOPE,AL,36532
1964,115 LOTTIE LN,FAIRHOPE,AL,36532
1965,19748 S GREENO RD,FAIRHOPE,AL,36532
1966,24370 US HWY 98,FAIRHOPE,AL,36532
1967,71A N. SECTION ST.,FAIRHOPE,AL,36532
1968,10040 COUNTY ROAD 48,FAIRHOPE,AL,36532
1969,101 FLY CREEK AVENUE,FAIRHOPE,AL,36532
1970,108 PROFESSIONAL PARK DR,FAIRHOPE,AL,36532
1971,71A N SECTION ST,FAIRHOPE,AL,36532
1972,160 N SECTION ST,FAIRHOPE,AL,36532
1973,506 N SECTION ST,FAIRHOPE,AL,36532
1974,307 N SECTION ST,FAIRHOPE,AL,36532
1975,911 PLANTATION BLVD,FAIRHOPE,AL,36532
1976,921 PLANTATION BLVD,FAIRHOPE,AL,36532
1977,7540 CIPRIANO CT,FAIRHOPE,AL,36532
1978,23678 US HIGHWAY 98,FAIRHOPE,AL,36532
1979,23678 HIGHWAY 98,FAIRHOPE,AL,36532
1980,24208 US HIGHWAY 98,FAIRHOPE,AL,36532
1981,24208 US HIGHWAY 98 STE C,FAIRHOPE,AL,36532
1982,20 SPRING RUN DR,FAIRHOPE,AL,36532
1983,19354 S GREENO RD,FAIRHOPE,AL,36532
1984,19354 GREENO RD,FAIRHOPE,AL,36532
1985,19748 GREENO RD,FAIRHOPE,AL,36532
1986,8076 SPRING RUN DR,FAIRHOPE,AL,36532
1987,8076B SPRING RUN RD,FAIRHOPE,AL,36532
1988,154 EASTON CIR,FAIRHOPE,AL,36532
1989,18467 POINT CLEAR CT,FAIRHOPE,AL,36532
1990,5915 SWEET WATER CIR,FAIRHOPE,AL,36532
1991,829 S UNIVERSITY BLVD,MOBILE,AL,36609
1992,23210 US HIGHWAY 98 STE D1,FAIRHOPE,AL,36532
1993,1350 N MCKENZIE ST,FOLEY,AL,36535
1994,110 S ALSTON ST,FOLEY,AL,36535
1995,7801 HIGHWAY 59 SUITE F,FOLEY,AL,36535
1996,8154 HIGHWAY 59,FOLEY,AL,36535
1997,8154 HWY 59,FOLEY,AL,36535
1998,7801 HIGHWAY 59,FOLEY,AL,36535
1999,301 N CEDAR ST,FOLEY,AL,36535
2000,101 N CEDAR ST,FOLEY,AL,36535
2001,1121 S MCKENZIE ST,FOLEY,AL,36535
2002,225 W LAUREL AVE,FOLEY,AL,36535
2003,198 COUNTY ROAD 20,FOLEY,AL,36535
2004,815 N ALSTON ST,FOLEY,AL,36535
2005,825 N ALSTON ST,FOLEY,AL,36535
2006,805 N MCKENZIE ST,FOLEY,AL,36535
2007,8158 STATE HIGHWAY 59 APT 105,FOLEY,AL,36535
2008,12342 FOLEY BEACH EXPY,FOLEY,AL,36535
2009,100 ELECIA LN,FOLEY,AL,36535
2010,12475 US HIGHWAY 90,GRAND BAY,AL,36541
2011,350 CYPRESS BEND BLVD STE 102,GULF SHORES,AL,36542
2012,2025 WEST 1ST ST,GULF SHORES,AL,36542
2013,313 EAST 22ND AVE.,GULF SHORES,AL,36542
2014,208 W. 19TH AVE.,GULF SHORES,AL,36542
2015,105 WEST 14TH AVENUE,GULF SHORES,AL,36542
2016,208 W 19TH AVE,GULF SHORES,AL,36542
2017,105 WEST 14TH AVE,GULF SHORES,AL,36542
2018,208 WEST 19TH AVE,GULF SHORES,AL,36542
2019,350 CYPRESS BEND BLVD,GULF SHORES,AL,36542
2020,313 E 22ND AVE,GULF SHORES,AL,36542
2021,245 CLUBHOUSE DR,GULF SHORES,AL,36542
2022,241 CLUBHOUSE DR,GULF SHORES,AL,36542
2023,3501 GULF SHORES PKWY,GULF SHORES,AL,36542
2024,100 W 1ST AVE,GULF SHORES,AL,36542
2025,2620 COLLEGE AVE,JACKSON,AL,36545
2026,125 W CHURCH ST,JACKSON,AL,36545
2027,12658 SANTA PIEDRO ST,LILLIAN,AL,36549
2028,2127 N HICKORY ST,LOXLEY,AL,36551
2029,2122 SOUTH HICKORY STREET,LOXLEY,AL,36551
2030,3147 FIRST AVENUE,LOXLEY,AL,36551
2031,2122 S HICKORY ST,LOXLEY,AL,36551
2032,25469 ST HWY 59,LOXLEY,AL,36551
2033,7508 HWY 43 SOUTH,MCINTOSH,AL,36553
2034,7508 HIGHWAY 43 SOUTH,MCINTOSH,AL,36553
2035,23845 MAIN STREET,MONTROSE,AL,36559
2036,950 W COY SMITH HWY,MOUNT VERNON,AL,36560
2037,725 COY SMITH HWY E,MOUNT VERNON,AL,36560
2038,2750 ROLLINS RD,ORANGE BEACH,AL,36561
2039,25771 CANAL RD,ORANGE BEACH,AL,36561
2040,COMPREHENSIVE DENTISTRY OF ORANGE BEACH,ORANGE BEACH,AL,36561
2041,27250B PERDIDO BEACH BLVD,ORANGE BEACH,AL,36561
2042,25299 CANAL RD,ORANGE BEACH,AL,36561
2043,4751 MAIN ST STE F217,ORANGE BEACH,AL,36561
2044,18471 WILTERS ST,ROBERTSDALE,AL,36567
2045,18471 WILTERS STREET,ROBERTSDALE,AL,36567
2046,18100 HWY 104,ROBERTSDALE,AL,36567
2047,22645 HWY 59 SOUTH,ROBERTSDALE,AL,36567
2048,21400 STATE HIGHWAY 59,ROBERTSDALE,AL,36567
2049,18100 HIGHWAY 104,ROBERTSDALE,AL,36567
2050,1064 INDUSTRIAL PKWY,SARALAND,AL,36571
2051,623 HIGHWAY 43 SOUTH,SARALAND,AL,36571
2052,315 SARALAND BLVD N,SARALAND,AL,36571
2053,400 SARALAND BLVD N,SARALAND,AL,36571
2054,224 SHELTON BEACH RD,SARALAND,AL,36571
2055,623 HIGHWAY 43 S,SARALAND,AL,36571
2056,1097 INDUSTRIAL PKWY,SARALAND,AL,36571
2057,5651 HIGHWAY 43,SATSUMA,AL,36572
2058,1651 SCHILLINGER RD N,SEMMES,AL,36575
2059,8000 MOFFAT ROAD,SEMMES,AL,36575
2060,8000 MOFFAT RD.,SEMMES,AL,36575
2061,3810 WULFF RD E,SEMMES,AL,36575
2062,301 SAINT JOSEPH ST,MOBILE,AL,36602
2063,5721 HIGHWAY 90 STE A,THEODORE,AL,36582
2064,5710 KATHERINE HANKINS DR,THEODORE,AL,36582
2065,1303 DR. MARTIN L KING JR AVE,MOBILE,AL,36603
2066,1303 DR MARTIN L KING JR AVE,MOBILE,AL,36603
2067,451 S BROAD ST,MOBILE,AL,36603
2068,451 SOUTH BROAD ST,MOBILE,AL,36603
2069,712 S WASHINGTON AVE,MOBILE,AL,36603
2070,251 N BAYOU ST,MOBILE,AL,36603
2071,1754 GOVERNMENT ST,MOBILE,AL,36604
2072,1501 SPRINGHILL AVE,MOBILE,AL,36604
2073,1501 SPRING HILL AVE,MOBILE,AL,36604
2074,1360 SPRING HILL AVE,MOBILE,AL,36604
2075,1924-D DAUPHIN ISLAND PARKWAY,MOBILE,AL,36605
2076,1924D DAUPHIN ISLAND PKWY,MOBILE,AL,36605
2077,2020 ROSEDALE RD,MOBILE,AL,36605
2078,116 SOUTH FLORIDA STREET,MOBILE,AL,36606
2079,3151 DAUPHLIN ST,MOBILE,AL,36606
2080,2157 AIRPORT BLVD,MOBILE,AL,36606
2081,333 BROMLEY PL,MOBILE,AL,36606
2082,2727 PLEASANT VALLEY RD,MOBILE,AL,36606
2083,613 JOHN F KENNEDY DR,CROWLEY,LA,70526
2084,2805 AIRPORT BLVD,MOBILE,AL,36606
2085,3281 BEL AIR MALL,MOBILE,AL,36606
2086,3281 BEL AIR MALL STE G18A,MOBILE,AL,36606
2087,79 E MIDTOWN PARK,MOBILE,AL,36606
2088,79 MIDTOWN PARK E,MOBILE,AL,36606
2089,2653A OLD SHELL ROAD,MOBILE,AL,36607
2090,1962 SPRING HILL AVE,MOBILE,AL,36607
2091,3210 OLD SHELL RD,MOBILE,AL,36607
2092,2655A OLD SHELL RD,MOBILE,AL,36607
2093,2 NORTH FLORIDA STREET,MOBILE,AL,36607
2094,58 MOBILE ST,MOBILE,AL,36607
2095,4728 AIRPORT BLVD,MOBILE,AL,36608
2096,6350 AIRPORT BLVD,MOBILE,AL,36608
2097,4863 OLD SHELL RD,MOBILE,AL,36608
2098,6300 AIRPORT BLVD STE A,MOBILE,AL,36608
2099,4736 AIRPORT BLVD,MOBILE,AL,36608
2100,3664 OLD SHELL RD,MOBILE,AL,36608
2101,4626 BIT AND SPUR RD,MOBILE,AL,36608
2102,5466 OLD SHELL RD,MOBILE,AL,36608
2103,3805 AIRPORT BLVD,MOBILE,AL,36608
2104,615 SHADY OAK DR,MOBILE,AL,36608
2105,100 S UNIVERSITY BLVD,MOBILE,AL,36608
2106,3602 B OLD SHELL RD,MOBILE,AL,36608
2107,4732 AIRPORT BLVD.,MOBILE,AL,36608
2108,3616 SPRINGHILL MEMORIAL DR N,MOBILE,AL,36608
2109,3664 OLD SHELL ROAD,MOBILE,AL,36608
2110,990 CODY RD NORTH,MOBILE,AL,36608
2111,3620 SPRINGHILL MEMORIAL DRIVE SOUTH,MOBILE,AL,36608
2112,3602B OLD SHELL RD,MOBILE,AL,36608
2113,4464 OLD SHELL RD,MOBILE,AL,36608
2114,4310 OLD SHELL RD STE B,MOBILE,AL,36608
2115,3920 AIRPORT BLVD,MOBILE,AL,36608
2116,4634 BIT AND SPUR RD,MOBILE,AL,36608
2117,5414 OLD SHELL RD,MOBILE,AL,36608
2118,50 N. UNIVERSITY BLVD,MOBILE,AL,36608
2119,120 S UNIVERSITY BOULEVARD,MOBILE,AL,36608
2120,120 S UNIVERSITY BLVD,MOBILE,AL,36608
2121,6350 AIRPORT BLVD STE 2,MOBILE,AL,36608
2122,4732 AIRPORT BLVD,MOBILE,AL,36608
2123,4720 AIRPORT BLVD,MOBILE,AL,36608
2124,6300 AIRPORT BLVD,MOBILE,AL,36608
2125,5368 ZEIGLER BLVD,MOBILE,AL,36608
2126,103 HOLLY ST S,MOBILE,AL,36608
2127,7765 AIRPORT BLVD,MOBILE,AL,36608
2128,4620 SPRING HILL AVE,MOBILE,AL,36608
2129,703 BISHOP LN N,MOBILE,AL,36608
2130,6701 AIRPORT BLVD,MOBILE,AL,36608
2131,8501 TANNER WILLIAMS RD,MOBILE,AL,36608
2132,9985 AIRPORT BLVD STE B,MOBILE,AL,36608
2133,7305 HIGHWAY 614,HURLEY,MS,39555
2134,5612 COTTAGE HILL RD,MOBILE,AL,36609
2135,515 AZALEA RD,MOBILE,AL,36609
2136,720 OAK CIRCLE DR W STE 400,MOBILE,AL,36609
2137,6217 COTTAGE HILL RD,MOBILE,AL,36609
2138,6154 OMNI PARK DR,MOBILE,AL,36609
2139,821 S UNIVERSITY BLVD,MOBILE,AL,36609
2140,659 AZALEA RD,MOBILE,AL,36609
2141,505 GEORGIAN DR,MOBILE,AL,36609
2142,720 OAK CIRCLE DR WEST,MOBILE,AL,36609
2143,6154 OMNI PARK DRIVE,MOBILE,AL,36609
2144,508 GEORGIAN DRIVE,MOBILE,AL,36609
2145,505 GEORGIAN DRIVE STE A,MOBILE,AL,36609
2146,6309 PICCADILLY SQUARE DR.,MOBILE,AL,36609
2147,1020 MONTLIMAR DR.,MOBILE,AL,36609
2148,1055 MONTLIMAR DR,MOBILE,AL,36609
2149,1200 MONTLIMAR DR,MOBILE,AL,36609
2150,4216 AURELIA ST,MOBILE,AL,36609
2151,801 UNIVERSITY BLVD S,MOBILE,AL,36609
2152,801 UNIVERSITY BLVD S # A,MOBILE,AL,36609
2153,801 UNIVERSITY BLVD S STE C,MOBILE,AL,36609
2154,801 UNIVERSITY BLVD S STE B,MOBILE,AL,36609
2155,801 S UNIVERSITY BLVD # A,MOBILE,AL,36609
2156,1450 UNIVERSITY BLVD S,MOBILE,AL,36609
2157,1450 S UNIVERSITY BLVD,MOBILE,AL,36609
2158,801 UNIVERSITY BLVD S STE D,MOBILE,AL,36609
2159,1501 UNIVERSITY BLVD S,MOBILE,AL,36609
2160,1575 UNIVERSITY BLVD S,MOBILE,AL,36609
2161,1575 S UNIVERSITY BLVD,MOBILE,AL,36609
2162,6207 COTTAGE HILL RD,MOBILE,AL,36609
2163,6207 COTTAGE HILL RD STE E,MOBILE,AL,36609
2164,517 GEORGIAN DR,MOBILE,AL,36609
2165,505 GEORGIAN DR STE B,MOBILE,AL,36609
2166,508 GEORGIAN DR,MOBILE,AL,36609
2167,5901 GRELOT RD,MOBILE,AL,36609
2168,5901 GRELOT RD BLDG E,MOBILE,AL,36609
2169,"5901 GRELOT ROAD, BUILDING C",MOBILE,AL,36609
2170,5920B GRELOT RD,MOBILE,AL,36609
2171,5920 GRELOT RD,MOBILE,AL,36609
2172,5920 GRELOT RD STE A,MOBILE,AL,36609
2173,5920 GRELOT RD STE B,MOBILE,AL,36609
2174,5047 COTTAGE HILL RD,MOBILE,AL,36609
2175,4219 COTTAGE HILL RD,MOBILE,AL,36609
2176,720 OAK CIRCLE DR W,MOBILE,AL,36609
2177,6329 PICCADILLY SQUARE DR,MOBILE,AL,36609
2178,6337 PICCADILLY SQUARE DR,MOBILE,AL,36609
2179,6320 PICCADILLY SQUARE DR,MOBILE,AL,36609
2180,6328 PICCADILLY SQUARE DR,MOBILE,AL,36609
2181,6164 OMNI PARK DR,MOBILE,AL,36609
2182,715 DOWNTOWNER BLVD,MOBILE,AL,36609
2183,909 WALNUT ST STE 300,PHILADELPHIA,PA,19107
2184,3750 PROFESSIONAL PKWY,MOBILE,AL,36609
2185,821 UNIVERSITY BLVD S,MOBILE,AL,36609
2186,107 E LOVE JOY LOOP,PRICHARD,AL,36610
2187,457 N CRAFT HWY,CHICKASAW,AL,36611
2188,4009 SAINT STEPHENS RD,MOBILE,AL,36612
2189,720 S LEEDS AVE,MOBILE,AL,36612
2190,4547 SAINT STEPHENS RD,EIGHT MILE,AL,36613
2191,4547 SAINT STEPHENS RD,PRICHARD,AL,36613
2192,5300 OVERLOOK RD,MOBILE,AL,36618
2193,5216 OVERLOOK ROAD,MOBILE,AL,36618
2194,4137 MOFFELT RD.,MOBILE,AL,36618
2195,4900 MOFFETT RD,MOBILE,AL,36618
2196,5300 OVERLOOK RD.,MOBILE,AL,36618
2197,7760 MOFFETT RD,MOBILE,AL,36618
2198,1109 C M FAGAN DR STE P,HAMMOND,LA,70403
2199,5651 THREE NOTCH RD,MOBILE,AL,36619
2200,5659 THREE NOTCH RD.,MOBILE,AL,36619
2201,6389A THREE NOTCH RD,MOBILE,AL,36619
2202,5659 THREE NOTCH RD,MOBILE,AL,36619
2203,5352B HIGHWAY 90 W,MOBILE,AL,36619
2204,5352 B HWY 90 W,MOBILE,AL,36619
2205,4439 RANGELINE RD STE A,MOBILE,AL,36619
2206,3977 BURMA RD,MOBILE,AL,36693
2207,3977 BURMA ROAD,MOBILE,AL,36693
2208,3106 JAMES MADISON DR E,MOBILE,AL,36693
2209,3263 DEMETROPOLIS RD,MOBILE,AL,36693
2210,5011 GOVERNMENT BLVD,MOBILE,AL,36693
2211,1100 HILLCREST RD STE A,MOBILE,AL,36695
2212,1040 HILLCREST RD,MOBILE,AL,36695
2213,6309 PICCADILLY SQUARE DRIVE,MOBILE,AL,36695
2214,6410 GRELOT RD,MOBILE,AL,36695
2215,1100 HILLCREST RD,MOBILE,AL,36695
2216,1105 HILLCREST RD STE B,MOBILE,AL,36695
2217,1605 HILLCREST RD,MOBILE,AL,36695
2218,740 HILLCREST RD STE 2B,MOBILE,AL,36695
2219,1151 HILLCREST RD,MOBILE,AL,36695
2220,2423 SCHILLINGER RD S STE 104,MOBILE,AL,36695
2221,6611 WALL ST,MOBILE,AL,36695
2222,7053 PROVIDENCE PARK DR S,MOBILE,AL,36695
2223,9535 ALIBAMUS CT,MOBILE,AL,36695
2224,203 DALLAS AVE,SELMA,AL,36701
2225,2425 MEDICAL CENTER PKWY,SELMA,AL,36701
2226,2455 MEDICAL CENTER PARKWAY,SELMA,AL,36701
2227,1013 MEDICAL CENTER PKWY,SELMA,AL,36701
2228,624 LAUDERDALE ST,SELMA,AL,36701
2229,724 ALABAMA AVE,SELMA,AL,36701
2230,730 SELMA AVE,SELMA,AL,36701
2231,1013 MEDICAL CENTER PKWY STE 103,SELMA,AL,36701
2232,101 PARK PL,SELMA,AL,36701
2233,2455 MEDICAL CENTER PKWY,SELMA,AL,36701
2234,1415 JEFF DAVIS AVE,SELMA,AL,36703
2235,340 EARL STREET,CAMDEN,AL,36726
2236,901 S CEDAR AVE,DEMOPOLIS,AL,36732
2237,105 S WALNUT AVE,DEMOPOLIS,AL,36732
2238,702 STATE ST,GREENSBORO,AL,36744
2239,851 SHANKS DR.,MAPLESVILLE,AL,36750
2240,1533 ALABAMA HWY. 5 SOUTH,MARION,AL,36756
2241,213 WASHINGTON ST,MARION,AL,36756
2242,336 CHURCH STREET,PINEHILL,AL,36769
2243,26 WILSON AVE W,THOMASVILLE,AL,36784
2244,325 ALABAMA AVE W,THOMASVILLE,AL,36784
2245,632 W FRONT ST N,THOMASVILLE,AL,36784
2246,111 N 16TH ST,OPELIKA,AL,36801
2247,1610 2ND AVE,OPELIKA,AL,36801
2248,1995 PEPPERELL PARKWAY,OPELIKA,AL,36801
2249,307 SOUTH 6TH STREET,OPELIKA,AL,36801
2250,1945 FIRST AVENUE,OPELIKA,AL,36801
2251,614 AVE. A,OPELIKA,AL,36801
2252,106A 16TH PL,OPELIKA,AL,36801
2253,1709 PEPPERELL PKWY,OPELIKA,AL,36801
2254,2015 INTERSTATE DRIVE,OPELIKA,AL,36801
2255,121 NORTH 20TH STREET,OPELIKA,AL,36801
2256,2900 WAVERLY PKWY,OPELIKA,AL,36801
2257,214 JETER AVE,OPELIKA,AL,36801
2258,614 AVENUE A,OPELIKA,AL,36801
2259,1957 1ST AVE,OPELIKA,AL,36801
2260,1945 1ST AVE,OPELIKA,AL,36801
2261,2015 INTERSTATE DR,OPELIKA,AL,36801
2262,121 N 20TH ST,OPELIKA,AL,36801
2263,121 N 20TH ST STE 20B,OPELIKA,AL,36801
2264,1995 PEPPERELL PKWY,OPELIKA,AL,36801
2265,1995 PEPPERELL PKWY STE 1,OPELIKA,AL,36801
2266,2542 ENTERPRISE DR,OPELIKA,AL,36801
2267,2200 GATEWAY DR STE AA,OPELIKA,AL,36801
2268,DEPARTMENT OF SURGICAL & HOSPITAL DENTISTRY,LOUISVILLE,KY,40292
2269,2311 BENT CREEK RD.,AUBURN,AL,36830
2270,785 N DEAN RD,AUBURN,AL,36830
2271,1550 OPELIKA RD STE 6-167,AUBURN,AL,36830
2272,827 STAGE RD,AUBURN,AL,36830
2273,2234 OGLETREE VILLAGE LN,AUBURN,AL,36830
2274,1216 COMMERCE DRIVE,AUBURN,AL,36830
2275,337 EAST MAGNOLIA AVE,AUBURN,AL,36830
2276,841 NORTH DEAN RD.,AUBURN,AL,36830
2277,792 NORTH DEAN RD,AUBURN,AL,36830
2278,1550 OPELIKA ROAD,AUBURN,AL,36830
2279,836 NORTH DEAN ROAD,AUBURN,AL,36830
2280,1957 E. SAMFORD AVE.,AUBURN,AL,36830
2281,792 NORTH DEAN ROAD,AUBURN,AL,36830
2282,754 N DEAN RD,AUBURN,AL,36830
2283,841 NORTH DEAN ROAD,AUBURN,AL,36830
2284,1575 PROFESSIONAL PKWY,AUBURN,AL,36830
2285,836 NORTH DEAN RD.,AUBURN,AL,36830
2286,655 SPENCER AVE,AUBURN,AL,36830
2287,1204 OGLETREE VILLAGE LN,AUBURN,AL,36830
2288,670 N COLLEGE ST STE D,AUBURN,AL,36830
2289,761 N DEAN RD,AUBURN,AL,36830
2290,773 N DEAN RD,AUBURN,AL,36830
2291,792 N DEAN RD,AUBURN,AL,36830
2292,724 N DEAN RD STE 200,AUBURN,AL,36830
2293,742 N DEAN RD,AUBURN,AL,36830
2294,999 DREW LN,AUBURN,AL,36830
2295,778 N DEAN RD,AUBURN,AL,36830
2296,227 E MAGNOLIA AVE,AUBURN,AL,36830
2297,118 N ROSS ST,AUBURN,AL,36830
2298,2311 BENT CREEK RD STE 500,AUBURN,AL,36830
2299,719 N DEAN RD,AUBURN,AL,36830
2300,601 SHELL TOOMER PARKWAY,AUBURN,AL,36830
2301,1611 OLIVIA WAY,AUBURN,AL,36830
2302,1452 OPELIKA RD,AUBURN,AL,36830
2303,1550 OPELIKA RD,AUBURN,AL,36830
2304,2320 MOORES MILL RD,AUBURN,AL,36830
2305,2164 MOORES MILL RD,AUBURN,AL,36830
2306,836 N DEAN RD,AUBURN,AL,36830
2307,1365 CLIFTON RD NE,ATLANTA,GA,30322
2308,315 MARIARDEN RD,DADEVILLE,AL,36853
2309,16 MEDICAL PARK,VALLEY,AL,36854
2310,6 MEDICAL PARK,VALLEY,AL,36854
2311,1902 48TH ST,VALLEY,AL,36854
2312,1095 HIGHWAY 165,FORT MITCHELL,AL,36856
2313,134 1ST ST SE,LAFAYETTE,AL,36862
2314,1340 ENCINITAS BLVD STE 100,ENCINITAS,CA,92024
2315,1601 S GILMER AVE,LANETT,AL,36863
2316,1601 SOUTH GILMER AVE.,LANETT,AL,36863
2317,2105 BROAD AVE,LANETT,AL,36863
2318,2409 SPORTSMAN DR,PHENIX CITY,AL,36867
2319,1007 BROAD ST,PHENIX CITY,AL,36867
2320,3544 HWY 431 NORTH/280 WEST,PHENIX CITY,AL,36867
2321,3732 HWY 280 BYPASS,PHENIX CITY,AL,36867
2322,3900 13TH AVE,PHENIX CITY,AL,36867
2323,3544 US HIGHWAY 431 N,PHENIX CITY,AL,36867
2324,3732 US HIGHWAY 431 N,PHENIX CITY,AL,36867
2325,1810 STADIUM DR,PHENIX CITY,AL,36867
2326,2313 CRAWFORD RD,PHENIX CITY,AL,36867
2327,1502 11TH AVENUE,PHENIX CITY,AL,36867
2328,1007 BROAD STREET,PHENIX CITY,AL,36867
2329,5415 SUMMERVILLE RD,PHENIX CITY,AL,36867
2330,5009 RIVERCHASE DR,PHENIX CITY,AL,36867
2331,1010 4TH PL,PHENIX CITY,AL,36869
2332,5009 RIVERCHASE DRIVE,PHENIX CITY,AL,36870
2333,2355 LEE ROAD 430,SMITHS,AL,36877
2334,2355 LEE ROAD 430,SMITHS STATION,AL,36877
2335,505 E PUSHMATAHA STREET,BUTLER,AL,36904
2336,123 W ALABAMA ST,BUTLER,AL,36904
2337,304 HENDRICKS AVE,BUTLER,AL,36904
2338,114 S MULBERRY AVE,BUTLER,AL,36904
2339,325 E PUSHMATAHA ST,BUTLER,AL,36904
2340,140 FRONT STREET,GILBERTOWN,AL,36908
2341,140 FRONT ST SUITE # 4,GILBERTOWN,AL,36908
