,address_1,city,state,postal_code
0,1101 TENNESSEE ST,PINE BLUFF,AR,71601
1,1616 S CHERRY ST,PINE BLUFF,AR,71601
2,2508 S CHERRY ST,PINE BLUFF,AR,71601
3,7215 SHERIDAN RD,WHITE HALL,AR,71602
4,7197 SHERIDAN RD STE 115,WHITE HALL,AR,71602
5,7215 SHERIDAN ROAD,WHITE HALL,AR,71602
6,8426 DOLLARWAY RD,WHITE HALL,AR,71602
7,7197 SHERIDAN RD,WHITE HALL,AR,71602
8,6814 PRINCETON PIKE,PINE BLUFF,AR,71602
9,3721 S OLIVE ST,PINE BLUFF,AR,71603
10,1242 W 42ND AVE,PINE BLUFF,AR,71603
11,3721 S OLIVE,PINE BLUFF,AR,71603
12,1310 SOUTH LINDEN ST,PINE BLUFF,AR,71603
13,3024 OLIVE STREET,PINE BLUFF,AR,71603
14,11 CHAPEL VILLAGE SHOPPING CENTER,PINE BLUFF,AR,71603
15,3721 OLIVE STREET,PINE BLUFF,AR,71603
16,2801 S OLIVE ST,PINE BLUFF,AR,71603
17,1310 SOUTH LINDEN STREET,PINE BLUFF,AR,71603
18,3801 S OLIVE ST,PINE BLUFF,AR,71603
19,1801 W 40TH ST,PINE BLUFF,AR,71603
20,4100 W 28TH AVE,PINE BLUFF,AR,71603
21,2801 S OLIVE ST STE 36C,PINE BLUFF,AR,71603
22,3024 S OLIVE ST,PINE BLUFF,AR,71603
23,3900 S OLIVE ST,PINE BLUFF,AR,71603
24,3721 S OLIVE ST STE B,PINE BLUFF,AR,71603
25,1406 W 42ND AVE,PINE BLUFF,AR,71603
26,1400 W 42ND AVE,PINE BLUFF,AR,71603
27,216 E CARPENTER ST,BENTON,AR,72015
28,7400 N HILLS BLVD,NORTH LITTLE ROCK,AR,72116
29,9035 E SANDIDGE RD,OLIVE BRANCH,MS,38654
30,1400 W CENTER ST,SHERIDAN,AR,72150
31,230 PINE BLUFF ST,MALVERN,AR,72104
32,4301 S MULBERRY ST STE A,PINE BLUFF,AR,71603
33,4301 S MULBERRY ST,PINE BLUFF,AR,71603
34,550 W 46TH AVE,PINE BLUFF,AR,71603
35,1301 RIDGWAY RD STE 2B,PINE BLUFF,AR,71603
36,1301 RIDGWAY RD,PINE BLUFF,AR,71603
37,930 15TH ST,BATESVILLE,AR,72501
38,"1301 RIDGWAY RD., STE. 2B",PINE BLUFF,AR,71603
39,909 A UNITY ROAD,CROSSETT,AR,71635
40,909 A UNITY RD,CROSSETT,AR,71635
41,100 CHERRYWOOD LN,CROSSETT,AR,71635
42,300 S SCHOOL ST,DERMOTT,AR,71638
43,880 E GAINES ST,DERMOTT,AR,71638
44,525 E SPEEDWAY ST,DERMOTT,AR,71638
45,716 S HIGHWAY 77,NEWKIRK,OK,74647
46,465 MEDICAL CENTER PKWY,CLINTON,AR,72031
47,601 MEADOR DR,DUMAS,AR,71639
48,103 CARLTON DR,DUMAS,AR,71639
49,144 S MAIN ST,EUDORA,AR,71640
50,407 SOUTH GOULD AVE,GOULD,AR,71643
51,407 S GOULD AVE,GOULD,AR,71643
52,201 S CHERRY ST,HAMBURG,AR,71646
53,303 W. LINCOLN STREET,HAMBURG,AR,71646
54,303 W LINCOLN ST,HAMBURG,AR,71646
55,2729 S. HWY 65 82,LAKE VILLAGE,AR,71653
56,360 A HWY 82,LAKE VILLAGE,AR,71653
57,403 MAIN ST,LAKE VILLAGE,AR,71653
58,103 MAIN ST,LAKE VILLAGE,AR,71653
59,601 N 2ND ST,MCGEHEE,AR,71654
60,601 N 2ND ST,MC GEHEE,AR,71654
61,250 UNIVERSITY DR,MONTICELLO,AR,71655
62,791 ROBERTS DR,MONTICELLO,AR,71655
63,121 E SHELTON,MONTICELLO,AR,71655
64,433 SOUTH MAIN STREET,MONTICELLO,AR,71655
65,501 HWY 425 SOUTH,MONTICELLO,AR,71655
66,511 N HYATT ST,MONTICELLO,AR,71655
67,206 CLEVELAND ST,STAR CITY,AR,71667
68,310 ASHLEY ST.,STAR CITY,AR,71667
69,557 KIRKWOOD RD,STAR CITY,AR,71667
70,112 W BRADLEY ST,STAR CITY,AR,71667
71,105 W CHURCH ST,WARREN,AR,71671
72,103 W CHURCH ST,WARREN,AR,71671
73,208 E CHURCH ST,WARREN,AR,71671
74,203 MCCOMB ST,WILMOT,AR,71676
75,540 JEFFERSON ST SW,CAMDEN,AR,71701
76,135 CASH RD NW,CAMDEN,AR,71701
77,142 HAYNES,CAMDEN,AR,71701
78,604 J A DOOLEY WOMACK DRIVE,CAMDEN,AR,71701
79,604 JA DOOLEY WOMACK DR,CAMDEN,AR,71701
80,604 J A DOOLEY WOMACK DR,CAMDEN,AR,71701
81,1920 W WASHINGTON ST,CAMDEN,AR,71701
82,140 DARNELL AVE,CAMDEN,AR,71701
83,206 VAN BUREN ST NW,CAMDEN,AR,71701
84,707 W FAULKNER ST,EL DORADO,AR,71730
85,225 N NEWTON,EL DORADO,AR,71730
86,519 W FAULKNER,EL DORADO,AR,71730
87,106 WEST MAIN ST. 212,EL DORADO,AR,71730
88,607 N COLLEGE AVE,EL DORADO,AR,71730
89,705 W FAULKNER ST,EL DORADO,AR,71730
90,700 W FAULKNER ST,EL DORADO,AR,71730
91,800 MOUNT HOLLY RD,EL DORADO,AR,71730
92,419 THOMPSON AVE,EL DORADO,AR,71730
93,347 W OAK ST STE B,EL DORADO,AR,71730
94,408 W OAK ST,EL DORADO,AR,71730
95,318 THOMPSON AVE,EL DORADO,AR,71730
96,123 W GROVE ST,EL DORADO,AR,71730
97,926 N MADISON AVE,EL DORADO,AR,71730
98,701 W OAK ST,EL DORADO,AR,71730
99,481 N WASHINGTON AVE,EL DORADO,AR,71730
100,106 W MAIN ST,EL DORADO,AR,71730
101,106 WEST MAIN,EL DORADO,AR,71730
102,305 GRAHAM ST,FORDYCE,AR,71742
103,305 N SPRING ST,FORDYCE,AR,71742
104,305 E WALNUT ST,GURDON,AR,71743
105,402 LEE STREET,HAMPTON,AR,71744
106,1018 N WASHINGTON,MAGNOLIA,AR,71753
107,615 N JACKSON,MAGNOLIA,AR,71753
108,222 NORTH PINE,MAGNOLIA,AR,71753
109,912 N JACKSON,MAGNOLIA,AR,71753
110,301 E STADIUM,MAGNOLIA,AR,71753
111,104 W GARLAND,MAGNOLIA,AR,71753
112,817 N WASHINGTON,MAGNOLIA,AR,71753
113,615 N JACKSON ST,MAGNOLIA,AR,71753
114,102 W MCNEIL,MAGNOLIA,AR,71753
115,1819 S MAIN ST,HOPE,AR,71801
116,901 S ELM ST,HOPE,AR,71801
117,800 S MAIN ST,HOPE,AR,71801
118,411 W 16TH ST,HOPE,AR,71801
119,110 W 18TH ST,HOPE,AR,71801
120,370 W MAIN ST,ASHDOWN,AR,71822
121,360 N 2ND ST,ASHDOWN,AR,71822
122,96 WEBSTER DR,ASHDOWN,AR,71822
123,110 WEST DEQUEEN AVENUE,DEQUEEN,AR,71832
124,1316 W COLLIN RAYE DR,DE QUEEN,AR,71832
125,110 W DEQUEEN AVE,DE QUEEN,AR,71832
126,1347 W COLLIN RAYE DR,DE QUEEN,AR,71832
127,1620 GRAND AVENUE PKWY STE 130,PFLUGERVILLE,TX,78660
128,110 W. DE QUEEN AVENUE,DE QUEEN,AR,71832
129,202 EAST THIRD STREET,DIERKS,AR,71833
130,121 W HOWARD ST,NASHVILLE,AR,71852
131,700 N MAIN ST STE 1,NASHVILLE,AR,71852
132,1401 DUDLEY ST,TEXARKANA,AR,71854
133,1621 ARKANSAS BLVD,TEXARKANA,AR,71854
134,4115 JEFFERSON AVE,TEXARKANA,AR,71854
135,1702 ARKANSAS BLVD,TEXARKANA,AR,71854
136,1600 ARKANSAS BLVD STE 200,TEXARKANA,AR,71854
137,1600 ARKANSAS BLVD,TEXARKANA,AR,71854
138,312 ARKANSAS BLVD,TEXARKANA,AR,71854
139,1015 E 35TH ST,TEXARKANA,AR,71854
140,2601 COUNTY AVE,TEXARKANA,AR,71854
141,414 HAZEL ST,TEXARKANA,AR,71854
142,505 EAST SIXTH STREET,TEXARKANA,AR,71854
143,421 PECAN ST,TEXARKANA,AR,71854
144,409 HICKORY ST,TEXARKANA,AR,71854
145,1401 DUDLEY STREET,TEXARKANA,AR,71854
146,6013 TIMBERWOOD LN,TEXARKANA,AR,71854
147,4410 TEXAS BLVD,TEXARKANA,TX,75503
148,2165 CUNNINGHAM DR,HAMPTON,VA,23666
149,419 E 6TH ST S,PRESCOTT,AR,71857
150,1495 W 1ST ST N,PRESCOTT,AR,71857
151,506 THOMAS ST,STAMPS,AR,71860
152,2840 MALVERN AVE,HOT SPRINGS,AR,71901
153,"1656 MALVERN AVE, STE A",HOT SPRINGS,AR,71901
154,1911 MALVERN AVE,HOT SPRINGS,AR,71901
155,1911 MALVERN AVE.,HOT SPRINGS,AR,71901
156,307 G CARPENTER DAM ROAD,HOT SPRINGS,AR,71901
157,1421 CENTRAL AVENUE,HOT SPRINGS,AR,71901
158,105 RESERVE ST,HOT SPRINGS,AR,71901
159,141 PARK HILL,HOT SPRINGS,AR,71901
160,1421 CENTRAL AVE,HOT SPRINGS,AR,71901
161,102 RIDGEWAY ST,HOT SPRINGS,AR,71901
162,105 RIDGEWAY ST,HOT SPRINGS,AR,71901
163,102 CHIPPEWA CT,HOT SPRINGS,AR,71901
164,1702 MALVERN AVE,HOT SPRINGS,AR,71901
165,1723 MALVERN AVE,HOT SPRINGS,AR,71901
166,1656 MALVERN AVE,HOT SPRINGS,AR,71901
167,1919 MALVERN AVE,HOT SPRINGS,AR,71901
168,1911 MALVERN AVE STE B,HOT SPRINGS,AR,71901
169,1911 MALVERN AVE STE A,HOT SPRINGS,AR,71901
170,2212 MALVERN AVE,HOT SPRINGS,AR,71901
171,2220 MALVERN AVE,HOT SPRINGS,AR,71901
172,2633 MALVERN AVE,HOT SPRINGS,AR,71901
173,307 CARPENTER DAM RD STE M,HOT SPRINGS,AR,71901
174,307 CARPENTER DAM RD STE G,HOT SPRINGS,AR,71901
175,101 DENTISTA DR,HOT SPRINGS VILLAGE,AR,71909
176,4419 N HIGHWAY 7,HOT SPRINGS VILLAGE,AR,71909
177,4585 N HIGHWAY 7,HOT SPRINGS VILLAGE,AR,71909
178,110 ESTEL WAY,HOT SPRINGS VILLAGE,AR,71909
179,110 ESTE WAY,HOT SPRINGS VILLAGE,AR,71909
180,4585 N HIGHWAY 7 STE 13,HOT SPRINGS VILLAGE,AR,71909
181,103 PLAZA CARMONA PL,HOT SPRINGS VILLAGE,AR,71909
182,130 CORDOBA CENTER DR,HOT SPRINGS VILLAGE,AR,71909
183,130 CORDOBA CENTER DR,HOT SPRINGS,AR,71909
184,1396 DESOTO BLVD,HOT SPRINGS VILLAGE,AR,71909
185,110 ESTES WAY,HOT SPRINGS VILLAGE,AR,71909
186,4419 N HIGHWAY 7 STE 301,HOT SPRINGS VILLAGE,AR,71909
187,105 CRACKER BOX LN STE B,HOT SPRINGS,AR,71913
188,3812 CENTRAL AVE,HOT SPRINGS,AR,71913
189,241 HOBSON AVE,HOT SPRINGS,AR,71913
190,801 W GRAND AVE,HOT SPRINGS,AR,71913
191,1 MERCY LANE,HOT SPRINGS,AR,71913
192,1629 AIRPORT RD,HOT SPRINGS,AR,71913
193,200 MC AULEY COURT,HOT SPRINGS,AR,71913
194,122 CORPORATE TERRACE,HOT SPRINGS,AR,71913
195,"221 AIRPORT ROAD, SPACE G",HOT SPRINGS,AR,71913
196,3060 ALBERT PIKE,HOT SPRINGS,AR,71913
197,1685 AIRPORT ROAD,HOT SPRINGS,AR,71913
198,308 WEST ST LOUIS STREET,HOT SPRINGS,AR,71913
199,3320 CENTRAL AVENUE,HOT SPRINGS,AR,71913
200,ONE MERCY LANE,HOT SPRINGS,AR,71913
201,807 WEST GRAND AVE,HOT SPRINGS,AR,71913
202,4039 CENTRAL AVENUE,HOT SPRINGS,AR,71913
203,807 W GRAND AVE,HOT SPRINGS,AR,71913
204,241 HOBSON,HOT SPRINGS,AR,71913
205,211 HOBSON AVE,HOT SPRINGS,AR,71913
206,101 DORIS CT,HOT SPRINGS,AR,71913
207,221 AIRPORT RD,HOT SPRINGS,AR,71913
208,308 WEST ST LOUIS ST,HOT SPRINGS,AR,71913
209,1018 AIRPORT RD,HOT SPRINGS,AR,71913
210,600 MAIN ST,HOT SPRINGS,AR,71913
211,3320 CENTRAL AVE,HOT SPRINGS,AR,71913
212,401 S BOWMAN RD,LITTLE ROCK,AR,72211
213,149 SECTION LINE RD STE N,HOT SPRINGS,AR,71913
214,3401 CENTRAL AVE,HOT SPRINGS,AR,71913
215,102 MCMAHAN ST,HOT SPRINGS,AR,71913
216,200 MCAULEY CT,HOT SPRINGS,AR,71913
217,281 CORNERSTONE BLVD,HOT SPRINGS,AR,71913
218,136 FILES RD,HOT SPRINGS,AR,71913
219,136 FILES ROAD,HOT SPRINGS,AR,71913
220,4039 CENTRAL AVE,HOT SPRINGS,AR,71913
221,4403 CENTRAL AVE,HOT SPRINGS,AR,71913
222,301 WEST MARKHAM STREET,LITTLE ROCK,AR,72205
223,1685 AIRPORT RD,HOT SPRINGS,AR,71913
224,116 BUENA VISTA RD,HOT SPRINGS,AR,71913
225,36 RAHLING CIR,LITTLE ROCK,AR,72223
226,5489 SUMMERHILL RD,TEXARKANA,TX,75503
227,600 MAIN ST STE L,HOT SPRINGS,AR,71913
228,2 HOSPITAL DR STE 103,MORRILTON,AR,72110
229,439 E. THOMPSON ST,AMITY,AR,71921
230,439 E THOMPSON ST,AMITY,AR,71921
231,208 N 26TH ST STE A,ARKADELPHIA,AR,71923
232,626 CADDO ST,ARKADELPHIA,AR,71923
233,2840 TWIN RIVERS DR,ARKADELPHIA,AR,71923
234,2840 TWIN RIVERS DR.,ARKADELPHIA,AR,71923
235,3003 TWIN RIVERS DR,ARKADELPHIA,AR,71923
236,2906 CYPRESS RD,ARKADELPHIA,AR,71923
237,280 PROFESSIONAL PARK DR STE B,ARKADELPHIA,AR,71923
238,208 NORTH 26TH STREET,ARKADELPHIA,AR,71923
239,312 PROFESSIONAL PARK DR,ARKADELPHIA,AR,71923
240,811 CLINTON ST,ARKADELPHIA,AR,71923
241,119 ELM ST,GLENWOOD,AR,71943
242,400 PINE AVE,MENA,AR,71953
243,701 C 7TH STREET,MENA,AR,71953
244,309 MORROW ST S,MENA,AR,71953
245,209 MORROW ST N,MENA,AR,71953
246,1201 SOUTH MENA STREET,MENA,AR,71953
247,1127 HIGHWAY 71 S,MENA,AR,71953
248,136 HEALTH PARK DR,MENA,AR,71953
249,515 BEE CREEK RD,BRANSON,MO,65616
250,138 HIGHWAY 270 E,MOUNT IDA,AR,71957
251,138 HWY 270 EAST,MOUNT IDA,AR,71957
252,3447 HIGHWAY 270 E,MOUNT IDA,AR,71957
253,534 LUZERNE ST,MOUNT IDA,AR,71957
254,326 E. 13TH ST.,MURFREESBORO,AR,71958
255,326 E 13TH ST,MURFREESBORO,AR,71958
256,3354 OLD AIRPORT RD,PEARCY,AR,71964
257,160 ADAM BROWN RD,PEARCY,AR,71964
258,216 S SECOND ST,AUGUSTA,AR,72006
259,623 N 9TH ST,AUGUSTA,AR,72006
260,216 S 2ND ST,AUGUSTA,AR,72006
261,2802 HIGHWAY 367 N,BALD KNOB,AR,72010
262,102 N MAIN ST,BEEBE,AR,72012
263,1010 W CENTER ST,BEEBE,AR,72012
264,325 SHORT ST,BENTON,AR,72015
265,1215 MILITARY RD STE 5,BENTON,AR,72015
266,1112 MILITARY RD,BENTON,AR,72015
267,2101 C CONGO RD,BENTON,AR,72015
268,1215 MILITARY RD,BENTON,AR,72015
269,716 W. SOUTH STREET,BENTON,AR,72015
270,1202 HIGHWAY 35 N,BENTON,AR,72015
271,1200 FERGUSON DR STE 4,BENTON,AR,72015
272,715 MILITARY RD,BENTON,AR,72015
273,1200 FERGUSON DR,BENTON,AR,72015
274,716 W SOUTH ST,BENTON,AR,72015
275,818 W SOUTH ST,BENTON,AR,72015
276,12419 CANTRELL RD,LITTLE ROCK,AR,72223
277,7500 KIRBY DR,HOUSTON,TX,77030
278,1226 FERGUSON DR STE 2,BENTON,AR,72015
279,2301 SPRINGHILL RD STE 105,BRYANT,AR,72019
280,3310 HIGHWAY 5 NORTH,BENTON,AR,72019
281,407 HIGHWAY 5 NORTH,BENTON,AR,72019
282,425 HWY 5 NORTH,BENTON,AR,72019
283,3305 HIGHWAY 5 N.,BRYANT,AR,72019
284,1037 KELLEY,BENTON,AR,72019
285,2305 SPRINGHILL RD,BENTON,AR,72019
286,2305 SPRINGHILL RD,BRYANT,AR,72019
287,3310 HWY 5 N,BRYANT,AR,72019
288,3310 HIGHWAY 5 N,BRYANT,AR,72019
289,407 HIGHWAY 5 N,BENTON,AR,72019
290,407 HWY 5 N,BENTON,AR,72019
291,301 N SHACKLEFORD RD STE B1,LITTLE ROCK,AR,72211
292,20770 I 30 STE 100,BENTON,AR,72019
293,105 S MAIN AVE,BRINKLEY,AR,72021
294,206 NORTH MAIN,BRINKLEY,AR,72021
295,206 N MAIN ST,BRINKLEY,AR,72021
296,22450 INTERSTATE 30,BRYANT,AR,72022
297,2422 SPRINGHILL RD,BRYANT,AR,72022
298,4909 HIGHWAY 5 N # 700,BRYANT,AR,72022
299,"23233 I-30, SUITE 4",BRYANT,AR,72022
300,3310 HIGHWAY 5 NORTH,BRYANT,AR,72022
301,7409 ALCOA ROAD,BRYANT,AR,72022
302,411 OFFICE PARK DR,BRYANT,AR,72022
303,23239 I-30 BRYANT PLAZA,BRYANT,AR,72022
304,"1313 HIGHWAY 62 AND 65 NORTH, SUITE D",HARRISON,AR,72022
305,23233 I-30 SUITE,BRYANT,AR,72022
306,22450 I 30,BRYANT,AR,72022
307,2302 N REYNOLDS RD,BRYANT,AR,72022
308,7409 ALCOA RD,BRYANT,AR,72022
309,7409 ALCOA RD STE 5,BRYANT,AR,72022
310,7301 ALCOA RD STE 1,BRYANT,AR,72022
311,4909 HIGHWAY 5 N STE 700,BRYANT,AR,72022
312,612 W COMMERCE ST,BRYANT,AR,72022
313,5921 HIGHWAY 5 N,BRYANT,AR,72022
314,2900 HORIZON DR,BRYANT,AR,72022
315,2900 HORIZON DR STE 13,BRYANT,AR,72022
316,3001 HORIZON AVE,BRYANT,AR,72022
317,5400 HIGHLAND DR,LITTLE ROCK,AR,72223
318,210 OFFICE PARK DR,BRYANT,AR,72022
319,3 TEMPLETON DR,CABOT,AR,72023
320,3284 HIGHWAY 367 S,CABOT,AR,72023
321,180 ARENA RD,CABOT,AR,72023
322,906 S PINE STREET,CABOT,AR,72023
323,12 MARLOU DRIVE,CABOT,AR,72023
324,1106 SOUTH PINE STREET,CABOT,AR,72023
325,606 W MAIN ST,CABOT,AR,72023
326,24 SPRING ST,CABOT,AR,72023
327,108 S 10TH ST,CABOT,AR,72023
328,112 S ROCKWOOD DR STE A,CABOT,AR,72023
329,12 MARLOU DR,CABOT,AR,72023
330,906 S PINE ST,CABOT,AR,72023
331,1306 S PINE ST,CABOT,AR,72023
332,1106 S PINE ST,CABOT,AR,72023
333,183 ARENA RD,CABOT,AR,72023
334,58 COSSATOT CIR,CABOT,AR,72023
335,1395 CENTER DRIVE DEPARTMENT OF PEDIATRIC DENTISTRY,GAINESVILLE,FL,32610
336,2033B W MAIN ST,CABOT,AR,72023
337,513 N WILLIAMS,CARLISLE,AR,72024
338,245 MADISON ST,CLARENDON,AR,72029
339,1919 HWY 65 S,CLINTON,AR,72031
340,354 MAIN STREET,CLINTON,AR,72031
341,644 MAIN ST,CLINTON,AR,72031
342,390 FACTORY RD,CLINTON,AR,72031
343,550 CHESTNUT ST,CONWAY,AR,72032
344,1600 E OAK ST,CONWAY,AR,72032
345,1600 E. OAK STREET SUITE B,CONWAY,AR,72032
346,2665 DONAGHEY AVE,CONWAY,AR,72032
347,201 SKYLINE DR,CONWAY,AR,72032
348,150 E SIEBENMORGAN RD,CONWAY,AR,72032
349,1219 FRONT STREET,CONWAY,AR,72032
350,830 N CREEK DR,CONWAY,AR,72032
351,607 FRONT ST,CONWAY,AR,72032
352,130 HARKRIDER ST,CONWAY,AR,72032
353,1125 S AMITY RD,CONWAY,AR,72032
354,1105 COLLIER DR,CONWAY,AR,72032
355,95 BEAVERFORK RD,CONWAY,AR,72032
356,2755 PRINCE ST,CONWAY,AR,72034
357,2415 PRINCE ST STE 105,CONWAY,AR,72034
358,562 LOCUST ST,CONWAY,AR,72034
359,2157 PRINCE ST,CONWAY,AR,72034
360,2235 DAVE WARD DR STE 103,CONWAY,AR,72034
361,2425 PRINCE ST STE 1,CONWAY,AR,72034
362,810 SALEM RD,CONWAY,AR,72034
363,2700 ALLYSON LANE,CONWAY,AR,72034
364,1410 PRINCE STREET,CONWAY,AR,72034
365,810 LOCUST ST.,CONWAY,AR,72034
366,1210 HOGAN LANE,CONWAY,AR,72034
367,635 DAVE WARD DRIVE,CONWAY,AR,72034
368,562 LOCUST STREET,CONWAY,AR,72034
369,4206 HWY. 60,CONWAY,AR,72034
370,4055 SERAPH DR,CONWAY,AR,72034
371,2850 PRINCE ST,CONWAY,AR,72034
372,2425 PRINCE ST STE 5,CONWAY,AR,72034
373,2425 PRINCE ST STE 2,CONWAY,AR,72034
374,8801 W MARKHAM ST # B,LITTLE ROCK,AR,72205
375,2425 PRINCE ST,CONWAY,AR,72034
376,2415 PRINCE STREET,CONWAY,AR,72034
377,2415 PRINCE ST,CONWAY,AR,72034
378,4 MEDICAL LN,CONWAY,AR,72034
379,8 MEDICAL LN,CONWAY,AR,72034
380,525 WESTERN AVE,CONWAY,AR,72034
381,525 WESTERN AVE STE 204,CONWAY,AR,72034
382,810 LOCUST ST,CONWAY,AR,72034
383,800 LOCUST ST,CONWAY,AR,72034
384,800 LOCUST AVE,CONWAY,AR,72034
385,707 PARKWAY ST STE 103,CONWAY,AR,72034
386,2700 ALLYSON LN,CONWAY,AR,72034
387,2235 DAVE WARD DR,CONWAY,AR,72034
388,405 HOGAN LN,CONWAY,AR,72034
389,405 HOGAN LN STE 1,CONWAY,AR,72034
390,1475 HOGAN LN,CONWAY,AR,72034
391,2425 DAVE WARD DR STE 502,CONWAY,AR,72034
392,14922 CANTRELL RD,LITTLE ROCK,AR,72223
393,4701 FAIRWAY AVE STE D,NORTH LITTLE ROCK,AR,72116
394,405 HIGHWAY 11 NORTH,DES ARC,AR,72040
395,405 HWY 11 NORTH,DES ARC,AR,72040
396,1703 S WHITEHEAD DR,DEWITT,AR,72042
397,1703 S WHITEHEAD DR,DE WITT,AR,72042
398,227 PINE BLUFF HWY,ENGLAND,AR,72046
399,17 WILSON FARM RD,GREENBRIER,AR,72058
400,15 WILSON FARM RD,GREENBRIER,AR,72058
401,8 WILSON FARM RD STE B,GREENBRIER,AR,72058
402,1409 S ROCK ST STE B,SHERIDAN,AR,72150
403,308 NORTH JAMES STREET,JACKSONVILLE,AR,72076
404,308 N JAMES ST,JACKSONVILLE,AR,72076
405,200 N 2ND ST,JACKSONVILLE,AR,72076
406,809 MARSHALL ROAD,JACKSONVILLE,AR,72076
407,2650 JOHN HARDEN DR,JACKSONVILLE,AR,72076
408,1100 JOHN HARDEN DR,JACKSONVILLE,AR,72076
409,1405 BRADEN STREET,JACKSONVILLE,AR,72076
410,1405 BRADEN ST,JACKSONVILLE,AR,72076
411,1426 BRADEN ST,JACKSONVILLE,AR,72076
412,815 MARSHALL RD,JACKSONVILLE,AR,72076
413,809 MARSHALL RD,JACKSONVILLE,AR,72076
414,619 N 1ST ST,JACKSONVILLE,AR,72076
415,9 CRESTVIEW PLZ STE C,JACKSONVILLE,AR,72076
416,1917 REVEILLE CIR,JACKSONVILLE,AR,72076
417,23 SHACKLEFORD DR STE A,LITTLE ROCK,AR,72211
418,2650 JOHN HARDEN DR STE L,JACKSONVILLE,AR,72076
419,23 SHACKLEFORD DR,LITTLE ROCK,AR,72211
420,419 N CENTER ST,LONOKE,AR,72086
421,419 N CENTER,LONOKE,AR,72086
422,123 N CENTER ST,LONOKE,AR,72086
423,116 E FRONT ST,LONOKE,AR,72086
424,203 LAKEVIEW DR,FAIRFIELD BAY,AR,72088
425,19TH MEDICAL GROUP 1090 ARNOLD DRIVE,LITTLE ROCK AFB,AR,72099
426,1090 ARNOLD DR,JACKSONVILLE,AR,72099
427,1090 ARNOLD DR,LITTLE ROCK AIR FORCE BASE,AR,72099
428,1090 ARNOLD DR,LITTLE ROCK AFB,AR,72099
429,72333 HIGHWAY 111 STE B,PALM DESERT,CA,92260
430,11414 W MARKHAM ST STE A,LITTLE ROCK,AR,72211
431,10334 SHANNON HILLS DR,SHANNON HILLS,AR,72103
432,206 E HIGHLAND,MALVERN,AR,72104
433,306 S ASH ST,MALVERN,AR,72104
434,927 SOUTH MAIN,MALVERN,AR,72104
435,206 E HIGHLAND AVE,MALVERN,AR,72104
436,927 S MAIN ST,MALVERN,AR,72104
437,937 S MAIN ST,MALVERN,AR,72104
438,100 WALCO LN,MALVERN,AR,72104
439,372 CORAL RD,MALVERN,AR,72104
440,582 HIGHWAY 365 STE 4,MAYFLOWER,AR,72106
441,9 MEDICAL SERVICES DR,MORRILTON,AR,72110
442,1700 UNIVERSITY BLVD,MORRILTON,AR,72110
443,"1700 UNIVERSITY BLVD., SUITE 105",MORRILTON,AR,72110
444,914 E DRILLING ST,MORRILTON,AR,72110
445,103 SO MOOSE ST,MORRILTON,AR,72110
446,1711 E HARDING ST,MORRILTON,AR,72110
447,1700 UNIVERSITY BLVD STE 105,MORRILTON,AR,72110
448,1307 HIGHWAY 367 N,NEWPORT,AR,72112
449,2308 HIGHWAY 367 N,NEWPORT,AR,72112
450,2308 HIGHWAY 367 N STE 300,NEWPORT,AR,72112
451,122 MAIN ST,NEWPORT,AR,72112
452,1200 MCLAIN ST,NEWPORT,AR,72112
453,1200 MCLAIN ST STE 8,NEWPORT,AR,72112
454,3201 CLUB MANOR,MAUMELLE,AR,72113
455,3201 CLUB MANOR DR STE A,MAUMELLE,AR,72113
456,301 MILLWOOD CIR,MAUMELLE,AR,72113
457,11723 MAUMELLE BLVD,NORTH LITTLE ROCK,AR,72113
458,1701 CLUB MANOR DR STE 4,MAUMELLE,AR,72113
459,520 W PERSHING,NORTH LITTLE ROCK,AR,72114
460,520 W. PERSHING BLVD.,NORTH LITTLE ROCK,AR,72114
461,2200 FORT ROOTS DR,NORTH LITTLE ROCK,AR,72114
462,2200 FORT ROOTS DR # 160,NORTH LITTLE ROCK,AR,72114
463,620 JOHN PAUL JONES CIR,PORTSMOUTH,VA,23708
464,2504 MCCAIN BLVD,NORTH LITTLE ROCK,AR,72116
465,520 W PERSHING BLVD STE C,NORTH LITTLE ROCK,AR,72114
466,520 W PERSHING BLVD,NORTH LITTLE ROCK,AR,72114
467,500 W 26TH ST,NORTH LITTLE ROCK,AR,72114
468,505 W PERSHING BLVD,NORTH LITTLE ROCK,AR,72114
469,2550 MAIN ST,NORTH LITTLE ROCK,AR,72114
470,4137 JFK BLVD,NORTH LITTLE ROCK,AR,72116
471,2501 CRESTWOOD RD STE 201,NORTH LITTLE ROCK,AR,72116
472,4605 FAIRWAY AVE,NORTH LITTLE ROCK,AR,72116
473,5125 JFK BLVD,NORTH LITTLE ROCK,AR,72116
474,2504MECAIN,NORTH LITTLE ROCK,AR,72116
475,2501 CRESTWOOD,NORTH LITTLE ROCK,AR,72116
476,3001 JFK BLVD,NO. LITTLE ROCK,AR,72116
477,5401 JFK BLVD,N LITTLE ROCK,AR,72116
478,5401 JFK,NORTH LITTLE ROCK,AR,72116
479,200 SOUTH UNIVERSITY SUITE 200,LITTLE ROCK,AR,72116
480,5125 JFK BLVD,N LITTLE ROCK,AR,72116
481,7400 N HILLS BLVD,SHERWOOD,AR,72116
482,7400 N HILLS BLVD,N LITTLE ROCK,AR,72116
483,7 EDENWOOD LN,N LITTLE ROCK,AR,72116
484,5111 JFK BLVD,NORTH LITTLE ROCK,AR,72116
485,5401 JOHN F KENNEDY BLVD,NORTH LITTLE ROCK,AR,72116
486,2400 CRESTWOOD RD,NORTH LITTLE ROCK,AR,72116
487,2501 CRESTWOOD RD,N LITTLE ROCK,AR,72116
488,2501 CRESTWOOD RD,NORTH LITTLE ROCK,AR,72116
489,4909 WARDEN RD,NORTH LITTLE ROCK,AR,72116
490,4901 WARDEN RD,NORTH LITTLE ROCK,AR,72116
491,5106 MCCLANAHAN DR STE A,NORTH LITTLE ROCK,AR,72116
492,8 PARKSTONE CIR,NORTH LITTLE ROCK,AR,72116
493,2411 MCCAIN BLVD,NORTH LITTLE ROCK,AR,72116
494,2504 MCCAIN BLVD STE 201,NORTH LITTLE ROCK,AR,72116
495,2504 MCCAIN BLVD STE 200,NORTH LITTLE ROCK,AR,72116
496,2501 CRESTWOOD RD STE 102,NORTH LITTLE ROCK,AR,72116
497,2501 CRESTWOOD RD STE 103,NORTH LITTLE ROCK,AR,72116
498,2501 CRESTWOOD RD STE 301,NORTH LITTLE ROCK,AR,72116
499,2501 CRESTWOOD RD STE 302,N LITTLE ROCK,AR,72116
500,2524 CRESTWOOD RD,NORTH LITTLE ROCK,AR,72116
501,2512 CRESTWOOD RD,NORTH LITTLE ROCK,AR,72116
502,2524 CRESTWOOD RD STE 2,NORTH LITTLE ROCK,AR,72116
503,4601 FAIRWAY AVE,NORTH LITTLE ROCK,AR,72116
504,4603 FAIRWAY AVE,NORTH LITTLE ROCK,AR,72116
505,4137 JOHN F KENNEDY BLVD,NORTH LITTLE ROCK,AR,72116
506,4137 JFK BLVD.,NORTH LITTLE ROCK,AR,72116
507,3405 RIDGE RD,NORTH LITTLE ROCK,AR,72116
508,3505 JOHN F KENNEDY BLVD,NORTH LITTLE ROCK,AR,72116
509,3517 JFK BLVD,NORTH LITTLE ROCK,AR,72116
510,3760 LAKEVIEW RD,NORTH LITTLE ROCK,AR,72116
511,3001 JFK BLVD,NORTH LITTLE ROCK,AR,72116
512,3860 HIGHWAY 412 E STE F,SILOAM SPRINGS,AR,72761
513,1307 HWY 367 N,NEWPORT,AR,72117
514,3200 SPRINGHILL DR,NORTH LITTLE ROCK,AR,72117
515,3401 SPRINGHILL DR,NORTH LITTLE ROCK,AR,72117
516,1802 HWY 161,NORTH LITTLE ROCK,AR,72117
517,4720 CAMP ROBINSON ROAD,NORTH LITTLE ROCK,AR,72118
518,7525 YOUNG RD STE A,NORTH LITTLE ROCK,AR,72118
519,7525 YOUNG RD,NORTH LITTLE ROCK,AR,72118
520,4720 CAMP ROBINSON RD STE B,NORTH LITTLE ROCK,AR,72118
521,4720 CAMP ROBINSON RD,NORTH LITTLE ROCK,AR,72118
522,3810 CAMP ROBINSON RD,NORTH LITTLE ROCK,AR,72118
523,8000 HIGHWAY 107,SHERWOOD,AR,72120
524,7522 HIGHWAY 107,SHERWOOD,AR,72120
525,1118 E KIEHL AVE,SHERWOOD,AR,72120
526,312 E. KIEHL AVE,SHERWOOD,AR,72120
527,1421 COUNTRY CLUB RD,SHERWOOD,AR,72120
528,7517 WARDEN ROAD,SHERWOOD,AR,72120
529,9509 HIGHWAY 107,SHERWOOD,AR,72120
530,3006 E KIEHL AVE,SHERWOOD,AR,72120
531,2800 E KIEHL AVE,SHERWOOD,AR,72120
532,7517 WARDEN RD,SHERWOOD,AR,72120
533,1513 COUNTRY CLUB RD,SHERWOOD,AR,72120
534,810 N FOURCHE AVE,PERRYVILLE,AR,72126
535,6189 HEBER SPRINGS RD WEST,QUITMAN,AR,72131
536,6189 HEBER SPRINGS RD. W.,QUITMAN,AR,72131
537,407 LLAMA DR STE 101,SEARCY,AR,72143
538,333 E MARKET AVE,SEARCY,AR,72143
539,2009 W BEEBE CAPPS,SEARCY,AR,72143
540,404 W VINE ST,SEARCY,AR,72143
541,3245 E. RACE ST,SEARCY,AR,72143
542,1604 E MOORE AVE,SEARCY,AR,72143
543,407 LLAMA DR,SEARCY,AR,72143
544,407 LLAMA DR STE 103,SEARCY,AR,72143
545,2916 HAWKINS DR,SEARCY,AR,72143
546,2915 E MOORE AVE,SEARCY,AR,72143
547,710 MARION ST,SEARCY,AR,72143
548,3241 E RACE AVE,SEARCY,AR,72143
549,710 MARION ST STE 302,SEARCY,AR,72143
550,2616 W BEEBE CAPPS EXPY,SEARCY,AR,72143
551,2915 E MOORE AVE STE 1,SEARCY,AR,72143
552,2009 W BEEBE CAPPS EXPY,SEARCY,AR,72143
553,600 WEST ARCH AVENUE,SEARCHY,AR,72143
554,600 W ARCH AVE,SEARCY,AR,72143
555,3206 LANGLEY DR,SEARCY,AR,72143
556,3680 E RACE AVE,SEARCY,AR,72143
557,400 S MAIN ST STE 300,SEARCY,AR,72143
558,622 S MAIN ST,SEARCY,AR,72143
559,1639 E BEEBE CAPPS EXPY,SEARCY,AR,72143
560,1901 E BEEBE CAPPS EXPY,SEARCY,AR,72143
561,1113 S MAIN ST,SEARCY,AR,72143
562,403 E LINCOLN AVE,SEARCY,AR,72143
563,400 S MAIN ST,SEARCY,AR,72143
564,326 N ROSSER ST,FORREST CITY,AR,72335
565,4850 N WASHINGTON ST,FORREST CITY,AR,72335
566,1207 W BEEBE CAPPS EXPY,SEARCY,AR,72143
567,209 W HOLLY,SHERIDAN,AR,72150
568,211 W HOLLY ST,SHERIDAN,AR,72150
569,209 W HOLLY ST,SHERIDAN,AR,72150
570,303 W HOLLY ST,SHERIDAN,AR,72150
571,1310 S ROCK ST,SHERIDAN,AR,72150
572,1310 S ROCK ST STE 1,SHERIDAN,AR,72150
573,15775 HIGHWAY 16 E,SHIRLEY,AR,72153
574,713 S MAIN ST,STUTTGART,AR,72160
575,2001 S BUERKLE ST,STUTTGART,AR,72160
576,2022 S BUERKLE ST,STUTTGART,AR,72160
577,9200 CHICOT RD,LITTLE ROCK,AR,72209
578,2702 S MAIN ST,STUTTGART,AR,72160
579,12501 CANTRELL RD,LITTLE ROCK,AR,72223
580,2400 STATE FARM RD,TUCKER,AR,72168
581,17 EAGLE PARK,VILONIA,AR,72173
582,17 EAGLE PARK DR,VILONIA,AR,72173
583,209 S STATE ST,LITTLE ROCK,AR,72201
584,623 MAIN ST,LITTLE ROCK,AR,72201
585,1 CHILDRENS WAY,LITTLE ROCK,AR,72202
586,2500 E 6TH ST,LITTLE ROCK,AR,72202
587,1 CHILDRENS WAY # 107,LITTLE ROCK,AR,72202
588,1 CHILDRENS WAY # 624,LITTLE ROCK,AR,72202
589,1 CHILDRENS WAY # 664,LITTLE ROCK,AR,72202
590,800 MARSHALL ST,LITTLE ROCK,AR,72202
591,4301 W MARKHAM ST,LITTLE ROCK,AR,72205
592,1123 SO UNIVERISTY AVE,LITTLE ROCK,AR,72204
593,2000 S UNIVERSITY AVE,LITTLE ROCK,AR,72204
594,3024 S. UNIVERSITY,LITTLE ROCK,AR,72204
595,2500 EAST 6TH STREET,LITTLE ROCK,AR,72204
596,5917 W 12TH ST STE A,LITTLE ROCK,AR,72204
597,5917 W 12TH ST,LITTLE ROCK,AR,72204
598,5905 W 12TH ST,LITTLE ROCK,AR,72204
599,1123 S UNIVERSITY AVE,LITTLE ROCK,AR,72204
600,605 S CONROE MEDICAL DR,CONROE,TX,77304
601,3024 S UNIVERSITY AVE,LITTLE ROCK,AR,72204
602,3700 S UNIVERSITY AVE,LITTLE ROCK,AR,72204
603,10912 COLONEL GLENN RD,LITTLE ROCK,AR,72204
604,5100 TALLEY RD,LITTLE ROCK,AR,72204
605,10912 COLONEL GLENN RD STE 3500,LITTLE ROCK,AR,72204
606,10220 W MARKHAM ST,LITTLE ROCK,AR,72205
607,"4301 WEST MARKHAM, SLOT 624",LITTLE ROCK,AR,72205
608,10319 W MARKHAM ST STE 600,LITTLE ROCK,AR,72205
609,5500 WEST MARKHAM ST,LITTLE ROCK,AR,72205
610,10310 W MARKHAM,LITTLE ROCK,AR,72205
611,9601 LILE DRIVE,LITTLE ROCK,AR,72205
612,1225 BRECKENRIDGE DR,LITTLE ROCK,AR,72205
613,523 N UNIVERSITY AVENUE,LITTLE ROCK,AR,72205
614,820 N UNIVERSITY AVENUE,LITTLE ROCK,AR,72205
615,1225 BRECKENRIDGE DRIVE,LITTLE ROCK,AR,72205
616,619 BEECHWOOD ST,LITTLE ROCK,AR,72205
617,8500 W. MARKHAM ST.,LITTLE ROCK,AR,72205
618,814 NORTH UNIVERSITY AVE,LITTLE ROCK,AR,72205
619,413 N. UNIVERSITY AVE.,LITTLE ROCK,AR,72205
620,4301 W MARKHAM ST # 624,LITTLE ROCK,AR,72205
621,820 N. UNIVERSITY AVE,LITTLE ROCK,AR,72205
622,10025 W MARKHAM ST,LITTLE ROCK,AR,72205
623,1215 BRECKENRIDGE DR,LITTLE ROCK,AR,72205
624,1225 BRECKENRIDGE DR STE 101,LITTLE ROCK,AR,72205
625,805 N PALM ST,LITTLE ROCK,AR,72205
626,9700 W MARKHAM ST,LITTLE ROCK,AR,72205
627,10500 W MARKHAM ST,LITTLE ROCK,AR,72205
628,10310 W MARKHAM ST,LITTLE ROCK,AR,72205
629,10319 W MARKHAM ST,LITTLE ROCK,AR,72205
630,8801 W MARKHAM ST,LITTLE ROCK,AR,72205
631,8500 W MARKHAM ST STE 331,LITTLE ROCK,AR,72205
632,8500 W MARKHAM ST STE 100,LITTLE ROCK,AR,72205
633,7206 F ST,LITTLE ROCK,AR,72205
634,820 N UNIVERSITY AVE,LITTLE ROCK,AR,72205
635,413 N UNIVERSITY,LITTLE ROCK,AR,72205
636,5500 W MARKHAM ST,LITTLE ROCK,AR,72205
637,5326 W MARKHAM ST,LITTLE ROCK,AR,72205
638,2924 KAVANAUGH BLVD,LITTLE ROCK,AR,72205
639,4700 W MARKHAM ST,LITTLE ROCK,AR,72205
640,4815 W MARKHAM ST,LITTLE ROCK,AR,72205
641,10319 W MARKHAM ST STE 100,LITTLE ROCK,AR,72205
642,10319 W. MARKHAM ST.,LITTLE ROCK,AR,72205
643,300 S RODNEY PARHAM RD,LITTLE ROCK,AR,72205
644,300 S RODNEY PARHAM RD STE 3,LITTLE ROCK,AR,72205
645,200 S UNIVERSITY AVE,LITTLE ROCK,AR,72205
646,500 S UNIVERSITY AVE,LITTLE ROCK,AR,72205
647,4 SAINT VINCENT CIR,LITTLE ROCK,AR,72205
648,1 SAINT VINCENT CIR,LITTLE ROCK,AR,72205
649,1 SAINT VINCENT CIR STE 240,LITTLE ROCK,AR,72205
650,9601 LILE DR,LITTLE ROCK,AR,72205
651,9601 BAPTIST HEALTH DR STE 104,LITTLE ROCK,AR,72205
652,9601 LILE DR STE 240,LITTLE ROCK,AR,72205
653,9601 BAPTIST HEALTH DR STE 950,LITTLE ROCK,AR,72205
654,1515 ALDERSGATE RD,LITTLE ROCK,AR,72205
655,4301 W MARKHAM ST # 609,LITTLE ROCK,AR,72205
656,815 GALLATIN AVE,NASHVILLE,TN,37206
657,1801 RAHLING RD STE 101,LITTLE ROCK,AR,72223
658,3401 ATWOOD RD,LITTLE ROCK,AR,72206
659,721 EAST 21ST STREET,LITTLE ROCK,AR,72206
660,708 E DIXON RD,LITTLE ROCK,AR,72206
661,15208 BAUCH LN,LITTLE ROCK,AR,72206
662,5 VAN CIR,LITTLE ROCK,AR,72207
663,2002 NO UNIVERSITY,LITTLE ROCK,AR,72207
664,2002 N UNIVERSITY AVE,LITTLE ROCK,AR,72207
665,9 MOHAWK CIR,LITTLE ROCK,AR,72207
666,5307 KAVANAUGH BLVD,LITTLE ROCK,AR,72207
667,1808 N TAYLOR ST,LITTLE ROCK,AR,72207
668,2011 N VAN BUREN ST,LITTLE ROCK,AR,72207
669,5304 MABELVALE PIKE,LITTLE ROCK,AR,72209
670,8211 GEYER SPRINGS RD,LITTLE ROCK,AR,72209
671,6800 BASELINE RD,LITTLE ROCK,AR,72209
672,7622 MORRIS DRIVE,LITTLE ROCK,AR,72209
673,6500 BASELINE ROAD,LITTLE ROCK,AR,72209
674,5209 W 65TH ST,LITTLE ROCK,AR,72209
675,7301 BASELINE RD,LITTLE ROCK,AR,72209
676,6600 BASELINE RD,LITTLE ROCK,AR,72209
677,6226 BASELINE RD,LITTLE ROCK,AR,72209
678,6500 BASELINE RD,LITTLE ROCK,AR,72209
679,10101 MABELVALE PLAZA DR,LITTLE ROCK,AR,72209
680,9100 GEYER SPRINGS RD,LITTLE ROCK,AR,72209
681,13600 DAVID O. DODD,LITTLE ROCK,AR,72210
682,13600 DAVID O DODD RD,LITTLE ROCK,AR,72210
683,12120 COL GLENN RD,LITTLE ROCK,AR,72210
684,12822 CRYSTAL VALLEY RD,LITTLE ROCK,AR,72210
685,9801 STAGECOACH RD,LITTLE ROCK,AR,72210
686,13500 OTTER CREEK PKWY,LITTLE ROCK,AR,72210
687,315 N BOWMAN RD,LITTLE ROCK,AR,72211
688,11 OFFICE PARK DR,LITTLE ROCK,AR,72211
689,12018 CHENAL PKWY,LITTLE ROCK,AR,72211
690,315 N BOWMAN,LITTLE ROCK,AR,72211
691,1001 S BOWMAN ROAD,LITTLE ROCK,AR,72211
692,1512 MACON DR,LITTLE ROCK,AR,72211
693,215 N BOWMAN RD,LITTLE ROCK,AR,72211
694,315 N BOWMAN RD STE 5,LITTLE ROCK,AR,72211
695,11601 W MARKHAM ST,LITTLE ROCK,AR,72211
696,301 N SHACKLEFORD RD,LITTLE ROCK,AR,72211
697,2020 TOWN CENTER BLVD,KNOXVILLE,TN,37922
698,1001 S BOWMAN RD STE 1,LITTLE ROCK,AR,72211
699,UNIVERSITY OF TENNESSEE,MEMPHIS,TN,38163
700,11600 KANIS RD,LITTLE ROCK,AR,72211
701,904 AUTUMN RD STE 450,LITTLE ROCK,AR,72211
702,1111 S BOWMAN RD STE B5,LITTLE ROCK,AR,72211
703,10809 KANIS RD STE 500,LITTLE ROCK,AR,72211
704,5 OFFICE PARK DRIVE,LITTLE ROCK,AR,72211
705,12 OFFICE PARK DR,LITTLE ROCK,AR,72211
706,1701 CENTERVIEW DR,LITTLE ROCK,AR,72211
707,10809 EXECUTIVE CENTER DR,LITTLE ROCK,AR,72211
708,4590 WOODMERE BLVD,MONTGOMERY,AL,36106
709,110 BERGEN ST RM B854,NEWARK,NJ,07103
710,10809 EXECUTIVE CENTER DR STE 100,LITTLE ROCK,AR,72211
711,2737 PAULA DR,JONESBORO,AR,72404
712,4200 N RODNEY PARHAM RD STE 200,LITTLE ROCK,AR,72212
713,11327 ARCADE DR STE D,LITTLE ROCK,AR,72212
714,3801 WOODLAND HEIGHTS,LITTLE ROCK,AR,72212
715,"4200 N RODNEY PARHAM RD., SUITE 200",LITTLE ROCK,AR,72212
716,11211 CANTRELL SUITE 200,LITTLE ROCK,AR,72212
717,11211 CANTRELL RD,LITTLE ROCK,AR,72212
718,11300 CANTRELL RD STE 303,LITTLE ROCK,AR,72212
719,4220 N RODNEY PARHAM RD,LITTLE ROCK,AR,72212
720,4220 N RODNEY PARHAM RD STE 310,LITTLE ROCK,AR,72212
721,4220 N RODNEY PARHAM RD STE 103,LITTLE ROCK,AR,72212
722,835 3RD AVE SE,CEDAR RAPIDS,IA,52403
723,322 DENTAL SCIENCE BLDG S,IOWA CITY,IA,52242
724,3801 WOODLAND HEIGHTS RD STE 175,LITTLE ROCK,AR,72212
725,3603 DORAL DR,LITTLE ROCK,AR,72212
726,11811 HINSON RD,LITTLE ROCK,AR,72212
727,11811 HINSON RD STE 100,LITTLE ROCK,AR,72212
728,11715 RAINWOOD RD STE A2,LITTLE ROCK,AR,72212
729,11327 ARCADE DR,LITTLE ROCK,AR,72212
730,6020 RANCH DR,LITTLE ROCK,AR,72223
731,47 HALLEN CT,LITTLE ROCK,AR,72223
732,12400 CANTRELL RD STE 1,LITTLE ROCK,AR,72223
733,12501 CANTRELL ROAD,LITTLE ROCK,AR,72223
734,14114 TAYLOR LOOP RD,LITTLE ROCK,AR,72223
735,12921 CANTRELL RD SUITE 200,LITTLE ROCK,AR,72223
736,12921 CANTRELL RD,LITTLE ROCK,AR,72223
737,16003 CHANEL PARKWAY,LITTLE ROCK,AR,72223
738,6315 RANCH DR.,LITTLE ROCK,AR,72223
739,14000 CANTRELL RD,LITTLE ROCK,AR,72223
740,13239 CANTRELL ROAD,LITTLE ROCK,AR,72223
741,12921 CANTRELL RD.,LITTLE ROCK,AR,72223
742,12921 CANTRELL ROAD,LITTLE ROCK,AR,72223
743,11700 CANTRELL RD,LITTLE ROCK,AR,72223
744,12921 CANTRELL RD STE 301,LITTLE ROCK,AR,72223
745,16115 SAINT VINCENT WAY STE 110,LITTLE ROCK,AR,72223
746,14309 CANTRELL RD,LITTLE ROCK,AR,72223
747,14309 CANTRELL RD STE 6,LITTLE ROCK,AR,72223
748,14810 CANTRELL RD,LITTLE ROCK,AR,72223
749,14922 CANTRELL ROAD,LITTLE ROCK,AR,72223
750,14923 CANTRELL RD,LITTLE ROCK,AR,72223
751,28 BELLA ROSA CT,LITTLE ROCK,AR,72223
752,6020 RANCH DR STE C6,LITTLE ROCK,AR,72223
753,14810 CANTRELL RD STE 150,LITTLE ROCK,AR,72223
754,16524 CHENAL PKWY,LITTLE ROCK,AR,72223
755,17200 CHENAL PKWY,LITTLE ROCK,AR,72223
756,17200 CHENAL PKWY STE 250,LITTLE ROCK,AR,72223
757,16101 LAGRANDE DR,LITTLE ROCK,AR,72223
758,30 RAHLING CIR,LITTLE ROCK,AR,72223
759,5220 STUDER RD,LITTLE ROCK,AR,72223
760,8116 CANTRELL RD,LITTLE ROCK,AR,72227
761,7924 CANTRELL RD STE B,LITTLE ROCK,AR,72227
762,8028 CANTRELL RD,LITTLE ROCK,AR,72227
763,8315 CANTRELL ROAD,LITTLE ROCK,AR,72227
764,1415 BRECKENRIDGE DR,LITTLE ROCK,AR,72227
765,8315 CANTRELL RD STE 100,LITTLE ROCK,AR,72227
766,7924 CANTRELL RD,LR,AR,72227
767,8116 CANTRELL RD STE C,LITTLE ROCK,AR,72227
768,2300 ANDOVER CT,LITTLE ROCK,AR,72227
769,1415 BRECKENRIDGE DR STE B,LITTLE ROCK,AR,72227
770,1415 BRECKENRIDGE DR STE D,LITTLE ROCK,AR,72227
771,9501 N RODNEY PARHAM RD,LITTLE ROCK,AR,72227
772,104 E BOND AVE,WEST MEMPHIS,AR,72301
773,203 S AVALON ST,WEST MEMPHIS,AR,72301
774,110 DOVER RD,WEST MEMPHIS,AR,72301
775,300 W TYLER AVE,WEST MEMPHIS,AR,72301
776,900 N 7TH ST,WEST MEMPHIS,AR,72301
777,306 N 6TH ST,WEST MEMPHIS,AR,72301
778,104 EAST BOND,WEST MEMPHIS,AR,72301
779,102 EAST COOPER STREET,WEST MEMPHIS,AR,72301
780,108 DOVER RD,WEST MEMPHIS,AR,72301
781,715 CALVIN AVERY DRIVE,WEST MEMPHIS,AR,72301
782,715 CALVIN AVERY DR,WEST MEMPHIS,AR,72301
783,312 MISSOURI ST,WEST MEMPHIS,AR,72301
784,120 WEST TYLER,WEST MEMPHIS,AR,72301
785,200 S RHODES ST STE B,WEST MEMPHIS,AR,72301
786,715 CALVIN AVERY,WEST MEMPHIS,AR,72301
787,623 N MISSOURI ST,WEST MEMPHIS,AR,72301
788,215 E BOND AVE,WEST MEMPHIS,AR,72301
789,255 W BROADWAY ST,WEST MEMPHIS,AR,72301
790,126 W BOND AVE,WEST MEMPHIS,AR,72301
791,3710 E MAIN ST STE J,BLYTHEVILLE,AR,72315
792,4941 N WASHINGTON ST,FORREST CITY,AR,72335
793,204 N RHODES ST,WEST MEMPHIS,AR,72301
794,200 W TYLER AVE,WEST MEMPHIS,AR,72301
795,316 W TYLER AVE,WEST MEMPHIS,AR,72301
796,12964 NARCOOSSEE RD,ORLANDO,FL,32832
797,401 S GLOSTER ST STE 101,TUPELO,MS,38801
798,3313 N GRIMES ST,HOBBS,NM,88240
799,6405 STAGE RD,BARTLETT,TN,38134
800,646 E MAIN ST STE B,BLYTHEVILLE,AR,72315
801,501 N 6TH ST,BLYTHEVILLE,AR,72315
802,605 N 2ND ST,BLYTHEVILLE,AR,72315
803,525 N 2ND ST,BLYTHEVILLE,AR,72315
804,3710 E. MAIN,BLYTHEVILLE,AR,72315
805,507 HUTSON ST,BLYTHEVILLE,AR,72315
806,522 LUMERATE ST,BLYTHEVILLE,AR,72315
807,1036 CHICKASAWBA ST,BLYTHEVILLE,AR,72315
808,519 W MAIN ST,BLYTHEVILLE,AR,72315
809,1214 W MCHANEY DR,BLYTHEVILLE,AR,72315
810,4102 MEMORIAL DR,BLYTHEVILLE,AR,72315
811,3922 E MAIN ST STE D,BLYTHEVILLE,AR,72315
812,2624 HWY 42,CHERRY VALLEY,AR,72324
813,216 ARKANSAS ST,EARLE,AR,72331
814,4941 NORTH WASHINGTON/HIGHWAY1,FORREST CITY,AR,72335
815,1220 N DIVISION ST,FORREST CITY,AR,72335
816,1400 DALE BUMPERS DR,FORREST CITY,AR,72335
817,925 N WASHINGTON ST,FORREST CITY,AR,72335
818,420 E COOK ST,FORREST CITY,AR,72335
819,1008 W MAIN ST,MARVELL,AR,72366
820,4941 N WASHINGTON HWY 1,FORREST CITY,AR,72335
821,602 N WASHINGTON ST,FORREST CITY,AR,72335
822,663 OAKLAND AVE STE A,HELENA,AR,72342
823,408 PORTER STREET,HELENA,AR,72342
824,663A OAKLAND AVE,HELENA,AR,72342
825,118 HICKORY HILLS DR,HELENA,AR,72342
826,2654 HORSESHOE CIR,HUGHES,AR,72348
827,446 MILES ST,LEPANTO,AR,72354
828,102 W BROAD ST,LEPANTO,AR,72354
829,503 MCCLELLAN ST,LEPANTO,AR,72354
830,530 ATKINS BLVD,MARIANNA,AR,72360
831,530 WEST ATKINS BLVD,MRIANNA,AR,72360
832,23 W MISSISSIPPI ST,MARIANNA,AR,72360
833,303 BANCARIO,MARION,AR,72364
834,303 BANCARIO STE 11-12,MARION,AR,72364
835,303 BANCARIO STE 7,MARION,AR,72364
836,329 BLOCK STREET,MARION,AR,72364
837,200 PINE STREET,MARION,AR,72364
838,2551 HWY 77,MARION,AR,72364
839,122 BLOCK ST,MARION,AR,72364
840,122 BLOCK STREET,MARION,AR,72364
841,200 PINE ST,MARION,AR,72364
842,329 BLOCK ST,MARION,AR,72364
843,800 VISTA CV,MARION,AR,72364
844,107 N MAPLE ST,OSCEOLA,AR,72370
845,802 WEST KEISER STREET,OSCEOLA,AR,72370
846,107 N MAPLE,OSCEOLA,AR,72370
847,515 W LEE AVE,OSCEOLA,AR,72370
848,101 W PARKIN AVENUE,PARKIN,AR,72373
849,400 PLAZA,WEST HELENA,AR,72390
850,311 E MERRIMAN,WYNNE,AR,72396
851,2100 NORTH KILLOUGH,WYNNE,AR,72396
852,715 E. ELDRIDGE AVE,WYNNE,AR,72396
853,669 ADDISON DRIVE,WYNNE,AR,72396
854,715 EAST ELDRDIGE AVENUE,WYNNE,AR,72396
855,715 EAST ELDRIDGE AVENUE,WYNNE,AR,72396
856,2100 KILLOUGH RD N,WYNNE,AR,72396
857,669 ADDISON DR,WYNNE,AR,72396
858,311 MERRIMAN AVE E,WYNNE,AR,72396
859,620 JULIA AVE E,WYNNE,AR,72396
860,715 ELDRIDGE AVE E,WYNNE,AR,72396
861,808 HIGHWAY 64,WYNNE,AR,72396
862,2609 BROWNS LN,JONESBORO,AR,72401
863,900 SOUTHWEST DR STE D,JONESBORO,AR,72401
864,217 E CHERRY AVE,JONESBORO,AR,72401
865,811 WINDOVER RD STE B,JONESBORO,AR,72401
866,2007 E NETTLETON AVE STE C,JONESBORO,AR,72401
867,160 GREENE 721 RD STE 3,PARAGOULD,AR,72450
868,2239 S CARAWAY RD STE S,JONESBORO,AR,72401
869,811 WINDOVER RD STE A,JONESBORO,AR,72401
870,2605 BROWNS LN STE A,JONESBORO,AR,72401
871,900 SOUTHWEST DR STE C & D,JANESBORO,AR,72401
872,912-A OSLER,JONESBORO,AR,72401
873,1724 EXECUTIVE SQUIRE,JONESBORO,AR,72401
874,2906 BROWNS LANE,JONESBORO,AR,72401
875,2702 CULBERHOUSE,JONESBORO,AR,72401
876,906 OSLER DRIVE,JONESBORO,AR,72401
877,2605 BROWNS LN,JONESBORO,AR,72401
878,1810 E. HIGHLAND,JONESBORO,AR,72401
879,2603 BROWN'S LANE,JONESBORO,AR,72401
880,801 OSLER DRIVE,JONESBORO,AR,72401
881,1803 WOODSPRINGS RD,JONESBORO,AR,72401
882,3637 E. JOHNSON AVE.,JONESBORO,AR,72401
883,2203 STADIUM BLVD,JONESBORO,AR,72401
884,2606 BROWNS LANE,JONESBORO,AR,72401
885,1699 STADIUM BLVD SUITE I,JONESBORO,AR,72401
886,2000 FIELDER DRIVE,JONESBORO,AR,72401
887,906 ENTERPRISE DR.,JONESBORO,AR,72401
888,2316 RED WOLF BLVD,JONESBORO,AR,72401
889,1804 OLD GREENSBORO RD,JONESBORO,AR,72401
890,2000 FIELDERS RD,JONESBORO,AR,72401
891,820 E MATTHEWS AVE,JONESBORO,AR,72401
892,820 E MATTHEWS AVE STE B,JONESBORO,AR,72401
893,1107 E MATTHEWS AVE,JONESBORO,AR,72401
894,911 OSLER DR STE D,JONESBORO,AR,72401
895,910 PROFESSIONAL ACRES DR,JONESBORO,AR,72401
896,912 OSLER DR STE A,JONESBORO,AR,72401
897,2100 E MATTHEWS AVE,JONESBORO,AR,72401
898,1150 E MATTHEWS AVE,JONESBORO,AR,72401
899,912 OSLER DR,JONESBORO,AR,72401
900,2804 E MATTHEWS AVE,JONESBORO,AR,72401
901,2704 E NETTLETON AVE,JONESBORO,AR,72401
902,1503A MARKETPLACE DR,JONESBORO,AR,72401
903,1699 RED WOLF BLVD,JONESBORO,AR,72401
904,1699 RED WOLF BLVD STE 1,JONEBORO,AR,72401
905,521 SOUTHWEST DR STE B,JONESBORO,AR,72401
906,321 SOUTHWEST DR,JONESBORO,AR,72401
907,317 SOUTHWEST DR STE A,JONESBORO,AR,72401
908,460 SOUTHWEST DR STE B,JONESBORO,AR,72401
909,620 SOUTHWEST DR,JONESBORO,AR,72401
910,2819 LONGVIEW DR,JONESBORO,AR,72401
911,809 WINDOVER RD,JONESBORO,AR,72401
912,2812 HARRISBURG RD,JONESBORO,AR,72401
913,1817 EXECUTIVE SQ,JONESBORO,AR,72401
914,1724 EXECUTIVE SQ,JONESBORO,AR,72401
915,811 WINDOVER RD,JONESBORO,AR,72401
916,2500 BROWNS LN,JONESBORO,AR,72401
917,2500 BROWNS LN STE B,JONESBORO,AR,72401
918,2500 BROWNS LN STE A,JONESBORO,AR,72401
919,2206 FOWLER AVE,JONESBORO,AR,72401
920,1810 E HIGHLAND DR,JONESBORO,AR,72401
921,1115 WINDOVER RD,JONESBORO,AR,72401
922,1115 WINDOVER DRIVE,JONESBORO,AR,72401
923,2239 S CARAWAY RD,JONESBORO,AR,72401
924,2316 RED WOLF BLVD STE C,JONESBORO,AR,72401
925,900 SOUTHWEST DR,JONESBORO,AR,72401
926,2702 S CULBERHOUSE ST,JONESBORO,AR,72401
927,2516B ALEXANDER DR,JONESBORO,AR,72401
928,2919 BROWNS LN,JONESBORO,AR,72401
929,2600 BROWNS LN,JONESBORO,AR,72401
930,2606 BROWNS LN,JONESBORO,AR,72401
931,2603 BROWNS LN,JONESBORO,AR,72401
932,2850 BROWNS LN,JONESBORO,AR,72401
933,4803 E JOHNSON AVE,JONESBORO,AR,72401
934,906 ENTERPRISE DR,JONESBORO,AR,72401
935,910 ENTERPRISE DR,JONESBORO,AR,72401
936,2800 ENTERPRISE CV,JONESBORO,AR,72401
937,203 E BROADWAY ST,BOLIVAR,MO,65613
938,1810 E HIGHLAND,JONESBORO,AR,72401
939,614 E CLARK BLVD,MURFREESBORO,TN,37130
940,79 W ALEXANDRINE ST,DETROIT,MI,48201
941,3409 GATEWAY COVE,JONESBORO,AR,72404
942,6009 HIGHWAY 1 SOUTH,JONESBORO,AR,72404
943,2600 BROWNS LANE,JONESBORO,AR,72404
944,3206 ELMHURST DR,JONESBORO,AR,72404
945,808 N ILLINOIS ST,HARRISBURG,AR,72404
946,3113 ANNADALE CV.,JONESBORO,AR,72404
947,8471 HWY 49 N,BROOKLAND,AR,72417
948,8377 HWY 49 N,BROOKLAND,AR,72417
949,421 SW 2ND ST,CORNING,AR,72422
950,211 HOSPITAL DR,CORNING,AR,72422
951,1031 W. THIRD ST.,IMBODEN,AR,72434
952,1031 WEST THIRD ST,IMBODEN,AR,72434
953,1009 HIGHWAY 18,LAKE CITY,AR,72437
954,126 SOUTH MAIN STREET,LEACHVILLE,AR,72438
955,126 S.MAIN .,LEACHVILLE,AR,72438
956,3455 W STATE HIGHWAY 18,MANILA,AR,72442
957,322 HWY 18,MANILA,AR,72442
958,305 WEST DREW AVE.,MONETTE,AR,72447
959,305 WEST DREW AVE,MONETTE,AR,72447
960,1224 W COURT ST,PARAGOULD,AR,72450
961,916 W COURT ST,PARAGOULD,AR,72450
962,628 W GARLAND ST,PARAGOULD,AR,72450
963,707 LINWOOD DRIVE,PARAGOULD,AR,72450
964,622 WEST COURT STREET,PARAGOULD,AR,72450
965,2713 W KINGS HIGHWAY,PARAGOULD,AR,72450
966,2709 W KINGSHIGHWAY STE 4,PARAGOULD,AR,72450
967,777 BANNOCK ST,DENVER,CO,80204
968,2200 W KINGSHIGHWAY,PARAGOULD,AR,72450
969,1 MEDICAL DR,PARAGOULD,AR,72450
970,1105 W COURT ST,PARAGOULD,AR,72450
971,322 S 12TH ST,PARAGOULD,AR,72450
972,1205 W COURT ST,PARAGOULD,AR,72450
973,624 W. COURT ST.,PARGOULD,AR,72450
974,624 W COURT ST STE A,PARAGOULD,AR,72450
975,622 W COURT ST,PARAGOULD,AR,72450
976,624 W COURT ST,PARAGOULD,AR,72450
977,221 W MAIN ST,PARAGOULD,AR,72450
978,707 LINWOOD DR,PARAGOULD,AR,72450
979,416 W CHERRY ST,PIGGOTT,AR,72454
980,469 W MAIN ST,PIGGOTT,AR,72454
981,1041 HIGHWAY 67 NORTH,POCAHONTAS,AR,72455
982,301A COUNTRY CLUB RD,POCAHONTAS,AR,72455
983,412 W BROADWAY,POCAHONTAS,AR,72455
984,2654 THOMASVILLE RD,POCAHONTAS,AR,72455
985,151 COUNTRY CLUB RD,POCAHONTAS,AR,72455
986,151 COUNTRY CLUB ROAD,POCAHONTAS,AR,72455
987,412 W BROADWAY ST,POCAHONTAS,AR,72455
988,301 COUNTRY CLUB RD,POCAHONTAS,AR,72455
989,4155 N MOUNT JULIET RD,MOUNT JULIET,TN,37122
990,737 E 9TH,RECTOR,AR,72461
991,737 E 9TH ST,RECTOR,AR,72461
992,417 W MAIN ST,TRUMANN,AR,72472
993,143 HWY 463 N,TRUMANN,AR,72472
994,221B HWY 463 N,TRUMAN,AR,72472
995,1711 HWY 69 BLVD,TRUMANN,AR,72472
996,143 HWY 463 NORTH,TRUMANN,AR,72472
997,221 HIGHWAY 463 N,TRUMANN,AR,72472
998,405 HIGHWAY 463 N,TRUMANN,AR,72472
999,1121 W MAIN ST,WALNUT RIDGE,AR,72476
1000,413 SOUTHWEST THIRD,WALNUT RIDGE,AR,72476
1001,1045 W MAIN ST,WALNUT RIDGE,AR,72476
1002,1045 W MAIN ST STE A,WALNUT RIDGE,AR,72476
1003,413 SW THIRD ST,WALNUT RIDGE,AR,72476
1004,413 SW 3RD ST,WALNUT RIDGE,AR,72476
1005,8 HOSPITAL CIR,BATESVILLE,AR,72501
1006,350 E COLLEGE ST,BATESVILLE,AR,72501
1007,3401 HARRISON ST,BATESVILLE,AR,72501
1008,311 EAGLE MOUNTAIN BLVD,BATESVILLE,AR,72501
1009,201 VIRGINIA DRIVE,BATESVILLE,AR,72501
1010,311 EAGLE MTN BLVD,BATESVILLE,AR,72501
1011,350 COLLEGE AVE,BATESVILLE,AR,72501
1012,40 MITCHELL RD,BATESVILLE,AR,72501
1013,259 EAGLE MOUNTAIN BLVD,BATESVILLE,AR,72501
1014,635 E BOSWELL ST,BATESVILLE,AR,72501
1015,184 N 5TH ST,BATESVILLE,AR,72501
1016,1455 HARRISON ST,BATESVILLE,AR,72501
1017,1025 SIDNEY ST,BATESVILLE,AR,72501
1018,1985 HARRISON ST,BATESVILLE,AR,72501
1019,7 HOSPITAL CIR,BATESVILLE,AR,72501
1020,1700 HARRISON ST,BATESVILLE,AR,72501
1021,1095 24TH ST,BATESVILLE,AR,72501
1022,605 MARKET ST,HORSESHOE BEND,AR,72512
1023,1171 HIGHWAY 62 412,ASH FLAT,AR,72513
1024,579 HIGHWAY 62 W,ASH FLAT,AR,72513
1025,2860 PARK ST.,CALICO ROCK,AR,72519
1026,316 N MAIN ST STE B,CAVE CITY,AR,72521
1027,1474 HIGHWAY 62 412,HIGHLAND,AR,72542
1028,606 SEARCY ST,HEBER SPRINGS,AR,72543
1029,452 STONY RIDGE ROAD,HEBER SPRINGS,AR,72543
1030,303 W MOORE ST,HEBER SPRINGS,AR,72543
1031,1203 W MAIN ST,HEBER SPRINGS,AR,72543
1032,610 W MAIN ST,HEBER SPRINGS,AR,72543
1033,210 N 2ND ST,HEBER SPRINGS,AR,72543
1034,2217 HIGHWAY 110 W,HEBER SPRINGS,AR,72543
1035,708 W QUITMAN ST,HEBER SPRINGS,AR,72543
1036,309 SOUTHRIDGE BLVD STE D,HEBER SPRINGS,AR,72543
1037,1099 WILBURN RD,HEBER SPRINGS,AR,72543
1038,730 HWY 62 W,SALEM,AR,72554
1039,180 MAIN STREET,MAMMOTH SPRING,AR,72554
1040,1218 EAST MAIN ST,MELBOURNE,AR,72556
1041,1152 E MAIN ST,MELBOURNE,AR,72556
1042,1010 MAIN ST.,MELBOURNE,AR,72556
1043,410 COURT ST,MELBOURNE,AR,72556
1044,1510 EAST MAIN STREET,MOUNTAIN VIEW,AR,72560
1045,1510 E MAIN ST,MOUNTAIN VIEW,AR,72560
1046,1002 SUNSET VALLEY DR,MOUNTAIN VIEW,AR,72560
1047,1405 MCCOY DR,HARRISON,AR,72601
1048,1515 ROCK SPRINGS RD,HARRISON,AR,72601
1049,127 W INDUSTRIAL PARK RD,HARRISON,AR,72601
1050,120 W BOWER AVE,HARRISON,AR,72601
1051,2102 FIRST NATIONAL DR,HARRISON,AR,72601
1052,2102 1ST NATIONAL DR,HARRISON,AR,72601
1053,1313 HIGHWAY 62 65 N STE D,HARRISON,AR,72601
1054,1313 HWY 62 65 N STE D,HARRISON,AR,72601
1055,125 SISCO AVE,HARRISON,AR,72601
1056,2105 1ST NATIONAL DR,HARRISON,AR,72601
1057,1405 MCCOY DRIVE,HARRISON,AR,72601
1058,715 W SHERMAN AVE,HARRISON,AR,72601
1059,825 N MAIN ST STE 6,HARRISON,AR,72601
1060,825 N MAIN ST,HARRISON,AR,72601
1061,824 N SPRING ST,HARRISON,AR,72601
1062,520 N PINE ST,HARRISON,AR,72601
1063,315 W BOWER AVE,HARRISON,AR,72601
1064,500 N MAIN ST,HARRISON,AR,72601
1065,112 N WILLOW ST,HARRISON,AR,72601
1066,716 S PINE ST,HARRISON,AR,72601
1067,2105 FIRST NATIONAL DR,HARRISON,AR,72601
1068,2926 W HUNTSVILLE AVE,SPRINGDALE,AR,72762
1069,3996 N FRONTAGE RD,FAYETTEVILLE,AR,72703
1070,201 RICE ST,BERRYVILLE,AR,72616
1071,605 EUREKA AVE,BERRYVILLE,AR,72616
1072,605 EUREKA AVE STE C,BERRYVILLE,AR,72616
1073,303 EUREKA AVE,BERRYVILLE,AR,72616
1074,208 N MAIN ST,BERRYVILLE,AR,72616
1075,801 W TRIMBLE AVE,BERRYVILLE,AR,72616
1076,HIGHWAY 178 & 508 HILLCREST,BULL SHOALS,AR,72619
1077,508 HILLCREST AVE,BULL SHOALS,AR,72619
1078,508 HILLCREST ST,BULL SHOALS,AR,72619
1079,1629 HARDING BLVD,COTTER,AR,72626
1080,1 PARK DR,HOLIDAY ISLAND,AR,72631
1081,4052 E VAN BUREN,EUREKA SPRINGS,AR,72632
1082,808 MAIN ST.,FLIPPIN,AR,72634
1083,1103 W MAIN ST,GREEN FOREST,AR,72638
1084,200 WHITE AVE,GREEN FOREST,AR,72638
1085,340 BUCKEYE DR,HARRIET,AR,72639
1086,201 WEST MAIN ST.,MARSHALL,AR,72650
1087,201 WEST MAIN,MARSHALL,AR,72650
1088,400 S COLLEGE ST STE 4,MOUNTAIN HOME,AR,72653
1089,26 GREEN VALLEY DR,MOUNTAIN HOME,AR,72653
1090,330 HIGHWAY 5 NORTH,MOUNTAIN HOME,AR,72653
1091,114 DYER STREET,MOUNTAIN HOME,AR,72653
1092,206 SOUTH COLLEGE ST,MTN HOME,AR,72653
1093,1100 HIGHWAY 201 N,MOUNTAIN HOME,AR,72653
1094,500 HOSPITAL DR,MOUNTAIN HOME,AR,72653
1095,603 HOSPITAL DR,MOUNTAIN HOME,AR,72653
1096,330 HIGHWAY 5 N STE 10,MOUNTAIN HOME,AR,72653
1097,727 N CARDINAL DR,MOUNTAIN HOME,AR,72653
1098,250 BUCHER DRIVE,MOUNTAIN HOME,AR,72653
1099,400 S COLLEGE ST,MOUNTAIN HOME,AR,72653
1100,137 S COLLEGE ST,MOUNTAIN HOME,AR,72653
1101,301 S COLLEGE ST,MOUNTAIN HOME,AR,72653
1102,403 E 7TH ST,MOUNTAIN HOME,AR,72653
1103,320 E 7TH ST,MOUNTAIN HOME,AR,72653
1104,26 GREEN VALLEY DRIVE,MOUNTAIN HOME,AR,72653
1105,358 EAST VALLEY STREET,YELLVILLE,AR,72687
1106,640 N GARLAND AVE,FAYETTEVILLE,AR,72701
1107,1874 N HUNTERS RIDGE SUITE 2,FAYETTEVILLE,AR,72701
1108,1898 NORTH HUNTERS RIDGE,FAYETTEVILLE,AR,72701
1109,179 N CHURCH AVE,FAYETTEVILLE,AR,72701
1110,640 N GARLAND AVE # 104,FAYETTEVILLE,AR,72701
1111,1826 N. CROSSOVER ROAD,FAYETTEVILLE,AR,72701
1112,1874 N HUNTERS RDG,FAYETTEVILLE,AR,72701
1113,1874 N HUNTERS RDG STE 2,FAYETTEVILLE,AR,72701
1114,1874 N HUNTERS RDG STE 1,FAYETTEVILLE,AR,72701
1115,106 N LOCUST AVE,FAYETTEVILLE,AR,72701
1116,100 N COLLEGE AVE # 160,FAYETTEVILLE,AR,72701
1117,891 N MAIN AVE,FAYETTEVILLE,AR,72701
1118,2421 N CENTER ST,FAYETTEVILLE,AR,72701
1119,2646 E JOYCE BLVD STE 1,FAYETTEVILLE,AR,72703
1120,2827 E MILLENNIUM PL STE 3,FAYETTEVILLE,AR,72703
1121,1100 NORTH COLLEGE AVE.,FAYETTEVILLE,AR,72703
1122,745 E. JOYCE,FAYETTEVILLE,AR,72703
1123,2646 E JOYCE BOULEVARD SUITE #1,FAYETTEVILLE,AR,72703
1124,2386 N GREEN ACRES RD,FAYETTEVILLE,AR,72703
1125,2538 E. JOYCE BLVD,FAYETTEVILLE,AR,72703
1126,2680 EAST JOYCE BLVD,FAYETTEVILLE,AR,72703
1127,1438 E. AUGUSTINE LN,FAYETTEVILLE,AR,72703
1128,1845 GREEN ACRES ROAD,FAYETTEVILLE,AR,72703
1129,1607 E RAINFOREST RD,FAYETTEVILLE,AR,72703
1130,163 VAN ASHE LOOP,FAYETTEVILLE,AR,72703
1131,3533 NORTH SHILOH DRIVE SUITE 3,FAYETTEVILLE,AR,72703
1132,162 E SUNBRIDGE DR,FAYETTEVILLE,AR,72703
1133,1100 N. COLLEGE AVE,FAYETTEVILLE,AR,72703
1134,3394 N FUTRALL DR,FAYETTEVILLE,AR,72703
1135,2386 N GREEN ACRES,FAYETTEVILLE,AR,72703
1136,245 VAN ASCHE DRIVE,FAYETTEVILLE,AR,72703
1137,1100 N COLLEGE AVE,FAYETTEVILLE,AR,72703
1138,1831 N GREEN ACRES RD,FAYETTEVILLE,AR,72703
1139,1845 N GREEN ACRES RD,FAYETTEVILLE,AR,72703
1140,2001 N GREEN ACRES RD,FAYETTEVILLE,AR,72703
1141,2017 N GREEN ACRES RD,FAYETTEVILLE,AR,72703
1142,2025 N GREEN ACRES RD,FAYETTEVILLE,AR,72703
1143,3800 ROGERS AVE STE 3,FORT SMITH,AR,72903
1144,300 S METRO PKWY,ROGERS,AR,72758
1145,2101 N GREEN ACRES RD,FAYETTEVILLE,AR,72703
1146,1915 GREEN ACRES RD,FAYETTEVILLE,AR,72703
1147,93 W COLT SQUARE DR STE 6,FAYETTEVILLE,AR,72703
1148,2861 N COLLEGE AVE,FAYETTEVILLE,AR,72703
1149,12 E APPLEBY RD,FAYETTEVILLE,AR,72703
1150,152 E APPLEBY RD,FAYETTEVILLE,AR,72703
1151,615 E APPLEBY RD,FAYETTEVILLE,AR,72703
1152,2131 N CROSSOVER RD,FAYETTEVILLE,AR,72703
1153,3089 E MISSION BLVD,FAYETTEVILLE,AR,72703
1154,3215 N NORTHHILLS BLVD,FAYETTEVILLE,AR,72703
1155,2680 E JOYCE BLVD,FAYETTEVILLE,AR,72703
1156,2662 E JOYCE BLVD STE 1,FAYETTEVILLE,AR,72703
1157,2538 E JOYCE BLVD,FAYETTEVILLE,AR,72703
1158,390 E LONGVIEW ST,FAYETTEVILLE,AR,72703
1159,2630 E CITIZENS DR STE 8,FAYETTEVILLE,AR,72703
1160,2630 E CITIZENS DR,FAYETTEVILLE,AR,72703
1161,4102 N MALL AVE,FAYETTEVILLE,AR,72703
1162,4102 N MALL AVE STE 101,FAYETTEVILLE,AR,72703
1163,1438 E. AUGUSTINE LANE,FAYETTEVILLE,AR,72703
1164,1438 E AUGUSTINE LN STE 1,FAYETTEVILLE,AR,72703
1165,245 W VAN ASCHE DR,FAYETTEVILLE,AR,72703
1166,163 W VAN ASCHE LOOP,FAYETTEVILLE,AR,72703
1167,4375 N VANTAGE DR,FAYETTEVILLE,AR,72703
1168,2901 E ZION RD,FAYETTEVILLE,AR,72703
1169,2901 ZION RD,FAYETTEVILLE,AR,72703
1170,2907 E JOYCE BLVD,FAYETTEVILLE,AR,72703
1171,3333 S PINNACLE HILLS PKWY STE 104,ROGERS,AR,72758
1172,3782 N FRONT ST,FAYETTEVILLE,AR,72703
1173,1708 E JOYCE BLVD,FAYETTEVILLE,AR,72703
1174,3533 N SHILOH DR STE 3,FAYETTEVILLE,AR,72703
1175,3533 N SHILOH DR,FAYETTEVILLE,AR,72703
1176,1607 E RAINFOREST DR,FAYETTEVILLE,AR,72703
1177,637 E JOYCE BLVD,FAYETTEVILLE,AR,72703
1178,1680 E JOYCE BLVD,FAYETTEVILLE,AR,72703
1179,745 E JOYCE BLVD,FAYETTEVILLE,AR,72703
1180,2827 E MILLENNIUM PL STE 1,FAYETTEVILLE,AR,72703
1181,3119 E MISSION BLVD,FAYETTEVILLE,AR,72703
1182,800 SE PLAZA AVE STE 2,BENTONVILLE,AR,72712
1183,390 4TH ST N,SAINT PETERSBURG,FL,33701
1184,10601 SEMINOLE BLVD,LARGO,FL,33778
1185,3333 S PINNACLE HILLS PKWY STE 140,ROGERS,AR,72758
1186,50 E MAIN ST STE 3,LITTLE FALLS,NJ,07424
1187,2125 E MAIN ST STE 13,SILOAM SPRINGS,AR,72761
1188,2868 W MARTIN LUTHER KING BLVD,FAYETTEVILLE,AR,72704
1189,3500 BLACK FOREST DRVIE,FAYETTEVILLE,AR,72704
1190,2801 MAIN DRIVE,FAYETTEVILLE,AR,72704
1191,2801 MAIN DR,FAYETTEVILLE,AR,72704
1192,3484 W WEDINGTON DR,FAYETTEVILLE,AR,72704
1193,3500 WEST BLACK FOREST DRIVE,FAYETTEVILLE,AR,72704
1194,375 N RUPPLE RD,FAYETTEVILLE,AR,72704
1195,4501 W WEDGE DR,FAYETTEVILLE,AR,72704
1196,3162 W MARTIN LUTHER KING BLVD,FAYETTEVILLE,AR,72704
1197,1188 N SALEM RD,FAYETTEVILLE,AR,72704
1198,1188 N SALEM RD STE 10,FAYETTEVILLE,AR,72704
1199,2701 SE G ST,BENTONVILLE,AR,72712
1200,312 S MAIN ST,BENTONVILLE,AR,72712
1201,1616 BELLA VISTA RD,BENTONVILLE,AR,72712
1202,306 NE BLAKE ST STE 3,BENTONVILLE,AR,72712
1203,609 SW 8TH STREET,BENTONVILLE,AR,72712
1204,1001 SE 28TH ST,BENTONVILLE,AR,72712
1205,2618 SE J ST SUITE 6,BENTONVILLE,AR,72712
1206,811 SE 28TH ST.,BENTONVILLE,AR,72712
1207,122 MIDTOWN CENTER,BENTONVILLE,AR,72712
1208,1510 SE 14TH ST.,BENTONVILLE,AR,72712
1209,1603 SW REGIONAL AIRPORT BLVD.,BENTONVILLE,AR,72712
1210,801 SW REGIONAL AIRPORT BLVD,BENTONVILLE,AR,72712
1211,1101 NORTH EAST MCCLAIN ROAD,BENTONVILLE,AR,72712
1212,1400 SE WALTON BLVD STE 10,BENTONVILLE,AR,72712
1213,1400 SE WALTON BLVD STE 42,BENTONVILLE,AR,72712
1214,1001 SE 28TH ST STE 7,BENTONVILLE,AR,72712
1215,3000 MEDICAL CENTER PKWY,BENTONVILLE,AR,72712
1216,1400 SE WALTON BLVD,BENTONVILLE,AR,72712
1217,3109 N WALTON BLVD,BENTONVILLE,AR,72712
1218,1616 BELLA VISTA RD # 9566,BENTONVILLE,AR,72712
1219,1133 N WALTON BLVD STE A,BENTONVILLE,AR,72712
1220,811 SE 28TH ST,BENTONVILLE,AR,72712
1221,911 N WALTON BLVD,BENTONVILLE,AR,72712
1222,905 NW 8TH ST,BENTONVILLE,AR,72712
1223,400 SW RAMSEY LN,BENTONVILLE,AR,72712
1224,3101 SE 14TH ST,BENTONVILLE,AR,72712
1225,210 NW A ST,BENTONVILLE,AR,72712
1226,2522 S PINNACLE HILLS PKWY STE 102,ROGERS,AR,72758
1227,306 NE BLAKE ST STE 1,BENTONVILLE,AR,72712
1228,3301 S WALTON BLVD STE 19,BENTONVILLE,AR,72712
1229,1909 E CENTRAL AVE,BENTONVILLE,AR,72712
1230,2401 GILLHAM RD,KANSAS CITY,MO,64108
1231,104 S WALTON BLVD,BENTONVILLE,AR,72712
1232,900 SE 5TH ST STE 22T,BENTONVILLE,AR,72712
1233,3301 S WALTON BLVD,BENTONVILLE,AR,72712
1234,1510 SE 14TH ST,BENTONVILLE,AR,72712
1235,800 SE PLAZA AVE,BENTONVILLE,AR,72712
1236,701 NW MCNELLY RD STE 13,BENTONVILLE,AR,72712
1237,1 PROFESSIONAL DR,BELLA VISTA,AR,72714
1238,2690 BELLA VISTA WAY,BELLA VISTA,AR,72714
1239,1493 FOREST HILLS BLVD,BELLA VISTA,AR,72715
1240,600 WEST LANCASHIRE BLVD,BELLA VISTA,AR,72715
1241,600 W LANCASHIRE BLVD,BELLA VISTA,AR,72715
1242,260 S GLENEAGLE DR STE C,CAVE SPRINGS,AR,72718
1243,431 W CENTERTON BLVD,CENTERTON,AR,72719
1244,880 EAST CENTERTON BLVD,CENTERTON,AR,72719
1245,807 WEST CENTERTON BLVD,CENTERTON,AR,72719
1246,310 E CENTERTON BLVD,CENTERTON,AR,72719
1247,470 TORINO PL,CENTERTON,AR,72719
1248,4955 S NATIONAL AVE UNIT A,SPRINGFIELD,MO,65810
1249,807 W CENTERTON BLVD,CENTERTON,AR,72719
1250,19 WEST MAIN ST,FARMINGTON,AR,72730
1251,181 W MAIN ST,FARMINGTON,AR,72730
1252,19 W MAIN ST,FARMINGTON,AR,72730
1253,82 SOUTHWINDS RD,FARMINGTON,AR,72730
1254,125 NORTH RUST AVE,GENTRY,AR,72734
1255,304 E MAIN,GENTRY,AR,72734
1256,304 EAST MAIN,GENTRY,AR,72734
1257,125 N RUST AVE,GENTRY,AR,72734
1258,1102 JACKSON ST SW,GRAVETTE,AR,72736
1259,1102 JACKSON SW,GRAVETTE,AR,72736
1260,111 MAIN ST SE,GRAVETTE,AR,72736
1261,3905 N. MAIN ST,HINDSVILLE,AR,72738
1262,409 CHURCH AVENUE,HUNTSVILLE,AR,72740
1263,302 NORTH HUGHES STREET,HUNTSVILLE,AR,72740
1264,932 N GASKILL ST,HUNTSVILLE,AR,72740
1265,945 N GASKILL ST,HUNTSVILLE,AR,72740
1266,105 WEST PARK AVE,LINCOLN,AR,72744
1267,105 W. PARK ST,LINCOLN,AR,72744
1268,125B S BLOOMINGTON ST,LOWELL,AR,72745
1269,1815 BILLIE ACRES PL,LOWELL,AR,72745
1270,125 E PRESIDENTIAL DRIVE,LOWELL,AR,72745
1271,125 A PRESIDENTIAL DR,LOWEL,AR,72745
1272,2355 TX-36,SEALY,TX,77474
1273,519 LATHAM DR,LOWELL,AR,72745
1274,1553 S MASON RD,KATY,TX,77450
1275,1300 SLACK ST,PEA RIDGE,AR,72751
1276,833 N CURTIS AVE,PEA RIDGE,AR,72751
1277,128 N MOCK ST,PRAIRIE GROVE,AR,72753
1278,401 E BUCHANAN,PRAIRIE GROVE,AR,72753
1279,1121 E HERITAGE PKWY,PRAIRIE GROVE,AR,72753
1280,200 N 24TH ST,ROGERS,AR,72756
1281,620 N 13TH ST,ROGERS,AR,72756
1282,4404 W WALNUT ST,ROGERS,AR,72756
1283,802 N DIXIELAND RD,ROGERS,AR,72756
1284,1310 W WALNUT ST STE C,ROGERS,AR,72756
1285,14533 E HIGHWAY 12,ROGERS,AR,72756
1286,1012 W POPLAR ST,ROGERS,AR,72756
1287,214 SOUTH THIRD STREET,ROGERS,AR,72756
1288,201 N 34TH,ROGERS,AR,72756
1289,203 NORTH 24TH STREET,ROGERS,AR,72756
1290,4404 W. WALNUT,ROGERS,AR,72756
1291,2886 W WALNUT ST,ROGERS,AR,72756
1292,201 N 34TH ST,ROGERS,AR,72756
1293,3920 W WALNUT ST,ROGERS,AR,72756
1294,203 N 24TH ST STE D,ROGERS,AR,72756
1295,500 N DIXIELAND RD,ROGERS,AR,72756
1296,540 NORTH 13TH STREET,ROGERS,AR,72756
1297,1310 W WALNUT ST,ROGERS,AR,72756
1298,540 N 13TH ST,ROGERS,AR,72756
1299,805 N 20TH PL,ROGERS,AR,72756
1300,806 N 20TH PL,ROGERS,AR,72756
1301,1109 W CHESTNUT ST,ROGERS,AR,72756
1302,805 N 20TH PL STE 2,ROGERS,AR,72756
1303,2301 W WALNUT ST,ROGERS,AR,72756
1304,815 W PERSIMMON ST,ROGERS,AR,72756
1305,1107 WEST ELM ST,ROGERS,AR,72756
1306,1107 W ELM ST,ROGERS,AR,72756
1307,1104 POPLAR PL,ROGERS,AR,72756
1308,624 W POPLAR ST,ROGERS,AR,72756
1309,8385 ORCHARD ST,ROGERS,AR,72756
1310,110 S 20TH ST,ROGERS,AR,72758
1311,3612 SOUTHERN HILLS BLVD,ROGERS,AR,72758
1312,5305 W VILLAGE PKWY STE 12,ROGERS,AR,72758
1313,701 S HORSEBARN RD STE 102,ROGERS,AR,72758
1314,3710 SOUTHERN HILLS BLVD STE 700,ROGERS,AR,72758
1315,5501 W PINNACLE POINTE DR STE 1,ROGERS,AR,72758
1316,604 SOUTH 52ND ST,ROGERS,AR,72758
1317,508 S. 52ND STREET,ROGERS,AR,72758
1318,2102 W PLEASANT GROVE RD,ROGERS,AR,72758
1319,5518 W WALSH LN,ROGERS,AR,72758
1320,1935 MEDICAL DISTRICT DR,DALLAS,TX,75235
1321,300 S 20TH ST,ROGERS,AR,72758
1322,3207 ARAPAHO DR,ROGERS,AR,72758
1323,6111 W NOBLE ST,ROGERS,AR,72758
1324,2522 PINNACLE HILLS PKWY,ROGERS,AR,72758
1325,4001 W FINANCIAL PKWY,ROGERS,AR,72758
1326,4003 W FINANCIAL PKWY,ROGERS,AR,72758
1327,3903 W FINANCIAL PKWY,ROGERS,AR,72758
1328,4001 W FINANCIAL PARKWAY,ROGERS,AR,72758
1329,4805 W HIGHLAND KNOLLS RD STE 300,ROGERS,AR,72758
1330,513 S DODSON RD APT Q4,ROGERS,AR,72758
1331,3608 SOUTHERN HILLS BLVD,ROGERS,AR,72758
1332,5215 W VILLAGE PKWY,ROGERS,AR,72758
1333,5417 PINNACLE POINT DR STE 200,ROGERS,AR,72758
1334,5417 PINNACLE POINT,ROGERS,AR,72758
1335,5508 PINNACLE POINT DR,ROGERS,AR,72758
1336,5204 VILLAGE PKWY STE 14,ROGERS,AR,72758
1337,2109 S 54TH ST,ROGERS,AR,72758
1338,1003 HORSEBARN RD,ROGERS,AR,72758
1339,1003 S HORSEBARN RD,ROGERS,AR,72758
1340,2109 S 54TH ST STE 1,ROGERS,AR,72758
1341,2109 SOUTH 54TH STREET,ROGERS,AR,72758
1342,2603 W PLEASANT GROVE RD STE 111,ROGERS,AR,72758
1343,402 S METRO PKWY,ROGERS,AR,72758
1344,508 S 52ND ST,ROGERS,AR,72758
1345,604 S 52ND ST,ROGERS,AR,72758
1346,591 S HORSEBARN RD STE 100,ROGERS,AR,72758
1347,591 S HORSEBARN RD,ROGERS,AR,72758
1348,625 19TH ST S,BIRMINGHAM,AL,35233
1349,591 HORSEBARN RD #100,ROGERS,AR,72758
1350,591 HORSEBARN RD,ROGERS,AR,72758
1351,3718 S PINNACLE HILLS PKWY,ROGERS,AR,72758
1352,5518 WALSH LN,ROGERS,AR,72758
1353,3333 S PINNACLE HILLS PKWY,ROGERS,AR,72758
1354,614 E EMMA AVE STE 300,SPRINGDALE,AR,72764
1355,3710 W SOUTHERN HILLS BLVD STE 700,ROGERS,AR,72758
1356,100 STARLITE DR,KINGFISHER,OK,73750
1357,5417 PINNACLE POINT DR,ROGERS,AR,72758
1358,1300 N PROGRESS AVE,SILOAM SPRINGS,AR,72761
1359,740 S HOLLY ST,SILOAM SPRINGS,AR,72761
1360,3105 HIGHWAY 412 E,SILOAM SPRINGS,AR,72761
1361,960 B SOUTH MT OLIVE STREET,SILOAM SPRINGS,AR,72761
1362,1675 B W JEFFERSON,SILOAM SPRINGS,AR,72761
1363,1675 W JEFFERSON,SILOAN SPRINGS,AR,72761
1364,3105 EAST HWY 412,SILOAM SPRINGS,AR,72761
1365,460 S HOLLY,SILOAM SPRINGS,AR,72761
1366,460 S HOLLY ST,SILOAM SPRINGS,AR,72761
1367,113 N BROADWAY ST,SILOAM SPRINGS,AR,72761
1368,509 S MOUNT OLIVE ST,SILOAM SPRINGS,AR,72761
1369,960 S MOUNT OLIVE ST,SILOAM SPRINGS,AR,72761
1370,2125 E MAIN ST,SILOAM SPRINGS,AR,72761
1371,3860 HIGHWAY 412 E,SILOAM,AR,72761
1372,3860 HIGHWAY 412 E,SILOAM SPRINGS,AR,72761
1373,2500 30TH ST STE 204,BOULDER,CO,80301
1374,7247 BROOKLYN AVE,SPRINGDALE,AR,72762
1375,900 SOUTH POWELL STREET,SPRINGDALE,AR,72762
1376,"1521 EXECUTIVE PLACE, SUITE A",SPRINGDALE,AR,72762
1377,7058 W SUNSET AVE,SPRINGDALE,AR,72762
1378,4870 ELM SPRINGS RD STE B,SPRINGDALE,AR,72762
1379,1521 EXECUTIVE PL STE A,SPRINGDALE,AR,72762
1380,5320 W SUNSET AVE,SPRINGDALE,AR,72762
1381,4224 W SUNSET AVE,SPRINGDALE,AR,72762
1382,3617 W SUNSET AVE,SPRINGDALE,AR,72762
1383,4224 W SUNSET AVE SUITE B,SPRINGDALE,AR,72762
1384,1350 S GUTENSOHN RD,SPRINGDALE,AR,72762
1385,6801 ISAACS ORCHARD RD,SPRINGDALE,AR,72762
1386,6879 ISAACS ORCHARD RD STE B,SPRINGDALE,AR,72762
1387,6815 ISAACS ORCHARD RD STE A,SPRINGDALE,AR,72762
1388,6815 ISAACS ORCHARD RD,SPRINGDALE,AR,72762
1389,6801 ISAACS ORCHARD RD STE 101,SPRINGDALE,AR,72762
1390,2707 W HUNTSVILLE AVE,SPRINGDALE,AR,72762
1391,2709 W HUNTSVILLE AVE,SPRINGDALE,AR,72762
1392,390 4TH ST N,ST PETERSBURG,FL,33701
1393,2890 W HUNTSVILLE AVE,SPRINGDALE,AR,72762
1394,1308 S PLEASANT ST,SPRINGDALE,AR,72764
1395,418 W MAPLE AVE,SPRINGDALE,AR,72764
1396,711 QUANDT,SPRINGDALE,AR,72764
1397,610 E. EMMA AVENUE,SPRINGDALE,AR,72764
1398,2702 AMERICAN STREET,SPRINGDALE,AR,72764
1399,712 W MEADOW AVE,SPRINGDALE,AR,72764
1400,614 E EMMA AVE,SPRINGDALE,AR,72764
1401,920 W EMMA AVE,SPRINGDALE,AR,72764
1402,601 W MAPLE AVE,SPRINGDALE,AR,72764
1403,609 W MAPLE AVE,SPRINGDALE,AR,72764
1404,711 QUANDT AVE,SPRINGDALE,AR,72764
1405,1301 E ROBINSON AVE STE B5,SPRINGDALE,AR,72764
1406,1333 ARAPAHO AVE,SPRINGDALE,AR,72764
1407,2702 AMERICAN ST,SPRINGDALE,AR,72764
1408,2111 S OLD MISSOURI RD,SPRINGDALE,AR,72764
1409,10662 UNION STAR CHURCH RD,WEST FORK,AR,72774
1410,439 N CENTENNIAL AVE,WEST FORK,AR,72774
1411,1501 W C ST,RUSSELLVILLE,AR,72801
1412,1500 W MAIN ST,RUSSELLVILLE,AR,72801
1413,319 S GLENWOOD AVE,RUSSELLVILLE,AR,72801
1414,319 S GLENWOOD,RUSSELLVILLE,AR,72801
1415,104 N UTAH,RUSSELLVILLE,AR,72801
1416,1700 WEST C PLACE,RUSSELLVILLE,AR,72801
1417,3105 W MAIN ST,RUSSELLVILLE,AR,72801
1418,2621 W MAIN ST,RUSSELLVILLE,AR,72801
1419,1610 W C PL,RUSSELLVILLE,AR,72801
1420,1919 W MAIN ST,RUSSELLVILLE,AR,72801
1421,104 N UTAH AVE,RUSSELLVILLE,AR,72801
1422,2112 W MAIN ST,RUSSELLVILLE,AR,72801
1423,1702 W C PL,RUSSELLVILLE,AR,72801
1424,1700 W C PL,RUSSELLVILLE,AR,72801
1425,200 N PHOENIX AVE,RUSSELLVILLE,AR,72801
1426,110 S INGLEWOOD AVE,RUSSELLVILLE,AR,72801
1427,800 W B ST,RUSSELLVILLE,AR,72801
1428,402 E PARKWAY DR,RUSSELLVILLE,AR,72801
1429,150 S TULSA AVE,RUSSELLVILLE,AR,72801
1430,500 LENTZ DR STE 40,MADISON,TN,37115
1431,2405 N COURTENAY PKWY STE 105,MERRITT ISLAND,FL,32953
1432,2203 E PARKWAY DR,RUSSELLVILLE,AR,72802
1433,2015 W PARKWAY DR,RUSSELLVILLE,AR,72802
1434,230 N ELMIRA AVE,RUSSELLVILLE,AR,72802
1435,2913 S 74TH ST,FORT SMITH,AR,72903
1436,406 N CHURCH ST,ATKINS,AR,72823
1437,307 E MAIN ST,CLARKSVILLE,AR,72830
1438,105 N CRAVENS ST,CLARKSVILLE,AR,72830
1439,1101 E POPLAR ST,CLARKSVILLE,AR,72830
1440,1619 W MAIN ST STE A,CLARKSVILLE,AR,72830
1441,1619 W MAIN,CLARKSVILLE,AR,72830
1442,1101 POPLAR ST,CLARKSVILLE,AR,72830
1443,1126 S ROGERS ST,CLARKSVILLE,AR,72830
1444,1204 S ROGERS ST,CLARKSVILLE,AR,72830
1445,1408 E MAIN ST,CLARKSVILLE,AR,72830
1446,109 EAST 9TH,DANVILLE,AR,72833
1447,105 E 10TH ST,DANVILLE,AR,72833
1448,2320 STATE HIGHWAY 7 N,DARDANELLE,AR,72834
1449,116 S FRONT ST,DARDANELLE,AR,72834
1450,2533 STATE HIGHWAY 22 W,DARDANELLE,AR,72834
1451,7050 SR 7 NORTH,DOVER,AR,72837
1452,20 EAST SHORT MOUNTAIN STREET,PARIS,AR,72855
1453,15 WEST MAIN,PARIS,AR,72855
1454,15 W MAIN ST,PARIS,AR,72855
1455,20 E SHORT MOUNTAIN ST,PARIS,AR,72855
1456,311 PENNINGTON DRIVE,PARIS,AR,72855
1457,7146 SR 247,POTTSVILLE,AR,72858
1458,1021 S 21ST ST,FORT SMITH,AR,72901
1459,400 S 18TH ST,FORT SMITH,AR,72901
1460,109 NO. 17TH,FORT SMITH,AR,72901
1461,520 SO. 14TH STREET,FORT SMITH,AR,72901
1462,603 LEXINGTON AVE,FORT SMITH,AR,72901
1463,2701 N I ST,FORT SMITH,AR,72901
1464,109 N 17TH ST,FORT SMITH,AR,72901
1465,304 N GREENWOOD AVE,FORT SMITH,AR,72901
1466,609 S 21ST ST,FORT SMITH,AR,72901
1467,807 S 21ST ST,FORT SMITH,AR,72901
1468,1021 SOUTH 21ST ST,FORT SMITH,AR,72901
1469,520 S 14TH ST,FORT SMITH,AR,72901
1470,417 S 16TH ST,FORT SMITH,AR,72901
1471,613 LEXINGTON AVE,FORT SMITH,AR,72901
1472,600 LEXINGTON AVENUE,FORT SMITH,AR,72901
1473,1803 S GREENWOOD AVE,FORT SMITH,AR,72901
1474,2910 JENNY LIND ROAD,FORT SMITH,AR,72901
1475,2101 DALLAS ST,FORT SMITH,AR,72901
1476,4208 JENNY LIND RD,FORT SMITH,AR,72901
1477,2307 ZERO ST,FORT SMITH,AR,72901
1478,5901 RILEY PARK DRIVE,FORT SMTIH,AR,72916
1479,307 E RAY FINE BLVD STE 1,ROLAND,OK,74954
1480,5901 RILEY PARK DR.,FORT SMITH,AR,72916
1481,1501 S WALDRON RD,FORT SMITH,AR,72903
1482,2420 S 51ST CT STE A,FORT SMITH,AR,72903
1483,8020 DALLAS ST,FORT SMITH,AR,72903
1484,3510 S 79TH ST STE 100,FORT SMITH,AR,72903
1485,2420 S 51ST CT,FORT SMITH,AR,72903
1486,1326 S WALDRON RD,FORT SMITH,AR,72903
1487,9000 ROGERS AVE,FORT SMITH,AR,72903
1488,3200 ROGERS AVE STE 111,FORT SMITH,AR,72903
1489,2420 SOUTH 51ST COURT,FORT SMITH,AR,72903
1490,3501 S GARY,FT. SMITH,AR,72903
1491,2420 SO 51 CT,FORT SMITH,AR,72903
1492,5422 EUPER LANE,FORT SMITH,AR,72903
1493,5008 SOUTH U ST.,FORT SMITH,AR,72903
1494,5505 EUPER LANE,FORT SMITH,AR,72903
1495,5111 ROGERS AVE,FORT SMITH,AR,72903
1496,3501 SOUTH GARY,FORT SMITH,AR,72903
1497,1122 S WALDRON RD,FT SMITH,AR,72903
1498,3200 ROGERS AVE. SUITE 111,FORT SMITH,AR,72903
1499,3200 ROGERS AVE,FORT SMITH,AR,72903
1500,5604 ELLSWORTH RD,FORT SMITH,AR,72903
1501,2913 SOUTH 74TH STREET,FORT SMITH,AR,72903
1502,8309 PHOENIX AVENUE,FORT SMITH,AR,72903
1503,3015 FREE FERRY RD,FORT SMITH,AR,72903
1504,4605 S PHOENIX AVENUE,FORT SMITH,AR,72903
1505,1501 S WALDRON RD STE 208,FORT SMITH,AR,72903
1506,1122 S WALDRON RD,FORT SMITH,AR,72903
1507,"1122 SO WALDRON, STE A",FT. SMITH,AR,72903
1508,3200 ROGERS AVE STE 112,FORT SMITH,AR,72903
1509,4400 ROGERS AVE,FORT SMITH,AR,72903
1510,4400 ROGERS AVE STE C,FORT SMITH,AR,72903
1511,5422 EUPER LN,FORT SMITH,AR,72903
1512,5505 EUPER LN,FORT SMITH,AR,72903
1513,5008 S U ST,FORT SMITH,AR,72903
1514,5008 S U ST STE 101A,FORT SMITH,AR,72903
1515,2407 S WALDRON RD,FORT SMITH,AR,72903
1516,2403 S WALDRON RD,FORT SMITH,AR,72903
1517,2414 S 58TH ST,FORT SMITH,AR,72903
1518,6323 ROGERS AVE,FORT SMITH,AR,72903
1519,9009 CANTERBURY CV,FORT SMITH,AR,72903
1520,7801 PHOENIX AVE,FORT SMITH,AR,72903
1521,2909 S 74TH ST,FORT SMITH,AR,72903
1522,2713 S 74TH ST,FORT SMITH,AR,72903
1523,3224 OLD GREENWOOD RD,FORT SMITH,AR,72903
1524,3421 OLD GREENWOOD RD,FORT SMITH,AR,72903
1525,8239 ROGERS AVE,FORT SMITH,AR,72903
1526,3600 OLD GREENWOOD RD,FORT SMITH,AR,72903
1527,3600 OLD GREENWOOD RD STE 2,FORT SMITH,AR,72903
1528,8309 PHOENIX AVE,FORT SMITH,AR,72903
1529,202 2ND AVE S STE 203,GREAT FALLS,MT,59405
1530,340 S 12TH AVE,SHOW LOW,AZ,85901
1531,1101 NORTH POINT BLVD,BALTIMORE,MD,21224
1532,1528 N 39TH ST,FORT SMITH,AR,72904
1533,1528 NO 39TH,FORT SMITH,AR,72904
1534,2600 MARKET TRCE,FORT SMITH,AR,72908
1535,9004 JENNY LIND RD,FORT SMITH,AR,72908
1536,8901 JENNY LIND RD STE 6A,FORT SMITH,AR,72908
1537,2501 MARKET TRCE,FORT SMITH,AR,72908
1538,8700 S 36TH TER,FORT SMITH,AR,72908
1539,101 NW RENFRO ST STE 102,BURLESON,TX,76028
1540,10110 STEPHENS CT,FORT SMITH,AR,72908
1541,4224 SHANNON DR,FORT WORTH,TX,76116
1542,9220 HIGHWAY 71 S,FORT SMITH,AR,72916
1543,191 HIGHWAY 64 E,ALMA,AR,72921
1544,191 HWY 64 EAST,ALMA,AR,72921
1545,641 HWY 71 NORTH,ALMA,AR,72921
1546,209 HIGHWAY 71 N,ALMA,AR,72921
1547,1057 W MAIN ST,BOONEVILLE,AR,72927
1548,1090 E MAIN ST,BOONEVILLE,AR,72927
1549,1090 HWY 10 EAST,BOONEVILLE,AR,72927
1550,1090 EAST MAIN ST,BOONEVILLE,AR,72927
1551,708 PIRATES WAY,CEDARVILLE,AR,72932
1552,611 JEFFERSON ST,VAN BUREN,AR,72956
1553,16 CHURCH STREET,CHARLESTON,AR,72933
1554,16 CHURCH ST,CHARLESTON,AR,72933
1555,520 HAMILTON LANE,GREENWOOD,AR,72936
1556,7 WEST CENTER,GREENWOOD,AR,72936
1557,7 W CENTER STREET,GREENWOOD,AR,72936
1558,1742 W CENTER ST,GREENWOOD,AR,72936
1559,7 W CENTER ST,GREENWOOD,AR,72936
1560,603 S DIVISION ST,LAVACA,AR,72941
1561,1716 FRED PATTERSON DR,CENTRAL CITY,AR,72941
1562,407 E HOWARD ST,MANSFIELD,AR,72944
1563,100 N WALNUT AVE STE D,MANSFIELD,AR,72944
1564,407 EAST HOWARD STREET,MANSFIELD,AR,72944
1565,437 N MAIN ST,MULBERRY,AR,72947
1566,10 WEST COLLEGE STREET,OZARK,AR,72949
1567,1205 WEST COMMERCIAL,OZARK,AR,72949
1568,314 N 18TH ST,OZARK,AR,72949
1569,9755 W STATE HIGHWAY 22,RATCLIFF,AR,72951
1570,9755 W STATE HWY 22,RATCLIFF,AR,72951
1571,2729 RUDY RD,VAN BUREN,AR,72956
1572,1306 MAIN ST,VAN BUREN,AR,72956
1573,1306 EAST MAIN ST,VAN BUREN,AR,72956
1574,1621 FAYETTEVILLE RD,VAN BUREN,AR,72956
1575,711 E POINTER TRL,VAN BUREN,AR,72956
1576,1205 E POINTER TRL,VAN BUREN,AR,72956
1577,617 FAYETTEVILLE RD,VAN BUREN,AR,72956
1578,1607 EAST MAIN ST,VAN BUREN,AR,72956
1579,1607 MAIN ST,VAN BUREN,AR,72956
1580,1607 EAST MAIN STREET,VAN BUREN,AR,72956
1581,2411 FAYETTEVILLE RD,VAN BUREN,AR,72956
1582,2025 FAYETTEVILLE RD STE B,VAN BUREN,AR,72956
1583,2114 RICE STREET,WALDRON,AR,72958
