,address_1,city,state,postal_code
0,1000 E JOHN ROWAN BLVD STE 101,BARDSTOWN,KY,40004
1,798 PORTLAND AVE,BARDSTOWN,KY,40004
2,120 W STEPHEN FOSTER AVE,BARDSTOWN,KY,40004
3,625 NORTH THIRD ST,BARDSTOWN,KY,40004
4,621 N 3RD STREET,BARDSTOWN,KY,40004
5,810 MORTON AVE.,BARDSTOWN,KY,40004
6,202 W. STEPHEN FOSTER AVENUE,BARDSTOWN,KY,40004
7,115 E FLAGET AVE,BARDSTOWN,KY,40004
8,218 W JOHN FITCH,BANDSTOWN,KY,40004
9,218 W JOHN FITCH AVE,BARDSTOWN,KY,40004
10,120 W STEPHEN FOSTER AVE STE 104,BARDSTOWN,KY,40004
11,120 W STEPHEN FOSTER AVE STE 107,BARDSTOWN,KY,40004
12,202 W STEPHEN FOSTER AVE,BARDSTOWN,KY,40004
13,211 E STEPHEN FOSTER AVE,BARDSTOWN,KY,40004
14,115 E FLAGET ST,BARDSTOWN,KY,40004
15,621 NORTH 3RD STREET,BARDSTOWN,KY,40004
16,621 N 3RD ST,BARDSTOWN,KY,40004
17,4701 SOUTHERN PKWY,LOUISVILLE,KY,40214
18,101 MANOR AVE,BARDSTOWN,KY,40004
19,810 MORTON AVE,BARDSTOWN,KY,40004
20,810 MORTON AVE STE 200,BARDSTOWN,KY,40004
21,919 CHAMBERS BLVD,BARDSTOWN,KY,40004
22,169 E LINCOLN TRAIL BLVD,RADCLIFF,KY,40160
23,919 CHAMBERS BLVD STE A,BARDSTOWN,KY,40004
24,105 E MAIN ST,CAMPBELLSVILLE,KY,42718
25,139 SAINT MATTHEWS AVE,LOUISVILLE,KY,40207
26,1013 N DUPONT SQ STE B,LOUISVILLE,KY,40207
27,300 MIDDLETOWN PARK PL STE A,LOUISVILLE,KY,40243
28,4181 NEW SHEPHERDSVILLE RD,BARDSTOWN,KY,40004
29,112 FAIRFIELD HILL,BLOOMFIELD,KY,40008
30,112 FAIRFIELD HILL ROAD,BLOOMFIELD,KY,40008
31,4101 W HWY 146,BUCKNER,KY,40010
32,4759 FOX RUN RD,BUCKNER,KY,40010
33,8910 MAIN ST,CAMPBELLSBURG,KY,40011
34,1209 HIGHLAND AVE,CARROLLTON,KY,41008
35,51 CARRIE LN,CAMPBELLSBURG,KY,40011
36,6408 W HWY 146,CRESTWOOD,KY,40014
37,6408 W HIGHWAY 146,CRESTWOOD,KY,40014
38,6225 W HWY 146,CRESTWOOD,KY,40014
39,5805 WHWY 22,CRESTWOOD,KY,40014
40,5998 PLEASANT COLONY CT. SUITE 23,CRESTWOOD,KY,40014
41,6344 W. HWY 146 STE 100,CRESTWOOD,KY,40014
42,5805 W HIGHWAY 22,CRESTWOOD,KY,40014
43,8815 W HIGHWAY 22,CRESTWOOD,KY,40014
44,5301 W HWY 146,CRESTWOOD,KY,40014
45,6344 W HIGHWAY 146 STE 100,CRESTWOOD,KY,40014
46,1235 DCCC RD,THOMASVILLE,NC,27360
47,7025 WEST HWY 22,CRESTWOOD,KY,40014
48,6704 SUMAC RIDGE DR,CRESTWOOD,KY,40014
49,MSC 06-3500 1 UNIVERSITY OF NEW MEXICO,ALBUQUERQUE,NM,87131
50,6435 W HIGHWAY 146,CRESTWOOD,KY,40014
51,105 EMINENCE TER,EMINENCE,KY,40019
52,6287 TAYLORSVILLE RD BLDG 2 STE A,FISHERVILLE,KY,40023
53,11940 WEST US HWY 42,GOSHEN,KY,40026
54,2005 S HIGHWAY 53,LA GRANGE,KY,40031
55,2005 S HIGHWAY 53,LAGRANGE,KY,40031
56,604 CRYSTAL PLACE,LAGRANGE,KY,40031
57,3108 S. HWY 53,LAGRANGE,KY,40031
58,214 PARKER DR,LAGRANGE,KY,40031
59,120 E ADAMS ST STE 1,LA GRANGE,KY,40031
60,934 WOODLAND RIDGE CIR,LA GRANGE,KY,40031
61,205 N 1ST ST,LA GRANGE,KY,40031
62,1000 BUCKNER CTR,LA GRANGE,KY,40031
63,3108 S HIGHWAY 53,LAGRANGE,KY,40031
64,219 W MAIN ST,LEBANON,KY,40033
65,219 WEST MAIN ST,LEBANON,KY,40033
66,503 N SPALDING AVE,LEBANON,KY,40033
67,219 S PROCTOR KNOTT AVE,LEBANON,KY,40033
68,303 W WALNUT ST,LEBANON,KY,40033
69,416 W WALNUT ST,DANVILLE,KY,40422
70,25 AGIN WAY,MILTON,KY,40045
71,211 HIGH POINT CT STE 500,MT WASHINGTON,KY,40047
72,185 OAKBROOKE CIRCLE,MT. WASHINGTON,KY,40047
73,211 HIGH POINT CT,MT WASHINGTON,KY,40047
74,138 EASTBROOKE CT STE 115,MOUNT WASHINGTON,KY,40047
75,10224 HIGHWAY 44 E,MT WASHINGTON,KY,40047
76,209 HIGH POINT CT,MOUNT WASHINGTON,KY,40047
77,209 HIGH POINT CT STE 400,MT WASHINGTON,KY,40047
78,6442 HIGHWAY 44 E STE 140,MT WASHINGTON,KY,40047
79,129 APOLLO DR,MT WASHINGTON,KY,40047
80,110 VILLAGE LN,MT WASHINGTON,KY,40047
81,1065 PENDLETON RD,PENDLETON,KY,40055
82,1065 PENDLETON ROAD,PENDLETON,KY,40055
83,7608 W HIGHWAY 146,PEWEE VALLEY,KY,40056
84,7608 W HIGHWAY 146 STE 200,PEWEE VALLEY,KY,40056
85,9219 US HIGHWAY 42,PROSPECT,KY,40059
86,9217 US HIGHWAY 42,PROSPECT,KY,40059
87,13104 US HWY 42,PROSPECT,KY,40059
88,11838 LAKESTONE WAY,PROSPECT,KY,40059
89,9523 US HIGHWAY 42 UNIT 1004,PROSPECT,KY,40059
90,10515 MEETING ST,PROSPECT,KY,40059
91,10515 MEETING ST UNIT 104,PROSPECT,KY,40059
92,6007 TIMBER RIDGE DR,PROSPECT,KY,40059
93,13206 W HIGHWAY 42,PROSPECT,KY,40059
94,11804 LAKESTONE WAY,PROSPECT,KY,40059
95,13104 W HIGHWAY 42,PROSPECT,KY,40059
96,12927 W HIGHWAY 42,PROSPECT,KY,40059
97,9509 US HIGHWAY 42,PROSPECT,KY,40059
98,9509 US HIGHWAY 42 STE 102,PROSPECT,KY,40059
99,95 RAYWICK RD,ST MARY,KY,40063
100,130 STONECREST RD,SHELBYVILLE,KY,40065
101,1415 MAIN STREET,SHELBYVILLE,KY,40065
102,141 STONECREST RD STE 1,SHELBYVILLE,KY,40065
103,502 MOUNT EDEN RD,SHELBYVILLE,KY,40065
104,502 MOUNT EDEN ROAD,SHELBYVILLE,KY,40065
105,627 WASHINGTON ST,SHELBYVILLE,KY,40065
106,706 MAIN ST,SHELBYVILLE,KY,40065
107,1038 WASHINGTON ST,SHELBYVILLE,KY,40065
108,1100 WASHINGTON STREET,SHELBYVILLE,KY,40065
109,1100 WASHINGTON STREET,SHELLBYVILLE,KY,40065
110,1415 MAIN ST,SHELBYVILLE,KY,40065
111,60 STONECREST CT,SHELBYVILLE,KY,40065
112,141 STONECREST RD,SHELBYVILLE,KY,40065
113,1006 LEAWOOD DR,FRANKFORT,KY,40601
114,207 ALPINE DR,SHELBYVILLE,KY,40065
115,207A ALPINE DR,SHELBYVILLE,KY,40065
116,196 FRANKFORT RD,SHELBYVILLE,KY,40065
117,1100 WASHINGTON ST,SHELBYVILLE,KY,40065
118,223 MIDLAND PARK,SHELBYVILLE,KY,40065
119,4960 HOUSTON RD STE G,FLORENCE,KY,41042
120,4814 OUTER LOOP,LOUISVILLE,KY,40219
121,194 FRANKFORT RD,SHELBYVILLE,KY,40065
122,800 ROSE ST,LEXINGTON,KY,40536
123,9844 LINN STATION RD,LOUISVILLE,KY,40223
124,6912 SHELBYVILLE RD,SIMPSONVILLE,KY,40067
125,137 BUCK CREEK RD,SIMPSONVILLE,KY,40067
126,207 LINCOLN PARK RD,SPRINGFIELD,KY,40069
127,108 COMMERCIAL AVE,SPRINGFIELD,KY,40069
128,39 BOBOLINK DR,SPRINGFIELD,KY,40069
129,1477 BLOOMFIELD RD,TAYLORSVILLE,KY,40071
130,501 TAYLORSVILLE RD.,TAYLORSVILLE,KY,40071
131,1727 SADIE LN,LOUISVILLE,KY,40216
132,153 MAIN STREET,TAYLORSVILLE,KY,40071
133,153 E MAIN ST,TAYLORSVILLE,KY,40071
134,880 TAYLORSVILLE RD,TAYLORSVILLE,KY,40071
135,3015 WILSON AVE,LOUISVILLE,KY,40211
136,2237 HIKES LN,LOUISVILLE,KY,40218
137,311 REASOR AVE,TAYLORSVILLE,KY,40071
138,1015 W CHESTNUT ST,LOUISVILLE,KY,40203
139,1857 TUCKER WAY,BOWLING GREEN,KY,40104
140,415 MAIN ST,BRANDENBURG,KY,40108
141,1120 HIGH ST,BRANDENBURG,KY,40108
142,3742 DOE VALLEY PKWY E,BRANDENBURG,KY,40108
143,3100 RING RD STE 104,ELIZABETHTOWN,KY,42701
144,1064 BROOKS HILL RD,BROOKS,KY,40109
145,1064 BROOKS HILL ROAD,BROOKS,KY,40109
146,508 FAIRDALE ROAD,"FAIRDALE,",KY,40118
147,968 1ST INFANTRY DIVISION RD,FORT KNOX,KY,40121
148,2724 BRAVE RIFLES REGIMENT ROAD,FORT KNOX,KY,40121
149,2724 BRAVE RIFLES REGIMENT RD,FORT KNOX,KY,40121
150,2724 BRAVE RIFLES REGIMENT RD,FT KNOX,KY,40121
151,2724 BRAVE RIFLES REGIMENT ROAD,FT KNOX,KY,40121
152,968 1ST INFANTRY DIVISION ROAD,FORT KNOX,KY,40121
153,2724 BRAVE RIFLE'S REGIMENT ROAD,FORT KNOX,KY,40121
154,"BLDG 1022, RM 226",FORT KNOX,KY,40121
155,"398 192ND ARMORED TANK BN RD, BLDG 1022 RM 231",FORT KNOX,KY,40121
156,398 192ND ARMORED TANK BATTALION RD,FORT KNOX,KY,40121
157,"398 192ND ARMORED TANK BATTALION RD, BLDG 1022 RM 231",FORT KNOX,KY,40121
158,398 192ND ARMOR TANK BATTALION RD,FORT KNOX,KY,40121
159,398 192ND ARMORED TANK BN RD,FORT KNOX,KY,40121
160,398 192ND ARMOR TANK BATTALION RD RM 231,FORT KNOX,KY,40121
161,BRAVE RIFLES REGIMENT RD,FORT KNOX,KY,40121
162,718 N COAST HIGHWAY 101,ENCINITAS,CA,92024
163,22 MILLER AVE,ASHVILLE,OH,43103
164,7370 SAWMILL RD,COLUMBUS,OH,43235
165,122 W THIRD ST,HARDINSBURG,KY,40143
166,122 W THIRD ST.,HARDINSBURG,KY,40143
167,113 E 2ND ST,HARDINSBURG,KY,40143
168,124 E 3RD ST,HARDINSBURG,KY,40143
169,11737 S PRESTON HWY,LEBANON JUNCTION,KY,40150
170,814 STATE STREET,RADCLIFF,KY,40160
171,347 W LINCOLN TR,RADCLIFF,KY,40160
172,299 WEST LINCOLN TRAIL BLVD,RADCLIFF,KY,40160
173,309 N WILSON RD,RADCLIFF,KY,40160
174,1100 S DIXIE BLVD,RADCLIFF,KY,40160
175,3438 TAYLOR BLVD,LOUISVILLE,KY,40215
176,2500 W BROADWAY STE 100,LOUISVILLE,KY,40211
177,309 N. WILSON RD,RADCLIFF,KY,40160
178,814 STATE ST,RADCLIFF,KY,40160
179,650 W LINCOLN TRAIL BLVD,RADCLIFF,KY,40160
180,555 W LINCOLN TRAIL BLVD,RADCLIFF,KY,40160
181,299 W LINCOLN TRAIL BLVD STE 102,RADCLIFF,KY,40160
182,225 SCHLAESER WAY,RHINEYVILLE,KY,40162
183,1746 HIGHWAY 44 E,SHEPHERDSVILLE,KY,40165
184,181 HIGHWAY 44 E STE 2,SHEPHERDSVILLE,KY,40165
185,3564 WILLOW WAY,SHEPHERDSVILLE,KY,40165
186,111 LEES VALLEY RD,SHEPHERDSVILLE,KY,40165
187,4230 N. PRESTON HWY.,SHEPHERDSVILLE,KY,40165
188,1250 HWY 44E,SHEPHERDSVILLE,KY,40165
189,255 PARAQUET SPRINGS DR,SHEPHERDSVILLE,KY,40165
190,181 HIGHWAY 44 E,SHEPHERDSVILLE,KY,40165
191,1779 HIGHWAY 44 E STE 200,SHEPHERDSVILLE,KY,40165
192,1100 E MARKET ST,LOUISVILLE,KY,40206
193,1779 HIGHWAY 44 E,SHEPHERDSVILLE,KY,40165
194,1250 HIGHWAY 44 E,SHEPHERDSVILLE,KY,40165
195,4230 N PRESTON HWY,SHEPHERDSVILLE,KY,40165
196,201 W MAIN ST,VINE GROVE,KY,40175
197,423 CRUME RD,VINE GROVE,KY,40175
198,822 N ELM ST,HENDERSON,KY,42420
199,517 HIGHLAND AVE.,VINE GROVE,KY,40175
200,100 VINELAND CENTRE DR,VINE GROVE,KY,40175
201,555 S FLOYD ST,LOUISVILLE,KY,40202
202,401 E. CHESTNUT ST.,LOUISVILLE,KY,40202
203,UNIVERSITY OF LOUISVILLE,LOUISVILLE,KY,40202
204,501 S PRESTON ST,LOUISVILLE,KY,40202
205,501 S. PRESTON ST.,LOUISVILLE,KY,40202
206,550 S JACKSON STREET,LOUISVILLE,KY,40202
207,550 S JACKSON ST,LOUISVILLE,KY,40202
208,530 S. PRESTON STREET,LOUISVILLE,KY,40202
209,231 E CHESTNUT ST,LOUISVILLE,KY,40202
210,533 E LIBERTY ST UNIT 202,LOUISVILLE,KY,40202
211,301 E MAIN ST,LOUISVILLE,KY,40202
212,301 E MAIN ST STE 102,LOUISVILLE,KY,40202
213,309 E MARKET ST UNIT 311,LOUISVILLE,KY,40202
214,550 S JACKSON ST FL 2,LOUISVILLE,KY,40202
215,8580 SCARBOROUGH DR STE 240,COLORADO SPRINGS,CO,80920
216,712 E MUHAMMAD ALI BLVD,LOUISVILLE,KY,40202
217,501 S PRESTON ST FL 3,LOUISVILLE,KY,40202
218,501 S PRESTON ST RM 312,LOUISVILLE,KY,40202
219,501 S PRESTON ST STE 7,LOUISVILLE,KY,40202
220,501 S PRESTON ST RM 149F,LOUISVILLE,KY,40202
221,501 S PRESTON ST RM 148,LOUISVILLE,KY,40202
222,982 EASTERN PARKWAY,LOUISVILLE,KY,40217
223,CMR 402,APO,AE,09180
224,3510 BARDSTOWN RD,LOUISVILLE,KY,40218
225,3941 BALDWIN AVE APT 103,LINCOLN,NE,68504
226,501 S PRESTON ST RM 334,LOUISVILLE,KY,40202
227,403 E KEMPER RD,SPRINGDALE,OH,45246
228,1220 W 38TH AVE,DENVER,CO,80211
229,501 S PRESTON ST OFC ROOM245A,LOUISVILLE,KY,40202
230,400 E GRAY ST,LOUISVILLE,KY,40202
231,225 ABRAHAM FLEXNER WAY,LOUISVILLE,KY,40202
232,332 WEST BROADWAY,LOUISVILLE,KY,40202
233,455 S 4TH AVE,LOUISVILLE,KY,40202
234,455SOUTH 4TH ST,LOUISVILLE,KY,40202
235,455 S. 4TH ST,LOUISVILLE,KY,40202
236,455 S 4TH ST,LOUISVILLE,KY,40202
237,529 S JACKSON ST,LOUISVILLE,KY,40202
238,600 MARSHALL ST UNIT 128,LOUISVILLE,KY,40202
239,210 E GRAY ST,LOUISVILLE,KY,40202
240,401 E CHESTNUT ST,LOUISVILLE,KY,40202
241,401 E CHESTNUT ST UNIT 550,LOUISVILLE,KY,40202
242,2241 STATE ST STE C,NEW ALBANY,IN,47150
243,9480 BROWNSBORO RD,LOUISVILLE,KY,40241
244,550 S JACKSON ST BLDG 2ND,LOUISVILLE,KY,40202
245,2215 PORTLAND AVE,LOUISVILLE,KY,40212
246,834 E BROADWAY,LOUISVILLE,KY,40204
247,2160 S 1ST AVE,MAYWOOD,IL,60153
248,2201 BILJANA DR APT 1,LOUISVILLE,KY,40206
249,501 S PRESTON ST DEPT OF,LOUISVILLE,KY,40202
250,4420 DIXIE HWY STE 110,LOUISVILLE,KY,40216
251,350 W COLUMBIA ST STE 1-D,EVANSVILLE,IN,47710
252,8013 NEW LA GRANGE RD STE 6,LOUISVILLE,KY,40222
253,4010 DUPONT CIR STE 524,ST MATTHEWS,KY,40207
254,3620 BLACKISTON BLVD STE 150,NEW ALBANY,IN,47150
255,755 E VETERANS DR,COOKEVILLE,TN,38501
256,2102 E TYLER AVE,HARLINGEN,TX,78550
257,2220 W MCGALLIARD RD,MUNCIE,IN,47304
258,87 ELM ST # 302,HOPKINTON,MA,01748
259,16415 CANARIO DR,HOUSTON,TX,77083
260,1720 S GADSDEN ST,TALLAHASSEE,FL,32301
261,642 S 2ND ST,LOUISVILLE,KY,40202
262,650 W BALTIMORE ST,BALTIMORE,MD,21201
263,1018 SOUTH FOURTH STREET,LOUISVILLE,KY,40203
264,1813 WEST BROADWAY,LOUISVILLE,KY,40203
265,1211 W BROADWAY,LOUISVILLE,KY,40203
266,2056 BELWOOD DR,OKEMOS,MI,48864
267,1211 W BROADWAY # UNITE106,LOUISVILLE,KY,40203
268,1211 W BROADWAY UNIT 106,LOUISVILLE,KY,40203
269,254 MARKET PLACE DR,LOUISVILLE,KY,40229
270,2400 RICHMOND RD STE 133,TEXARKANA,TX,75503
271,839 S 2ND ST,LOUISVILLE,KY,40203
272,1018 S 4TH ST,LOUISVILLE,KY,40203
273,1813 W BROADWAY,LOUISVILLE,KY,40203
274,1425 W BROADWAY,LOUISVILLE,KY,40203
275,4814 OUTER LOOP STE A,LOUISVILLE,KY,40219
276,2358 NICHOLASVILLE RD STE 155,LEXINGTON,KY,40503
277,3101 RICHMOND RD STE 307,LEXINGTON,KY,40509
278,3946 TAYLORSVILLE RD,LOUISVILLE,KY,40220
279,70 CAROTHERS RD,NEWPORT,KY,41071
280,2011 GRINSTEAD DR UNIT 102,LOUISVILLE,KY,40204
281,1250 BARDSTOWN ROAD,LOUISVILLE,KY,40204
282,JOHN P RAKUTT DMD PSC,LOUISVILLE,KY,40204
283,928 E BROADWAY,LOUISVILLE,KY,40204
284,1212 HULL ST APT 3,LOUISVILLE,KY,40204
285,1221 BARDSTOWN ROAD,LOUISVILLE,KY,40204
286,1380 BARDSTOWN RD,LOUISVILLE,KY,40204
287,1160 BARDSTOWN RD,LOUISVILLE,KY,40204
288,1190 E BROADWAY,LOUISVILLE,KY,40204
289,801 BARRET AVE,LOUISVILLE,KY,40204
290,916 ELLISON AVE,LOUISVILLE,KY,40204
291,2226 HIGHLAND AVE,LOUISVILLE,KY,40204
292,2055 HOLLIDAY DR,DUBUQUE,IA,52002
293,1040 EVERETT AVE APT 1,LOUISVILLE,KY,40204
294,2310 ALLISON LN,JEFFERSONVILLE,IN,47130
295,923 ELLISON AVE,LOUISVILLE,KY,40204
296,2105 WEBER AVE,LOUISVILLE,KY,40205
297,2800 CANNONS LN,LOUISVILLE,KY,40205
298,1815 BARDSTOWN RD,LOUISVILLE,KY,40205
299,2800 CANNONS LN STE 200,LOUISVILLE,KY,40205
300,3022 TAYLORSVILLE ROAD,LOUISVILLE,KY,40205
301,1936 MAPLEWOOD PL,LOUISVILLE,KY,40205
302,1009 ALTA VISTA RD,LOUISVILLE,KY,40205
303,1044 ALTA VISTA RD,LOUISVILLE,KY,40205
304,1976 DOUGLASS BLVD,LOUISVILLE,KY,40205
305,2232 BARDSTOWN RD STE A,LOUISVILLE,KY,40205
306,1931 STRATHMOOR BLVD,LOUISVILLE,KY,40205
307,2811 BARDSTOWN RD,LOUISVILLE,KY,40205
308,1716 GARDINER LN,LOUISVILLE,KY,40205
309,2508 ALANMEDE RD,LOUISVILLE,KY,40205
310,3000 BARDSTOWN RD,LOUISVILLE,KY,40205
311,3002 BARDSTOWN RD,LOUISVILLE,KY,40205
312,2902 TAYLORSVILLE RD,LOUISVILLE,KY,40205
313,5010 PRESTON HWY,LOUISVILLE,KY,40213
314,2939 BON AIR AVE,LOUISVILLE,KY,40205
315,6400 DUTCHMANS PKWY,LOUISVILLE,KY,40205
316,3935 DUPONT CIR STE D,LOUISVILLE,KY,40207
317,1955 DEER PARK AVE APT 3,LOUISVILLE,KY,40205
318,3809 POPLAR LEVEL RD STE B,LOUISVILLE,KY,40213
319,1692 FORT CAMPBELL BLVD,CLARKSVILLE,TN,37042
320,2240 TAYLORSVILLE RD,LOUISVILLE,KY,40205
321,1050 E MARKET ST,LOUISVILLE,KY,40206
322,2009 FRANKFORT AVENUE,LOUISVILLE,KY,40206
323,302 AXIS DR APT 401,LOUISVILLE,KY,40206
324,2400 MELLWOOD AVE APT 927,LOUISVILLE,KY,40206
325,800 ZORN AVE,LOUISVILLE,KY,40206
326,10500 SANDBOURNE WAY,LOUISVILLE,KY,40241
327,2022 BROWNSBORO RD,LOUISVILLE,KY,40206
328,2416 FRANKFORT AVE,LOUISVILLE,KY,40206
329,2416 FRANKFORT AVE STE 3,LOUISVILLE,KY,40206
330,126 CANNONS LN,LOUISVILLE,KY,40206
331,3210 FRANKFORT AVE,LOUISVILLE,KY,40206
332,701 SUNNYSIDE DR,LOUISVILLE,KY,40206
333,2400 MELLWOOD AVE APT 1318,LOUISVILLE,KY,40206
334,201 TOWNE DR,ELIZABETHTOWN,KY,42701
335,3501 TERRACE ST SALK HALL,PITTSBURGH,PA,15261
336,1001 DUPONT SQUARE N,LOUISVILLE,KY,40207
337,3901 DUTCHMANS LN,LOUISVILLE,KY,40207
338,3618 LEXINGTON RD,LOUISVILLE,KY,40207
339,3935 DUPONT CIR,LOUISVILLE,KY,40207
340,11416 SHELBYVILLE RD,LOUISVILLE,KY,40243
341,4122 SHELBYVILLE RD STE C,LOUISVILLE,KY,40207
342,156 THIERMAN LN,LOUISVILLE,KY,40207
343,3935 DUPONT CIR STE A,LOUISVILLE,KY,40207
344,291 N HUBBARDS LN STE 110,LOUISVILLE,KY,40207
345,4010 DUPONT CIRCLE,LOUISVILLE,KY,40207
346,101 OXFORD PLACE,LOUISVILLE,KY,40207
347,3700 BROWNBORO RD,LOUISVILLE,KY,40207
348,3618 LEXINGTON ROAD,LOUISVILLE,KY,40207
349,4122 SHELBYVILLE RD,LOUISVILLE,KY,40207
350,1005 DUPONT SQUARE N,LOUISVILLE,KY,40207
351,3936 1/2 DUTCHMANS LN,LOUISVILLE,KY,40207
352,291 N HUBBARDS LANE,LOUISVILLE,KY,40207
353,209 BRECKENRIDGE LANE,LOUISVILLE,KY,40207
354,3932 DUTCHMANS LANE,LOUISVILLE,KY,40207
355,1013 DUPONT SQUARE NORTH,LOUISVILLE,KY,40207
356,4001 KRESGE WAY,LOUISVILLE,KY,40207
357,4600 BROWNSBORO ROAD,LOUISVILLE,KY,40207
358,4122 SHELBYVILLE ROAD,LOUISVILLE,KY,40207
359,4305 WESTPORT TER,LOUISVILLE,KY,40207
360,1001 DUPONT SQUARE NORTH,LOUISVILLE,KY,40207
361,406 EXECUTIVE PARK,LOUISVILLE,KY,40207
362,924 BLANKENBAKER LN,LOUISVILLE,KY,40207
363,1901 RUDY LN STE 4,LOUISVILLE,KY,40207
364,5403 APACHE RD,LOUISVILLE,KY,40207
365,4882 BROWNSBORO RD,LOUISVILLE,KY,40207
366,3516 FRANKFORT AVE,LOUISVILLE,KY,40207
367,125 CHENOWETH LANE,LOUISVILLE,KY,40207
368,125 CHENOWETH LN,LOUISVILLE,KY,40207
369,140 CHENOWETH LN,LOUISVILLE,KY,40207
370,148 CHENOWETH LN,LOUISVILLE,KY,40207
371,3600 LEXINGTON RD,LOUISVILLE,KY,40207
372,114 S SHERRIN AVE,LOUISVILLE,KY,40207
373,4122 SHELBYVILLE RD STE 103,LOUISVILLE,KY,40207
374,4505 SHELBYVILLE RD,LOUISVILLE,KY,40207
375,332 STONEHENGE DR APT 102,LOUISVILLE,KY,40207
376,3421 HYCLIFFE AVE,LOUISVILLE,KY,40207
377,4101 HYCLIFFE AVE,LOUISVILLE,KY,40207
378,219 BRECKENRIDGE LN,LOUISVILLE,KY,40207
379,4213 N CHURCH WAY,LOUISVILLE,KY,40207
380,902 DUPONT RD,LOUISVILLE,KY,40207
381,1400 BROWNS LN,LOUISVILLE,KY,40207
382,1001 DUPONT SQ N,LOUISVILLE,KY,40207
383,1013 DUPONT SQ N,LOUISVILLE,KY,40207
384,1001 N DUPONT SQ,LOUISVILLE,KY,40207
385,4001 KRESGE WAY STE 120,LOUISVILLE,KY,40207
386,901 DUPONT RD,LOUISVILLE,KY,40207
387,916 DUPONT RD,LOUISVILLE,KY,40207
388,3932 DUTCHMANS LN,LOUISVILLE,KY,40207
389,4010 DUPONT CIR,LOUISVILLE,KY,40207
390,3809B POPLAR LEVEL RD,LOUISVILLE,KY,40213
391,4010 DUPONT CIR STE 505,LOUISVILLE,KY,40207
392,111 FAIRFAX AVE,LOUISVILLE,KY,40207
393,504 BRIGHTWOOD PL,LOUISVILLE,KY,40207
394,948 MALLARD CREEK RD,LOUISVILLE,KY,40207
395,1706 WILLIAMSBURG DR,JEFFERSONVILLE,IN,47130
396,1504 S 7TH ST,LOUISVILLE,KY,40208
397,434 PATROL RD STE 200,JEFFERSONVILLE,IN,47130
398,644 PHILLIPS LN,LOUISVILLE,KY,40209
399,1480 DIXIE HWY,LOUISVILLE,KY,40210
400,2730 DUMESNIL ST,LOUISVILLE,KY,40211
401,2500 W BROADWAY STE 500,LOUISVILLE,KY,40211
402,A219 KENTUCKY CLINIC,LEXINGTON,KY,40536
403,2500 W BROADWAY,LOUISVILLE,KY,40211
404,341 PONCE DE LEON AVE NE,ATLANTA,GA,30308
405,3050 W BROADWAY,LOUISVILLE,KY,40211
406,526 N DALEVILLE AVE,DALEVILLE,AL,36322
407,194 NARROWS DR,BIRMINGHAM,AL,35242
408,ELM AND CARLTON ST,BUFFALO,NY,14263
409,1220 S 28TH ST,LOUISVILLE,KY,40211
410,2000 INDUSTRIAL RD E STE 200,BRIDGEPORT,WV,26330
411,1175 S MAIN ST STE 4,MADISONVILLE,KY,42431
412,35 E 31ST ST,SAN ANGELO,TX,76903
413,10640 GRIFFIN RD STE 101,DAVIE,FL,33328
414,500 N HIATUS RD STE 109,PEMBROKE PINES,FL,33026
415,465 NORTH 26TH STREET,LOUISVILLE,KY,40212
416,2410 WEST MARKET ST,LOUISVILLE,KY,40212
417,2005 KNIGHT LANE BLDG H,JACKSONVILLE,FL,32212
418,16005 US ROUTE 23,CATLETTSBURG,KY,41129
419,2702 WILMA RUDOLPH BLVD,CLARKSVILLE,TN,37040
420,465 N 26TH ST,LOUISVILLE,KY,40212
421,2418 W MARKET ST,LOUISVILLE,KY,40212
422,2410 W MARKET ST,LOUISVILLE,KY,40212
423,222 AMY AVE,LOUISVILLE,KY,40212
424,234 AMY AVE,LOUISVILLE,KY,40212
425,5014 PRESTON HWY,LOUISVILLE,KY,40213
426,3813 POPLAR LEVEL RD,LOUISVILLE,KY,40213
427,3117 PRESTON HWY,LOUISVILLE,KY,40213
428,3809-B POPLAR LEVEL RD,LOUISVILLE,KY,40213
429,3809 POPLAR LEVEL RD,LOUISVILLE,KY,40213
430,1619 REDWOOD DR,LOUISVILLE,KY,40213
431,3803 PRESTON HWY,LOUISVILLE,KY,40213
432,5014B PRESTON HWY,LOUISVILLE,KY,40213
433,3017 POPLAR LEVEL RD,LOUISVILLE,KY,40217
434,1007 TREVILIAN WAY,LOUISVILLE,KY,40213
435,911 PALATKA RD,LOUISVILLE,KY,40214
436,5316 S 3RD ST,LOUISVILLE,KY,40214
437,4739 SO. THIRD STREET,LOUISVILLE,KY,40214
438,5316 S. 3RD STREET,LOUISVILLE,KY,40214
439,130 EVERGREEN RD,LOUISVILLE,KY,40243
440,520 SCHOOL WAY,LOUISVILLE,KY,40214
441,4602 SOUTHERN PKWY,LOUISVILLE,KY,40214
442,3911 S 3RD ST,LOUISVILLE,KY,40214
443,210 W WOODLAWN AVE,LOUISVILLE,KY,40214
444,4739 S 3RD ST,LOUISVILLE,KY,40214
445,347 W KENWOOD WAY,LOUISVILLE,KY,40214
446,4825 S 3RD ST,LOUISVILLE,KY,40214
447,5305 S 3RD ST,LOUISVILLE,KY,40214
448,5349 MITSCHER AVE,LOUISVILLE,KY,40214
449,5349 MITSCHER AVENUE,LOUISVILLE,KY,40214
450,6700 SOUTHSIDE DR,LOUISVILLE,KY,40214
451,6504 STRAWBERRY LN,LOUISVILLE,KY,40214
452,3684 HIGHWAY 150 STE 1,FLOYDS KNOBS,IN,47119
453,4602 SOUTHERN PKWY STE 2D,LOUISVILLE,KY,40214
454,"1800 BLUEGRASS AVENUE, STE A",LOUISVILLE,KY,40215
455,3205 TAYLOR BLVD,LOUISVILLE,KY,40215
456,4515 CHURCHMAN AVE.,LOUISVILLE,KY,40215
457,1800 BLUEGRASS AVENUE,LOUISVILLE,KY,40215
458,3448 TAYLOR BOULEVARD,LOUISVILLE,KY,40215
459,4515 CHURCHMAN AVE,LOUISVILLE,KY,40215
460,4133 TAYLOR BLVD,LOUISVILLE,KY,40215
461,3600 TAYLOR BLVD,LOUISVILLE,KY,40215
462,3448 TAYLOR BLVD,LOUISVILLE,KY,40215
463,728 W EVELYN AVE,LOUISVILLE,KY,40215
464,2760 JEFFERSON CENTRE WAY STE 2,JEFFERSONVILLE,IN,47130
465,500 WINCHESTER AVE,ASHLAND,KY,41101
466,5141 DIXIE HWY STE 101,LOUISVILLE,KY,40216
467,5222 DIXIE HWY,LOUISVILLE,KY,40216
468,5141 DIXIE HIGHWAY,LOUISVILLE,KY,40216
469,3977 SEVENTH STREET RD,LOUISVILLE,KY,40216
470,3934 DIXIE HIGHWAY SUITE 320,LOUISVILLE,KY,40216
471,4215 HILLVIEW AVE,LOUISVILLE,KY,40216
472,5135 DIXIE HIGHWAY,LOUISVILLE,KY,40216
473,4040 DIXIE HIGHWAY,LOUISVILLE,KY,40216
474,4007 VALLEY VIEW DRIVE,LOUISVILLE,KY,40216
475,5135 DIXIE HWY,LOUISVILLE,KY,40216
476,1704 GAGEL AVENUE,LOUISVILLE,KY,40216
477,3977 SEVENTH STREET ROAD,LOUISVILLE,KY,40216
478,4115 DIXIE HWY.,LOUISVILLE,KY,40216
479,4115 DIXIE HIGHWAY,LOUISVILLE,KY,40216
480,5225 DIXIE HWY,LOUISVILLE,KY,40216
481,4420 DIXIE HWY STE 110,SHIVELY,KY,40216
482,5220 DIXIE HWY,LOUISVILLE,KY,40216
483,5141 DIXIE HWY,LOUISVILLE,KY,40216
484,5141 DIXIE HWY STE 102,LOUISVILLE,KY,40216
485,4919 DIXIE HWY,LOUISVILLE,KY,40216
486,4740 DIXIE HWY,LOUISVILLE,KY,40216
487,1727 SADIE LN STE 2A,LOUISVILLE,KY,40216
488,1401 N TUSTIN AVE,SANTA ANA,CA,92705
489,4420 DIXIE HIGHWAY,LOUISVILLE,KY,40216
490,1105 CLIFTY DR,MADISON,IN,47250
491,4516 CANE RUN RD,LOUISVILLE,KY,40216
492,4040 DIXIE HWY,LOUISVILLE,KY,40216
493,4501 LOUISE UNDERWOOD WAY,LOUISVILLE,KY,40216
494,3181 SW SAM JACKSON PARK RD,PORTLAND,OR,97239
495,1008 GAGEL AVE,LOUISVILLE,KY,40216
496,4801 MANSLICK RD,LOUISVILLE,KY,40216
497,3977 7TH STREET RD,LOUISVILLE,KY,40216
498,3618 DIXIE HWY,LOUISVILLE,KY,40216
499,3934 DIXIE HWY,LOUISVILLE,KY,40216
500,4007 VALLEY VIEW DR,LOUISVILLE,KY,40216
501,3023 CRUMS LN,LOUISVILLE,KY,40216
502,2300 DIXIE HWY,LOUISVILLE,KY,40216
503,42 MCGINNIS DR,WAYNE,WV,25570
504,496 SOUTHLAND DR,LEXINGTON,KY,40503
505,4044 MORSE RD,COLUMBUS,OH,43230
506,1523 STATE ST,NEW ALBANY,IN,47150
507,360 NEW ALBANY PLZ,NEW ALBANY,IN,47150
508,615 DERBY ST,CHATTANOOGA,TN,37404
509,4645 OUTER LOOP,LOUISVILLE,KY,40219
510,1005 DR DB TODD JR BLVD,NASHVILLE,TN,37208
511,342 STARLITE DR,HENDERSON,KY,42420
512,3707 CHAMBERLAIN LN STE 103,LOUISVILLE,KY,40241
513,8172 MALL RD,FLORENCE,KY,41042
514,1430 POPLAR LEVEL RD,LOUISVILLE,KY,40217
515,1500 POPLAR LEVEL RD,LOUISVILLE,KY,40217
516,1039 E BURNETT AVE,LOUISVILLE,KY,40217
517,1030 MULBERRY ST,LOUISVILLE,KY,40217
518,1169 EASTERN PKWY,LOUISVILLE,KY,40217
519,1169 EASTERN PKWY STE 2238,LOUISVILLE,KY,40217
520,982 EASTERN PKWY,LOUISVILLE,KY,40217
521,3019 PRESTON HWY,LOUISVILLE,KY,40217
522,782 EASTERN PKWY,LOUISVILLE,KY,40217
523,2404 S PRESTON ST.,LOUISVILLE,KY,40217
524,2342 ALEXANDER AVE,LOUISVILLE,KY,40217
525,1093 DUVAL ST,LEXINGTON,KY,40515
526,4311 BARDSTOWN RD,LOUISVILLE,KY,40218
527,1941 BISHOP LANE,LOUISVILLE,KY,40218
528,2921 HIKES LANE,LOUISVILLE,KY,40218
529,2221 MEADOW DRIVE,LOUISVILLE,KY,40218
530,3606 KLONDIKE LANE,LOUISVILLE,KY,40218
531,2221 MEADOW DR,LOUISVILLE,KY,40218
532,2301 MEADOW DR,LOUISVILLE,KY,40218
533,3801 BARDSTOWN RD,LOUISVILLE,KY,40218
534,3606 KLONDIKE LN,LOUISVILLE,KY,40218
535,1930 BISHOP LN STE 101710TH,LOUISVILLE,KY,40218
536,1941 BISHOP LN,LOUISVILLE,KY,40218
537,2245 HIKES LN,LOUISVILLE,KY,40218
538,4229 BARDSTOWN RD,LOUISVILLE,KY,40218
539,4600 BARDSTOWN RD,LOUISVILLE,KY,40218
540,4315 COMMERCE DR,LAFAYETTE,IN,47905
541,13752 LAKERIDGE DR,FISHERS,IN,46037
542,5100 OUTER LOOP,LOUISVILLE,KY,40219
543,4801 OUTER LOOP A206,LOUISVILLE,KY,40219
544,4406 ST. RITA DR,LOUISVILLE,KY,40219
545,8000 WILLIAM G PENNY LN,LOUISVILLE,KY,40219
546,4801 OUTER LOOP,LOUISVILLE,KY,40219
547,5417 ROBBS LN,LOUISVILLE,KY,40219
548,2441 STATE ST,NEW ALBANY,IN,47150
549,8000 WILLIAM G PENNY LANE,LOUISVILLE,KY,40219
550,7203 PRESTON HWY,LOUISVILLE,KY,40219
551,4413 SANTA PAULA LN,LOUISVILLE,KY,40219
552,7926 PRESTON HWY,LOUISVILLE,KY,40219
553,4514 OUTER LOOP,LOUISVILLE,KY,40219
554,4919 OUTER LOOP,LOUISVILLE,KY,40219
555,8319 PRESTON HWY,LOUISVILLE,KY,40219
556,8517 PRESTON HWY,LOUISVILLE,KY,40219
557,8516 PRESTON HWY,LOUISVILLE,KY,40219
558,2015 HERR LN STE E,LOUISVILLE,KY,40222
559,805 IVY AVE STE B,TILLAMOOK,OR,97141
560,913 A ST,MYRTLE POINT,OR,97458
561,1116 VETERANS PKWY,CLARKSVILLE,IN,47129
562,220 CASSIDY BLVD,PIKEVILLE,KY,41501
563,6810 DIXIE HWY,LOUISVILLE,KY,40258
564,3046 BRECKENRIDGE LN,LOUISVILLE,KY,40220
565,3101 BRECKENRIDGE LN,LOUISVILLE,KY,40220
566,2962 RICHLAND AVE,LOUISVILLE,KY,40220
567,2821 SOUTH HURSTBOURNE PKWY,LOUISVILLE,KY,40220
568,3046 BRECKINRIDGE LN,LOUISVILLE,KY,40220
569,3201 HIKES LANE,LOUISVILLE,KY,40220
570,3946 TAYLORSVILLE RD.,LOUISVILLE,KY,40220
571,3827 TAYLORSVILLE RD,LOUISVILLE,KY,40220
572,3701 TAYLORSVILLE RD,LOUISVILLE,KY,40220
573,4100 TAYLORSVILLE RD,LOUISVILLE,KY,40220
574,9120 HURSTBOURNE LN,LOUISVILLE,KY,40220
575,3000 BRECKENRIDGE LN,LOUISVILLE,KY,40220
576,3044 BRECKENRIDGE LN,LOUISVILLE,KY,40220
577,3038 BRECKENRIDGE LN,LOUISVILLE,KY,40220
578,3036 BRECKENRIDGE LN,LOUISVILLE,KY,40220
579,3036 BRECKENRIDGE LN STE 103,LOUISVILLE,KY,40220
580,3131 HUNSINGER LN,LOUISVILLE,KY,40220
581,3101 BRECKENRIDGE LN STE 2D,LOUISVILLE,KY,40220
582,3101 BRECKENRIDGE LN STE 4B,LOUISVILLE,KY,40220
583,3000 CLEVAN WAY UNIT 202,LOUISVILLE,KY,40220
584,3221 SILVER SPRINGS DR,LOUISVILLE,KY,40220
585,4544 TAYLORSVILLE RD,LOUISVILLE,KY,40220
586,4600 TAYLORSVILLE RD,LOUISVILLE,KY,40220
587,2934 BRECKENRIDGE LN STE 1,LOUISVILLE,KY,40220
588,8921 STONE GREEN WAY,LOUISVILLE,KY,40220
589,2831 S HURSTBOURNE PKWY,LOUISVILLE,KY,40220
590,2010 S HURSTBOURNE PKWY,LOUISVILLE,KY,40220
591,12907 FACTORY LN,LOUISVILLE,KY,40245
592,3413 STONY SPRING CIR,LOUISVILLE,KY,40220
593,3409 STONY SPRING CIR,LOUISVILLE,KY,40220
594,3327 RAINVIEW CIR,LOUISVILLE,KY,40220
595,3018 CHARLESTOWN XING,NEW ALBANY,IN,47150
596,424 WEST ST,MADISON,IN,47250
597,2513 MICHIGAN RD,MADISON,IN,47250
598,225 S HURSTBOURNE PKWY STE 102,LOUISVILLE,KY,40222
599,7807 SHELBYVILLE RD STE 203,LOUISVILLE,KY,40222
600,2323 LIME KILN LN. SUITE A,LOUISVILLE,KY,40222
601,8013 NEW LAGRANGE RD,LOUISVILLE,KY,40222
602,7902 NEW LAGRANGE RD,LOUISVILLE,KY,40222
603,2015 HERR LANE,LOUISVILLE,KY,40222
604,7980 NEW LAGRANGE ROAD,LOUISVILLE,KY,40222
605,2015 HERR LN,LOUISVILLE,KY,40222
606,7807 SHELBYVILLE RD,LOUISVILLE,KY,40222
607,1313 LYNDON LANE,LOUISVILLE,KY,40222
608,1313 LYNDON LN STE 214,LOUISVILLE,KY,40222
609,1120 SPRING ST,JEFFERSONVILLE,IN,47130
610,2323 LIME KILN LN,LOUISVILLE,KY,40222
611,1855 AUSTIN BLUFFS PKWY,COLORADO SPRINGS,CO,80918
612,2415 LIME KILN LN,LOUISVILLE,KY,40222
613,6520 GLENRIDGE PARK PL,LOUISVILLE,KY,40222
614,7405A NEW LAGRANGE ROAD,LOUISVILLE,KY,40222
615,8013 NEW LAGRANGE ROAD,LOUISVILLE,KY,40222
616,7420 WESTPORT RD,LOUISVILLE,KY,40222
617,1106 LYNDON LN,LOUISVILLE,KY,40222
618,718 LYNDON LN,LOUISVILLE,KY,40222
619,8153 NEW LA GRANGE RD,LOUISVILLE,KY,40222
620,8013 NEW LAGRANGE RD STE 6,LOUISVILLE,KY,40222
621,8013 NEW LAGRANGE RD STE 5A,LOUISVILLE,KY,40222
622,7980 NEW LAGRANGE RD,LOUISVILLE,KY,40222
623,7980 NEW LA GRANGE RD STE 2,LOUISVILLE,KY,40222
624,7300 NEW LAGRANGE RD,LOUISVILLE,KY,40222
625,7513 NEW LAGRANGE RD,LOUISVILLE,KY,40222
626,7410 NEW LAGRANGE RD,LOUISVILLE,KY,40222
627,225 S HURSTBOURNE PKWY,LOUISVILLE,KY,40222
628,9112 LEESGATE RD,LOUISVILLE,KY,40222
629,9114 LEESGATE RD,LOUISVILLE,KY,40222
630,9505 WILLIAMSBURG PLZ,LOUISVILLE,KY,40222
631,9100 DENINGTON DR,LOUISVILLE,KY,40222
632,8403 SHELBYVILLE RD,LOUISVILLE,KY,40222
633,105 LYNDON LN STE 104,LOUISVILLE,KY,40222
634,8801 SPRINGSBURY PL,LOUISVILLE,KY,40222
635,1313 LYNDON LN,LOUISVILLE,KY,40222
636,7807 SHELBYVILLE RD STE 202,LOUISVILLE,KY,40222
637,9618 BAYBERRY GREEN LN,LOUISVILLE,KY,40291
638,NYU SCHOOL OF DENTISTRY,NEW YORK,NY,10010
639,10031 FOREST GREEN BLVD,LOUISVILLE,KY,40223
640,9510 ORMSBY STATION RD STE 203,LOUISVILLE,KY,40223
641,2809 N. HURSTBOURNE PKWY,LOUISVILLE,KY,40223
642,9780 ORMSBY STATION RD,LOUISVIILE,KY,40223
643,1804 TELLURIDE WAY APT 101,LOUISVILLE,KY,40223
644,2813 N HURSTBOURNE PKWY,LOUISVILLE,KY,40223
645,2809 N HURSTBOURNE PKWY,LOUISVILLE,KY,40223
646,10258 SHELBYVILLE ROAD,LOUISVILLE,KY,40223
647,10270 SHELBYVILLE RD,LOUISVILLE,KY,40223
648,9900 SHELBYVILLE RD STE 3A,LOUISVILLE,KY,40223
649,9800 SHELBYVILLE RD,LOUISVILLE,KY,40223
650,10224 SHELBYVILLE RD,LOUISVILLE,KY,40223
651,10228 SHELBYVILLE RD,LOUISVILLE,KY,40223
652,205 MOSER RD,LOUISVILLE,KY,40223
653,205 MOSER RD STE A,LOUISVILLE,KY,40223
654,10412 SHELBYVILLE RD,LOUISVILLE,KY,40223
655,10623 MORAINE CIR APT 108,LOUISVILLE,KY,40223
656,9824 LINN STATION RD,LOUISVILLE,KY,40223
657,13320 SHELBYVILLE RD,LOUISVILLE,KY,40223
658,13301 SHELBYVILLE RD STE 105,LOUISVILLE,KY,40223
659,9510 ORMSBY STATION RD,LOUISVILLE,KY,40223
660,13100 MAGISTERIAL DR,LOUISVILLE,KY,40223
661,13808 LAKE POINT CIR,LOUISVILLE,KY,40223
662,10200 FOREST GREEN BLVD STE 112,LOUISVILLE,KY,40223
663,13050 MAGISTERIAL DR,LOUISVILLE,KY,40223
664,1485 SABLE WING CIR,LOUISVILLE,KY,40223
665,6500 OUTER LOOP,LOUISVILLE,KY,40228
666,7230 PEPPERMILL LN,LOUISVILLE,KY,40228
667,7600 OUTER LOOP,LOUISVILLE,KY,40228
668,5201 COMMERCE CROSSING DRIVE,LOUISVILLE,KY,40229
669,11302 PRESTON HWY,LOUISVILLE,KY,40229
670,3807 FREEDOM WAY,LOUISVILLE,KY,40229
671,5404 BIG SKY DR,LOUISVILLE,KY,40229
672,9413 SMYRNA PKWY,LOUISVILLE,KY,40229
673,5207 COMMERCE CROSSINGS DR,LOUISVILLE,KY,40229
674,119 TOPFIELD RD,LOUISVILLE,KY,40229
675,6234C NORTH PRESTON HWY,LOUISVILLE,KY,40229
676,3800 SPRINGHURST BLVD,LOUISVILLE,KY,40241
677,3801 SPRINGHURST BLVD,LOUISVILLE,KY,40241
678,9451 WESTPORT ROAD,LOUISVILLE,KY,40241
679,3210 WESTPORT GREEN PLACE,LOUISVILLE,KY,40241
680,10494 WESTPORT RD,LOUISVILLE,KY,40241
681,10500 FISCHER PARK DR,LOUISVILLE,KY,40241
682,3120 BLACKISTON MILL RD,NEW ALBANY,IN,47150
683,3801 SPRINGHURST BLVD.,LOUISVILLE,KY,40241
684,9494 BROWNSBORO RD,LOUISVILLE,KY,40241
685,7808 CLIFFS EDGE CT,LOUISVILLE,KY,40241
686,8401 BROWNSBORO RD,LOUISVILLE,KY,40241
687,4649 SHENANDOAH DR,LOUISVILLE,KY,40241
688,4111 MURPHY LN,LOUISVILLE,KY,40241
689,3707 CHAMBERLAIN LN,LOUISVILLE,KY,40241
690,10212 WESTPORT RD,LOUISVILLE,KY,40241
691,9467 WESTPORT RD,LOUISVILLE,KY,40241
692,9710 PARK PLAZA AVE,LOUISVILLE,KY,40241
693,9710 PARK PLAZA AVE UNIT 109,LOUISVILLE,KY,40241
694,9451 WESTPORT RD STE 109,LOUISVILLE,KY,40241
695,3200 WESTPORT GREEN PL,LOUISVILLE,KY,40241
696,10000 BROWNSBORO RD,LOUISVILLE,KY,40241
697,3588 SPRINGHURST BLVD,LOUISVILLE,KY,40241
698,4105 BUTTONBUSH MEADOW CT,LOUISVILLE,KY,40241
699,3801 SPRINGHURST BLVD STE 108,LOUISVILLE,KY,40241
700,630 COMANCHE TRL STE A,FRANKFORT,KY,40601
701,4642 CHAMBERLAIN LN STE 252,LOUISVILLE,KY,40241
702,8131 SAWYER BROWN RD STE 501,NASHVILLE,TN,37221
703,10000 BROWNSBORO RD STE 6,LOUISVILLE,KY,40241
704,8700 BAYBERRY PLACE,LOUISVILLE,KY,40242
705,9325 NEW LAGRANGE RD,LOUISVILLE,KY,40242
706,9325 NEW LAGRANGE ROAD,LOUISVILLE,KY,40242
707,8730 WESTPORT RD,LOUISVILLE,KY,40242
708,2502 HERMITAGE WAY STE B,LOUISVILLE,KY,40242
709,9513 WHIPPS MILL RD,LOUISVILLE,KY,40242
710,9014 LYNDON LAKES PL,LOUISVILLE,KY,40242
711,11708 MAIN ST,MIDDLETOWN,KY,40243
712,134 EVERGREEN RD,LOUISVILLE,KY,40243
713,134 EVERGREEN RD,MIDDLETOWN,KY,40243
714,12010 SHELBYVILLE RD STE 100,LOUISVILLE,KY,40243
715,134 N EVERGREEN RD,MIDDLETOWN,KY,40243
716,107 WATTERSON TRAIL,LOUISVILLE,KY,40243
717,302 MIDDLETOWN PARK PLACE,LOUISVILLE,KY,40243
718,904 LILY CREEK ROAD,LOUISVILLE,KY,40243
719,134 EVERGREEN RD STE 201,LOUISVILLE,KY,40243
720,12010 SHELBYVILLE RD,LOUISVILLE,KY,40243
721,10718 SHELBYVILLE RD,LOUISVILLE,KY,40243
722,11509 SHELBYVILLE RD,LOUISVILLE,KY,40243
723,107 N WATTERSON TRL,LOUISVILLE,KY,40243
724,138 N EVERGREEN RD,LOUISVILLE,KY,40243
725,12414 SHELBYVILLE RD,LOUISVILLE,KY,40243
726,130 EVERGREEN RD STE 100,MIDDLETOWN,KY,40243
727,130 EVERGREEN RD STE 100,LOUISVILLE,KY,40243
728,740 S LIMESTONE STE E214,LEXINGTON,KY,40536
729,130 EVERGREEN RD,MIDDLETOWN,KY,40243
730,12405 OLD SHELBYVILLE RD,LOUISVILLE,KY,40243
731,12563 SHELBYVILLE RD,LOUISVILLE,KY,40243
732,12935 SHELBYVILLE RD STE 100,LOUISVILLE,KY,40243
733,12910 SHELBYVILLE RD,LOUISVILLE,KY,40243
734,12601 TOWNEPARK WAY,LOUISVILLE,KY,40243
735,12802 TOWNEPARK WAY,LOUISVILLE,KY,40243
736,12910 SHELBYVILLE RD STE 300,LOUISVILLE,KY,40243
737,300 MIDDLETOWN PARK PL,LOUISVILLE,KY,40243
738,305 MIDDLETOWN PARK PL,LOUISVILLE,KY,40243
739,106 N WATTERSON TRL,LOUISVILLE,KY,40243
740,904 LILY CREEK RD,LOUISVILLE,KY,40243
741,904 LILY CREEK RD STE 101,LOUISVILLE,KY,40243
742,11801 BRINLEY AVE STE 100,LOUISVILLE,KY,40243
743,2501 BUSH RIDGE DRIVE,LOUISVILLE,KY,40245
744,2300 TERRA CROSSING BLVD STE 108,LOUISVILLE,KY,40245
745,12466 LAGRANGE RD,LOUISVILLE,KY,40245
746,13913 SHELBYVILLE RD,LOUISVILLE,KY,40245
747,14045 SHELBYVILLE RD,LOUISVILLE,KY,40245
748,14400 ACADEMY RIDGE BLVD,LOUISVILLE,KY,40245
749,13819 ENGLISH VILLA DR,LOUISVILLE,KY,40245
750,12907 FACTORY LN STE B,LOUISVILLE,KY,40245
751,12907-B FACTORY LN,LOUISVILLE,KY,40245
752,1712 BELAY WAY,LOUISVILLE,KY,40245
753,2501 BUSH RIDGE DR,LOUISVILLE,KY,40245
754,2120 HIGH WICKHAM PL,LOUISVILLE,KY,40245
755,2120 HIGH WICKHAM PL STE 103,LOUISVILLE,KY,40245
756,2300 TERRA CROSSING BLVD STE 107,LOUISVILLE,KY,40245
757,307 LONGVIEW PARK PL,LOUISVILLE,KY,40245
758,1605 WOOD THRUSH TRCE,LOUISVILLE,KY,40245
759,1215 WINTERBRANCH WAY,LOUISVILLE,KY,40245
760,5200 N ARMENIA AVE,TAMPA,FL,33603
761,15301 CRYSTAL SPRINGS WAY,LOUISVILLE,KY,40245
762,9551 N OWASSO EXPY,OWASSO,OK,74055
763,13503 TERRACE CREEK DR APT 102,LOUISVILLE,KY,40245
764,6790 DIXIE HWY,LOUISVILLE,KY,40258
765,8511 TERRY RD,LOUISVILLE,KY,40258
766,7214 DIXIE HWY,LOUISVILLE,KY,40258
767,7206 DIXIE HWY.,LOUISVILLE,KY,40258
768,6826 BARDSTOWN RD,LOUISVILLE,KY,40291
769,1019 W EADS PKWY,LAWRENCEBURG,IN,47025
770,8700 DIXIE HWY,LOUISVILLE,KY,40258
771,6613 EVERTON DR,LOUISVILLE,KY,40258
772,4816 GREENWOOD RD,LOUISVILLE,KY,40258
773,7200 DIXIE HWY,LOUISVILLE,KY,40258
774,6501 DIXIE HWY,LOUISVILLE,KY,40258
775,6788 DIXIE HWY,LOUISVILLE,KY,40258
776,6801 DIXIE HWY STE 128,LOUISVILLE,KY,40258
777,6466 S HIGLEY RD STE 101,GILBERT,AZ,85298
778,130 AVENIDA CABRILLO,SAN CLEMENTE,CA,92672
779,10640 DIXIE HWY,LOUISVILLE,KY,40272
780,9900 OLD THIRD STREET ROAD,LOUISVILLE,KY,40272
781,9709 DIXIE HWY,LOUISVILLE,KY,40272
782,9847 3RD STREET RD,LOUISVILLE,KY,40272
783,9900 3RD STREET RD,LOUISVILLE,KY,40272
784,9707 DIXIE HWY,LOUISVILLE,KY,40272
785,10303 1/2 DIXIE HWY,LOUISVILLE,KY,40272
786,5300 BARDSTOWN RD,LOUISVILLE,KY,40291
787,8711 OLD BARDSTOWN RD,LOUISVILLE,KY,40291
788,6826 BARDSTOWN ROAD,LOUISVILLE,KY,40291
789,8002 N WATTERSON TR,LOUISVILLE,KY,40291
790,4906 BARDSTOWN RD,LOUISVILLE,KY,40291
791,5524 BARDSTOWN RD,LOUISVILLE,KY,40291
792,5713 BARDSTOWN RD,LOUISVILLE,KY,40291
793,5906 BARDSTOWN RD,LOUISVILLE,KY,40291
794,5912 BARDSTOWN RD,FERN CREEK,KY,40291
795,5912 BARDSTOWN RD,LOUISVILLE,KY,40291
796,9127 FERN CREEK RD,LOUISVILLE,KY,40291
797,6415 BARDSTOWN RD,LOUISVILLE,KY,40291
798,6604 BARDSTOWN RD,LOUISVILLE,KY,40291
799,8009 BARDSTOWN RD,LOUISVILLE,KY,40291
800,8701 OLD BARDSTOWN RD,LOUISVILLE,KY,40291
801,8727 OLD BARDSTOWN RD,LOUISVILLE,KY,40291
802,9360 CEDAR CENTER WAY,LOUISVILLE,KY,40291
803,9204 TAYLORSVILLE RD STE 119,LOUISVILLE,KY,40299
804,3701 HOPEWELL RD,LOUISVILLE,KY,40299
805,2620 GLEESON LANE STE A,LOUISVILLE,KY,40299
806,8250 WATTERSON TRAIL,LOUISVILLE,KY,40299
807,10516 WATTERSON TRAIL,LOUISVILLE,KY,40299
808,12613 TAYLORSVILLE RD.,LOUISVILLE,KY,40299
809,10205 TAYLORSVILLE RD,JEFFERSONTOWN,KY,40299
810,8250 WATTERSON TRL,LOUISVILLE,KY,40299
811,3817 KIRBY LN,LOUISVILLE,KY,40299
812,9001 GALENE DR,LOUISVILLE,KY,40299
813,9000 TAYLORSVILLE RD,LOUISVILLE,KY,40299
814,9200 TAYLORSVILLE RD,LOUISVILLE,KY,40299
815,2303 HURSTBOURNE VILLAGE DR STE 500,LOUISVILLE,KY,40299
816,9610 TAYLORSVILLE RD,JEFFERSONTOWN,KY,40299
817,9706 TAYLORSVILLE RD,LOUISVILLE,KY,40299
818,2707 TUCKER RD,LOUISVILLE,KY,40299
819,10004 TAYLORSVILLE RD,LOUISVILLE,KY,40299
820,10205 TAYLORSVILLE RD,LOUISVILLE,KY,40299
821,10503 WATTERSON TRL,LOUISVILLE,KY,40299
822,3841 RUCKRIEGEL PKWY,LOUISVILLE,KY,40299
823,3841 RUCKRIEGEL PKWY # 100,LOUISVILLE,KY,40299
824,3841 RUCKRIEGEL PKWY STE 100,LOUISVILLE,KY,40299
825,3831 RUCKRIEGEL PKWY,LOUISVILLE,KY,40299
826,12613 TAYLORSVILLE RD,LOUISVILLE,KY,40299
827,3801 S HURSTBOURNE PKWY,LOUISVILLE,KY,40299
828,680 W BOUGHTON RD,BOLINGBROOK,IL,60440
829,110 S LOCUST ST,CARLISLE,KY,40311
830,110 N. LOCUST ST,CARLISLE,KY,40311
831,110 N LOCUST ST,CARLISLE,KY,40311
832,98 RIVER STREET SUITE A,CLAY CITY,KY,40312
833,732 HIGHWAY 36,FRENCHBURG,KY,40322
834,316 W 2ND ST,MOREHEAD,KY,40351
835,101 DARBY DR STE 101,GEORGETOWN,KY,40324
836,1508 OXFORD DR,GEORGETOWN,KY,40324
837,115 COURT,GEORGETOWN,KY,40324
838,1154 LEXINGTON RD,GEORGETOWN,KY,40324
839,110 POCAHONTAS TRL,GEORGETOWN,KY,40324
840,1002 LEXINGTON RD,GEORGETOWN,KY,40324
841,227 E MAIN ST,GEORGETOWN,KY,40324
842,808 S BROADWAY ST,GEORGETOWN,KY,40324
843,204 BEVINS LN,GEORGETOWN,KY,40324
844,240 BLOSSOM PARK DR STE 1,GEORGETOWN,KY,40324
845,101 DARBY DR,GEORGETOWN,KY,40324
846,1156 LEXINGTON RD,GEORGETOWN,KY,40324
847,203 CHAMPION WAY,GEORGETOWN,KY,40324
848,203 CHAMPION WAY STE 6,GEORGETOWN,KY,40324
849,1721 PATTERSON ST,NASHVILLE,TN,37203
850,205 CHAMPION WAY,GEORGETOWN,KY,40324
851,107 FRAZIER CT,GEORGETOWN,KY,40324
852,107 FRAZIER COURT,GEORGETOWN,KY,40324
853,240 BLOSSOM PARK DR,GEORGETOWN,KY,40324
854,230 CONNECTOR RD,GEORGETOWN,KY,40324
855,2413 E LOOP 820 N,FORT WORTH,TX,76118
856,2115 ROCKY DR,PARIS,KY,40361
857,450 CONNECTOR RD,GEORGETOWN,KY,40324
858,120 EDWARDS AVE,GEORGETOWN,KY,40324
859,402 BOSTON SQ,GEORGETOWN,KY,40324
860,517 LEGION DR,HARRODSBURG,KY,40330
861,PO BOX 104; 1028 NORTH COLLEGE ST,HARRODSBURG,KY,40330
862,756 N COLLEGE ST,HARRODSBURG,KY,40330
863,135 COLLIN DR,HARRODSBURG,KY,40330
864,117 E LEXINGTON ST,HARRODSBURG,KY,40330
865,1028 N COLLEGE ST,HARRODSBURG,KY,40330
866,4071 TATES CREEK CENTRE DR STE 210,LEXINGTON,KY,40517
867,10 RIVER DRIVE,IRVINE,KY,40336
868,161 RICHMOND RD,IRVINE,KY,40336
869,331 RIVER DR,IRVINE,KY,40336
870,87 WILDWOOD PLACE,IRVINE,KY,40336
871,934 RICHMOND RD,IRVINE,KY,40336
872,30 STACY LANE RD,IRVINE,KY,40336
873,311 SOUTH MAIN STREET,LAWRENCEBURG,KY,40342
874,108 N MAIN ST,LAWRENCEBURG,KY,40342
875,147 W WOODFORD ST,LAWRENCEBURG,KY,40342
876,107 W WOODFORD ST,LAWRENCEBURG,KY,40342
877,720 W BROADWAY ST,LAWRENCEBURG,KY,40342
878,108 PLAZA DRIVE,LAWRENCEBURG,KY,40342
879,1012 EAGLE LAKE DR,LAWRENCEBURG,KY,40342
880,800 ROSE ST RM D104,LEXINGTON,KY,40536
881,128A E MAIN ST,MIDWAY,KY,40347
882,113 N. WINTER ST.,MIDWAY,KY,40347
883,1275 HALLWOOD DR,MOREHEAD,KY,40351
884,165 EAST MAIN ST,MOREHEAD,KY,40351
885,400 CLINIC DR,MOREHEAD,KY,40351
886,204 MOREHEAD PLAZA,MOREHEAD,KY,40351
887,750 W. MAIN STREET,MOREHEAD,KY,40351
888,1275 HALLWOOD DRIVE,MOREHEAD,KY,40351
889,709 W MAIN ST,MOREHEAD,KY,40351
890,399 W MAPLE LEAF RD,MAYSVILLE,KY,41056
891,750 W MAIN ST,MOREHEAD,KY,40351
892,204 MOREHEAD PLZ,MOREHEAD,KY,40351
893,163 E MAIN ST,MOREHEAD,KY,40351
894,309 E MAIN ST,MOREHEAD,KY,40351
895,112 ALLIE YOUNG HALL,MOREHEAD,KY,40351
896,255 BEACON HILL RD,MOREHEAD,KY,40351
897,740 S. LIMESTONE,LEXINGTON,KY,40514
898,276 KROGER CTR,MOREHEAD,KY,40351
899,211 KY 59,VANCEBURG,KY,41179
900,25 E HIGH ST STE 2,MT STERLING,KY,40353
901,508 N MAYSVILLE RD,MT STERLING,KY,40353
902,1107 C INDIAN MOUND DRIVE,MT STERLING,KY,40353
903,225 WINDSOR DR,MT STERLING,KY,40353
904,134 N MAYSVILLE ST,MT STERLING,KY,40353
905,635 N. MAYSVILLE ST.,MOUNT STERLING,KY,40353
906,25 E HIGH ST,MOUNT STERLING,KY,40353
907,100 E HIGH ST,MT STERLING,KY,40353
908,100 E HIGH ST,MOUNT STERLING,KY,40353
909,25 E HIGH ST,MT STERLING,KY,40353
910,1107 INDIAN MOUND DR STE C,MT STERLING,KY,40353
911,1107 INDIAN MOUND DR,MT STERLING,KY,40353
912,541 WILLIN WAY,MT STERLING,KY,40353
913,225 WINDSOR DR,MOUNT STERLING,KY,40353
914,122 STONE TRACE DR STE A,MOUNT STERLING,KY,40353
915,105 BRANDON WAY STE C,MT STERLING,KY,40353
916,105 BRANDON WAY STE A,MT STERLING,KY,40353
917,105 BRUCE PROFESSIONAL PLZ,MT STERLING,KY,40353
918,635 MAYSVILLE RD STE B,MOUNT STERLING,KY,40353
919,611 N MAIN ST,NICHOLASVILLE,KY,40356
920,106 FAIRFIELD DR,NICHOLASVILLE,KY,40356
921,106 FAIRFIELD DRIVE,NICHOLASVILLE,KY,40356
922,210 BELLAIRE DR,NICHOLASVILLE,KY,40356
923,621 EDGEWOOD DRIVE,NICHOLASVILLE,KY,40356
924,117 BRYANT DR,NICHOLASVILLE,KY,40356
925,231 EAST BRANNON RD,NICHOLASVILLE,KY,40356
926,210 AND ONE HALF EDGEWOOD DR,NICHOLASVILLE,KY,40356
927,704 N MAIN STREET,NICHOLASVILLE,KY,40356
928,938 SOUTH MAIN STREET,NICHOLASVILLE,KY,40356
929,100 LAKE ST,NICHOLASVILLE,KY,40356
930,409 ETTER DR,NICHOLASVILLE,KY,40356
931,504 N MAIN ST STE B,NICHOLASVILLE,KY,40356
932,129 EDGEWOOD PLAZA DR,NICHOLASVILLE,KY,40356
933,250 EDGEWOOD DR,NICHOLASVILLE,KY,40356
934,122 PROFESSIONAL AVE,WINCHESTER,KY,40391
935,230 N PLAZA DR,NICHOLASVILLE,KY,40356
936,704 N MAIN ST,NICHOLASVILLE,KY,40356
937,231 E BRANNON RD,NICHOLASVILLE,KY,40356
938,108 FAIRFIELD DR,NICHOLASVILLE,KY,40356
939,22 N JEFFERSON AVE,COOKEVILLE,TN,38501
940,2785 BURNT MILL RD,LEXINGTON,KY,40511
941,620 PERIMETER DR STE 207,LEXINGTON,KY,40517
942,105 SPRUCE ST,LEXINGTON,KY,40507
943,207 FAIRFIELD DR,NICHOLASVILLE,KY,40356
944,409 ROLAND AVE,OWENTON,KY,40359
945,1005 HIGHWAY 22 E,OWENTON,KY,40359
946,116 N MADISON ST,OWENTON,KY,40359
947,1005 HWY 22 EAST,OWENTON,KY,40359
948,409 ROLAND AVENUE,OWENTON,KY,40359
949,330 W SEMINARY ST,OWENTON,KY,40359
950,135 SUDDITH STREET,OWINGSVILLE,KY,40360
951,4223A LEXINGTON ROAD,PARIS,KY,40361
952,4223 A LEXINGTON RD,PARIS,KY,40361
953,1521 CYPRESS ST,PARIS,KY,40361
954,2228 BYPASS RD,PARIS,KY,40361
955,1333 LAKE DR,DANIELS,WV,25832
956,520 HIGH ST,PARIS,KY,40361
957,436 MAIN ST,PARIS,KY,40361
958,109 N MIDDLETOWN RD,PARIS,KY,40361
959,2020 ALVERSON DR,PARIS,KY,40361
960,4223 LEXINGTON RD STE A,PARIS,KY,40361
961,1466 TINY TOWN RD STE A,CLARKSVILLE,TN,37042
962,740 S LIMESTONE ST ROOM A262,LEXINGTON,KY,40536
963,210 N MAIN ST,STANTON,KY,40380
964,131 N MAIN ST,STANTON,KY,40380
965,217 N MAIN ST,VERSAILLES,KY,40383
966,360 AMSDEN AVE STE 400,VERSAILLES,KY,40383
967,156 FRANKFORT STREET,VERSAILLES,KY,40383
968,210 CROSSFIELD DR,VERSAILLES,KY,40383
969,230 FRANKFORT ST,VERSAILLES,KY,40383
970,156 YELLOW JACKET DR,VERSAILLES,KY,40383
971,240 N MAIN ST,VERSAILLES,KY,40383
972,426 LEXINGTON RD,VERSAILLES,KY,40383
973,360 AMSDEN AVE,VERSAILLES,KY,40383
974,426 LEXINGTON RD STE 150,VERSAILLES,KY,40383
975,6616 TROY PIKE,VERSAILLES,KY,40383
976,3590 TROY PIKE,VERSAILLES,KY,40383
977,113 E MAIN ST,WILMORE,KY,40390
978,1216 WEST LEXINGTON AVE,WINCHESTER,KY,40391
979,2560 BYPASS RD STE 2,WINCHESTER,KY,40391
980,198 REDWING DRIVE,WINCHESTER,KY,40391
981,726 BOONESBORO PLAZA,WINCHESTER,KY,40391
982,740 S LIMESTONE RM A262,LEXINGTON,KY,40536
983,1216 W LEXINGTON AVE,WINCHESTER,KY,40391
984,11 CANARY LN,WINCHESTER,KY,40391
985,196 REDWING DR,WINCHESTER,KY,40391
986,198 REDWING DR,WINCHESTER,KY,40391
987,244 W LEXINGTON AVE,WINCHESTER,KY,40391
988,2560 BYPASS RD,WINCHESTER,KY,40391
989,740 S LIMESTONE,LEXINGTON,KY,40536
990,140 HUBBARD RD,WINCHESTER,KY,40391
991,100 HUBBARD RD,WINCHESTER,KY,40391
992,201 S MAIN ST,WINCHESTER,KY,40391
993,244 REDWING DR,WINCHESTER,KY,40391
994,1303 W LEXINGTON AVE,WINCHESTER,KY,40391
995,182 PEDRO WAY,WINCHESTER,KY,40391
996,3404 LANSDOWNE DR,LEXINGTON,KY,40517
997,1300 WEST LEXINGTON AVE,WINCHESTER,KY,40391
998,206 RICHMOND RD,BEREA,KY,40403
999,402 RICHMOND RD,BEREA,KY,40403
1000,305 ESTILL STREET,BEREA,KY,40403
1001,201 PAULINE DR.,BEREA,KY,40403
1002,1007 ACE DRIVE,BEREA,KY,40403
1003,402 RICHMOND RD N STE C,BEREA,KY,40403
1004,1007 ACE DR,BEREA,KY,40403
1005,126 N BROADWAY ST,BEREA,KY,40403
1006,103 FEE ST,BEREA,KY,40403
1007,201 PAULINE DR,BEREA,KY,40403
1008,104 LEGACY DR,BEREA,KY,40403
1009,1080 BEN ALI DR STE A,DANVILLE,KY,40422
1010,1000 EAST LEXINGTON AVE,DANVILLE,KY,40422
1011,132 N SECOND STREET,DANVILLE,KY,40422
1012,132 NORTH 2ND ST,DANVILLE,KY,40422
1013,132 N 2ND ST,DANVILLE,KY,40422
1014,151 N THIRD ST,DANVILLE,KY,40422
1015,105 CITATION,DANVILLE,KY,40422
1016,435 WHIRLAWAY DR,DANVILLE,KY,40422
1017,201 WEST WALNUT STREET,DANVILLE,KY,40422
1018,8076 US HIGHWAY 42,FLORENCE,KY,41042
1019,151 N 3RD ST,DANVILLE,KY,40422
1020,303 S 4TH ST,DANVILLE,KY,40422
1021,400 S 4TH ST,DANVILLE,KY,40422
1022,412 S 4TH ST,DANVILLE,KY,40422
1023,359 S 4TH ST,DANVILLE,KY,40422
1024,359 S 4TH ST STE B,DANVILLE,KY,40422
1025,303 S 4TH ST STE 201,DANVILLE,KY,40422
1026,129 DANIEL DR,DANVILLE,KY,40422
1027,1080 BEN ALI DRIVE,DANVILLE,KY,40422
1028,122 DANIEL DR,DANVILLE,KY,40422
1029,116 SKYWATCH DR STE A,DANVILLE,KY,40422
1030,116 SKYWATCH DR # A,DANVILLE,KY,40422
1031,1080 BEN ALI DRIVE STE A,DANVILLE,KY,40422
1032,1080 BEN ALI DR,DANVILLE,KY,40422
1033,1072 BARNES MILL RD,RICHMOND,KY,40475
1034,116 SKYWATCH DR,DANVILLE,KY,40422
1035,1183 STANFORD RD.,LANCASTER,KY,40444
1036,1183 STANFORD RD,LANCASTER,KY,40444
1037,1183 STANFORD ROAD,LANCASTER,KY,40444
1038,309 LEXINGTON ROAD,LANCASTER,KY,40444
1039,4095 ATWOOD DR STE A,RICHMOND,KY,40475
1040,614 E MAIN ST,STANFORD,KY,40484
1041,US HWY 421 S MAIN STREET,MC KEE,KY,40447
1042,1010 MAIN ST S,MC KEE,KY,40447
1043,325 RICHMOND STREET,MOUNT VERNON,KY,40456
1044,940 W MAIN ST UNIT A,MOUNT VERNON,KY,40456
1045,75 NEWCOMB AVE,MOUNT VERNON,KY,40456
1046,116 PROGRESS DR,MOUNT VERNON,KY,40456
1047,326 HIGHLAND PARK DR,RICHMOND,KY,40475
1048,120 MERIDIAN WAY STE 2,RICHMOND,KY,40475
1049,1001 GIBSON BAY DR,RICHMOND,KY,40475
1050,401 HIGHLAND PARK DR.,RICHMOND,KY,40475
1051,805 EASTERN BY-PASS,RICHMOND,KY,40475
1052,2006 MERCHANT DR,RICHMOND,KY,40475
1053,2130 LEXINGTON ROAD,RICHMOND,KY,40475
1054,1001 GIBSON BAY DRIVE,RICHMOND,KY,40475
1055,120 MERIDIAN WAY,RICHMOND,KY,40475
1056,1018 IVAL JAMES BLVD,RICHMOND,KY,40475
1057,200 CARR LN,RICHMOND,KY,40475
1058,527 W MAIN ST,RICHMOND,KY,40475
1059,209 GERI LANE,RICHMOND,KY,40475
1060,106 ALYCIA DR,RICHMOND,KY,40475
1061,311 RADIO PARK DR STE B,RICHMOND,KY,40475
1062,311 RADIO PARK DR,RICHMOND,KY,40475
1063,4097 ATWOOD DRIVE,RICHMOND,KY,40475
1064,401 HIGHLAND PARK DR,RICHMOND,KY,40475
1065,138 N KEENELAND DR,RICHMOND,KY,40475
1066,1012 IVAL JAMES BLVD,RICHMOND,KY,40475
1067,4095 ATWOOD DR # A,RICHMOND,KY,40475
1068,1305 LANCASTER RD,RICHMOND,KY,40475
1069,1110 LANCASTER RD STE 2,RICHMOND,KY,40475
1070,519 HAMPTON WAY,RICHMOND,KY,40475
1071,519 HAMPTON WAY STE 1,RICHMOND,KY,40475
1072,519 HAMPTON WAY STE 10,RICHMOND,KY,40475
1073,1208 W MAIN ST,RICHMOND,KY,40475
1074,603 LANCASTER ST,STANFORD,KY,40484
1075,1081 DOVE RUN ROAD,LEXINGTON,KY,40502
1076,1081 DOVE RUN RD,LEXINGTON,KY,40502
1077,1101 VETERANS DRIVE (160-CDD),LEXINGTON,KY,40502
1078,1101 VETERANS DR,LEXINGTON,KY,40502
1079,239 WALTON AVE,LEXINGTON,KY,40502
1080,710 E MAIN ST,LEXINGTON,KY,40502
1081,614 E EUCLID AVE,LEXINGTON,KY,40502
1082,810 CHEVY CHASE PL,LEXINGTON,KY,40502
1083,3363 TATES CREEK RD,LEXINGTON,KY,40502
1084,365 ROMANY RD,LEXINGTON,KY,40502
1085,1933 HART RD,LEXINGTON,KY,40502
1086,613 BEECHMONT RD,LEXINGTON,KY,40502
1087,3363 TATES CREEK RD STE 216,LEXINGTON,KY,40502
1088,3349 TATES CREEK RD,LEXINGTON,KY,40502
1089,1081 DOVE RUN RD STE 105,LEXINGTON,KY,40502
1090,1065 DOVE RUN RD,LEXINGTON,KY,40502
1091,1025 DOVE RUN RD,LEXINGTON,KY,40502
1092,1081 DOVE RUN RD STE 101,LEXINGTON,KY,40502
1093,1132B TURKEY FOOT RD,LEXINGTON,KY,40502
1094,1983 DIXIE HWY,FT WRIGHT,KY,41011
1095,316 MEMORY LANE,LEXINGTON,KY,40502
1096,1301 WINCHESTER RD,LEXINGTON,KY,40505
1097,3300 MONTAVESTA RD APT 3106,LEXINGTON,KY,40502
1098,2358 NICHOLASVILLE RD,LEXINGTON,KY,40503
1099,3101 CLAYS MILL RD,LEXINGTON,KY,40503
1100,3340 CLAYS MILL RD,LEXINGTON,KY,40503
1101,535 WELLINGTON WAY STE 120,LEXINGTON,KY,40503
1102,2505 LARKIN RD STE 201,LEXINGTON,KY,40503
1103,4009 NICHOLASVILLE ROAD,LEXINGTON,KY,40503
1104,1640 NICHOLASVILLE ROAD,LEXINGTON,KY,40503
1105,527 WELLINGTON WAY,LEXINGTON,KY,40503
1106,190 WEST LOWRY LANE,LEXINGTON,KY,40503
1107,2505 LARKIN ROAD,LEXINGTON,KY,40503
1108,129 CHERRYBARK DRIVE,LEXINGTON,KY,40503
1109,1636 NICHOLASVILLE ROAD,LEXINGTON,KY,40503
1110,190 WEST LOWRY LANE #100,LEXINGTON,KY,40503
1111,1636 NICHOLASVILLE RD,LEXINGTON,KY,40503
1112,2134 NICHOLASVILLE RD,LEXINGTON,KY,40503
1113,617 DELZAN PL.,LEXINGTON,KY,40503
1114,133 CHERRYBARK DR,LEXINGTON,KY,40503
1115,2600 NICHOLASVILLE RD SUITE 120,LEXINGTON,KY,40503
1116,290 BIG RUN RD,LEXINGTON,KY,40503
1117,535 WELLINGTON WAY STE 130,LEXINGTON,KY,40503
1118,1807 NICHOLASVILLE RD,LEXINGTON,KY,40503
1119,1640 NICHOLASVILLE RD,LEXINGTON,KY,40503
1120,1517 NICHOLASVILLE RD,LEXINGTON,KY,40503
1121,1517 NICHOLASVILLE RD STE 301,LEXINGTON,KY,40503
1122,1636 NICHOLASVILLE RD STE 7,LEXINGTON,KY,40503
1123,1529 NICHOLASVILLE RD,LEXINGTON,KY,40503
1124,1640 NICHOLASVILLE RD STE 103,LEXINGTON,KY,40503
1125,1640 NICHOLASVILLE RD STE 202,LEXINGTON,KY,40503
1126,131 CHERRYBARK DR,LEXINGTON,KY,40503
1127,2036 REGENCY RD,LEXINGTON,KY,40503
1128,153 BURT RD,LEXINGTON,KY,40503
1129,2011 RAMBLER RD,LEXINGTON,KY,40503
1130,2134 NICHOLASVILLE RD STE 7,LEXINGTON,KY,40503
1131,2121 NICHOLASVILLE ROAD,LEXINGTON,KY,40503
1132,208 E LOWRY LN,LEXINGTON,KY,40503
1133,3070 HARRODSBURG RD,LEXINGTON,KY,40503
1134,2401 REGENCY RD,LEXINGTON,KY,40503
1135,2401 REGENCY RD STE 202,LEXINGTON,KY,40503
1136,185 PASADENA DR,LEXINGTON,KY,40503
1137,2549 SUN SEEKER CT,LEXINGTON,KY,40503
1138,2572 SUN SEEKER CT,LEXINGTON,KY,40503
1139,181 W LOWRY LN,LEXINGTON,KY,40503
1140,190 W LOWRY LN,LEXINGTON,KY,40503
1141,190 W LOWRY LN STE 100,LEXINGTON,KY,40503
1142,2358 NICHOLASVILLE RD STE 156,LEXINGTON,KY,40503
1143,121 MALABU DR,LEXINGTON,KY,40503
1144,2558 LARKIN RD,LEXINGTON,KY,40503
1145,2505 LARKIN RD,LEXINGTON,KY,40503
1146,2533 LARKIN RD,LEXINGTON,KY,40503
1147,617 DELZAN PL,LEXINGTON,KY,40503
1148,220 RUCCIO WAY,LEXINGTON,KY,40503
1149,444 LEWIS HARGETT CIR,LEXINGTON,KY,40503
1150,833 MEADOWBROOK DR,LEXINGTON,KY,40503
1151,249 GREENBRIAR RD,LEXINGTON,KY,40503
1152,4097 NICHOLS PARK DR,LEXINGTON,KY,40503
1153,3695 NICHOLASVILLE RD STE 140,LEXINGTON,KY,40503
1154,811 CORPORATE DR,LEXINGTON,KY,40503
1155,811 CORPORATE DR STE 203,LEXINGTON,KY,40503
1156,870 CORPORATE DR,LEXINGTON,KY,40503
1157,860 CORPORATE DR,LEXINGTON,KY,40503
1158,860 CORPORATE DR STE 101,LEXINGTON,KY,40503
1159,860 CORPORATE DR.,LEXINGTON,KY,40503
1160,860 CORPORATE DR STE 201,LEXINGTON,KY,40503
1161,800 ROSE ST RM D-508,LEXINGTON,KY,40536
1162,1517 NICHOLASVILLE RD STE 401,LEXINGTON,KY,40503
1163,324 22ND AVE N,NASHVILLE,TN,37203
1164,5005 MAIN ST STE 107,RUSTON,WA,98407
1165,1053 HUNTERS XING,ALCOA,TN,37701
1166,520 N 12TH ST,RICHMOND,VA,23298
1167,2353 ALEXANDRIA DR,LEXINGTON,KY,40504
1168,1330 HARRODSBURG RD,LEXINGTON,KY,40504
1169,1330 HARRODSBURG ROAD,LEXINGTON,KY,40504
1170,1401 HARRODSBURG ROAD,LEXINGTON,KY,40504
1171,1750 ALEXANDRIA DR,LEXINGTON,KY,40504
1172,1330 S BROADWAY,LEXINGTON,KY,40504
1173,1216 S BROADWAY,LEXINGTON,KY,40504
1174,1710 ALEXANDRIA DR,LEXINGTON,KY,40504
1175,2333 ALEXANDRIA DR,LEXINGTON,KY,40504
1176,2404 GREATSTONE PT,LEXINGTON,KY,40504
1177,2400 GREATSTONE PT,LEXINGTON,KY,40504
1178,2195 HARRODSBURG RD STE 175,LEXINGTON,KY,40504
1179,UK ORAL HEALTH,LEXINGTON,KY,40504
1180,833 LANE ALLEN RD,LEXINGTON,KY,40504
1181,750 SHAKER DR APT 526,LEXINGTON,KY,40504
1182,1401 HARRODSBURG RD,LEXINGTON,KY,40504
1183,"800 ROSE STREET, RM. D104",LEXINGTON,KY,40536
1184,"2195 HARRODSBURG ROAD, SUITE 175",LEXINGTON,KY,40504
1185,1412 NORTH BROADWAY,LEXINGTON,KY,40505
1186,1804 BRYAN STATION RD,LEXINGTON,KY,40505
1187,1301 WINCHESTER RD STE 225,LEXINGTON,KY,40505
1188,531 ELM ST,NEW HAVEN,CT,06511
1189,3227 W BLUE RIDGE DR,GREENVILLE,SC,29611
1190,1888 MAIN ST,HARTFORD,CT,06120
1191,144 BOSTON AVE,BRIDGEPORT,CT,06610
1192,738 WOLCOTT ST,WATERBURY,CT,06705
1193,105 MYRTLE ST,NEW BRITAIN,CT,06051
1194,"8210 FLOYD CURL DRIVE, MC 8214",SAN ANTONIO,TEXAS,78229
1195,118 S MAIN ST STE 5,DRY RIDGE,KY,41035
1196,712 W WALNUT ST,JOHNSON CITY,TN,37604
1197,470 COOPER DRIVE,LEXINGTON,KY,40506
1198,800 ROSE ST DENTAL SCIENCE BUILDING ROOM# D432,LEXINGTON,KY,40506
1199,BCTC DENTAL HYGIENE,LEXINGTON,KY,40506
1200,228 N UPPER ST,LEXINGTON,KY,40507
1201,2909 SEMINARY DR,GREENSBURG,PA,15601
1202,3401 LYON DR,LEXINGTON,KY,40513
1203,217 ELM TREE LN,LEXINGTON,KY,40507
1204,540 EAST MAIN ST,LEXINGTON,KY,40508
1205,624 NORTH BROADWAY,LEXINGTON,KY,40508
1206,"540 E MAIN ST.,",LEXINGTON,KY,40508
1207,540 EAST MAIN STREET,LEXINGTON,KY,40508
1208,556 N BROADWAY,LEXINGTON,KY,40508
1209,624 N BROADWAY,LEXINGTON,KY,40508
1210,1393 W MAIN ST,LEXINGTON,KY,40508
1211,145 WALTON AVE,LEXINGTON,KY,40508
1212,540 E MAIN ST,LEXINGTON,KY,40508
1213,540 E MAIN ST STE 125,LEXINGTON,KY,40508
1214,540 E MAIN ST STE 7,LEXINGTON,KY,40508
1215,431 S BROADWAY STE 112,LEXINGTON,KY,40508
1216,506 WOODLAND AVE # 2,LEXINGTON,KY,40508
1217,2200 AUBURN AVE,CINCINNATI,OH,45219
1218,2408 SIR BARTON WAY,LEXINGTON,KY,40509
1219,541 DARBY CREEK ROAD,LEXINGTON,KY,40509
1220,216 FOUNTAIN CT,LEXINGTON,KY,40509
1221,2517 SIR BARTON WAY STE 200,LEXINGTON,KY,40509
1222,3225 SUMMIT SQUARE PLACE,LEXINGTON,KY,40509
1223,216 FOUNTAIN COURT,LEXINGTON,KY,40509
1224,2704 OLD ROSEBUD ROAD,LEXINGTON,KY,40509
1225,180 PROSPEROUS PLACE,LEXINGTON,KY,40509
1226,3285 BLAZER PARKWAY,LEXINGTON,KY,40509
1227,2704 OLD ROSERUD RD STE210,LEXINGTON,KY,40509
1228,2716 OLD ROSEBUD RD,LEXINGTON,KY,40509
1229,1157 COLORADO ROAD,LEXINGTON,KY,40509
1230,2517 SIR BARTON WAY # 200,LEXINGTON,KY,40509
1231,6222 NE 74TH ST,SEATTLE,WA,98115
1232,80 CODELL DR,LEXINGTON,KY,40509
1233,3470 BLAZER PKWY,LEXINGTON,KY,40509
1234,2800 PALUMBO DR,LEXINGTON,KY,40509
1235,3101 RICHMOND RD,LEXINGTON,KY,40509
1236,501 DARBY CREEK RD,LEXINGTON,KY,40509
1237,541 DARBY CREEK ROAD STE 190,LEXINGTON,KY,40509
1238,2909 RICHMOND RD STE 30,LEXINGTON,KY,40509
1239,121 PROSPEROUS PL,LEXINGTON,KY,40509
1240,180 PROSPEROUS PL,LEXINGTON,KY,40509
1241,121 PROSPEROUS PL STE 3A,LEXINGTON,KY,40509
1242,131 PROSPEROUS PL,LEXINGTON,KY,40509
1243,216 FOUNTAIN CT STE 110,LEXINGTON,KY,40509
1244,3285 BLAZER PKWY,LEXINGTON,KY,40509
1245,3285 BLAZER PKWY STE 200,LEXINGTON,KY,40509
1246,2517 SIR BARTON WAY,LEXINGTON,KY,40509
1247,2541 SIR BARTON WAY,LEXINGTON,KY,40509
1248,3475 RICHMOND RD,LEXINGTON,KY,40509
1249,2443 SIR BARTON WAY,LEXINGTON,KY,40509
1250,305 W 12TH AVE,COLUMBUS,OH,43210
1251,501 DARBY CREEK RD STE 68,LEXINGTON,KY,40509
1252,3225 SUMMIT SQUARE PL,LEXINGTON,KY,40509
1253,2424 SIR BARTON WAY STE 375,LEXINGTON,KY,40509
1254,2480 PASCOLI PL,LEXINGTON,KY,40509
1255,2716 OLD ROSEBUD RD STE 110,LEXINGTON,KY,40509
1256,2700 OLD ROSEBUD RD,LEXINGTON,KY,40509
1257,2421 GOOSEBERRY CIR,LEXINGTON,KY,40509
1258,3101 RICHMOND RD.,LEXINGTON,KY,40509
1259,265 KY ROUTE 122,MARTIN,KY,41649
1260,610 S TILLOTSON AVE STE 125,MUNCIE,IN,47304
1261,3285 BLAZER PKWY STE 210,LEXINGTON,KY,40509
1262,740 S LIMESTONE UK COLLEGE OF DENTISTRY STE A219,LEXINGTON,KY,40536
1263,320 HAYS BLVD,LEXINGTON,KY,40509
1264,910 ENTERPRISE CT UNIT A276,LEXINGTON,KY,40510
1265,1600 LEESTOWN RD,LEXINGTON,KY,40511
1266,1500 LEESTOWN ROAD,LEXINGTON,KY,40511
1267,2250 LEESTOWN RD,LEXINGTON,KY,40511
1268,1510 NEWTOWN PIKE,LEXINGTON,KY,40511
1269,1500 LEESTOWN RD,LEXINGTON,KY,40511
1270,428 E NEW CIRCLE ROAD,LEXINGTON,KY,40511
1271,100 TRADE ST,LEXINGTON,KY,40511
1272,3301 LEESTOWN RD,LEXINGTON,KY,40511
1273,2665 ROCKAWAY PL,LEXINGTON,KY,40511
1274,4935 HIDDEN RIVER DR,LEXINGTON,KY,40511
1275,4383 OLD HARRODSBURG RD,LEXINGTON,KY,40513
1276,3141 BEAUMONT CENTRE CIRCLE,LEXINGTON,KY,40513
1277,3141 BEAUMONT CENTRE CIR STE 300,LEXINGTON,KY,40513
1278,989 GOVERNORS LN,LEXINGTON,KY,40513
1279,3264 SEBASTIAN LN,LEXINGTON,KY,40513
1280,1001 MONARCH ST,LEXINGTON,KY,40513
1281,3181 BEAUMONT CENTRE CIR,LEXINGTON,KY,40513
1282,1001 MONARCH ST STE 200,LEXINGTON,KY,40513
1283,1001 MONARCH ST STE 210,LEXINGTON,KY,40513
1284,3141 BEAUMONT CENTRE CIR,LEXINGTON,KY,40513
1285,3141 BEAUMONT CENTRE CIR STE 200,LEXINGTON,KY,40513
1286,3195 BEAUMONT CENTRE CIR STE 120,LEXINGTON,KY,40513
1287,3111 WALL ST STE 2,LEXINGTON,KY,40513
1288,3111 WALL ST,LEXINGTON,KY,40513
1289,1870 PEARTREE LN,HOPKINSVILLE,KY,42240
1290,1600 LEESTOWN ROAD,LEXINGTON,KY,40514
1291,3650 BOSTON RD,LEXINGTON,KY,40514
1292,3708 WILLOW RIDGE RD,LEXINGTON,KY,40514
1293,3700 WILLOW RIDGE RD,LEXINGTON,KY,40514
1294,3900 CROSBY DR APT 2212,LEXINGTON,KY,40515
1295,304 SOUTHPOINT DR,LEXINGTON,KY,40515
1296,4057 MOONCOIN WAY APT 14202,LEXINGTON,KY,40515
1297,4384 CLEARWATER WAY,LEXINGTON,KY,40515
1298,1821 DELONG RD,LEXINGTON,KY,40515
1299,3140 PIMLICO PKWY STE 105,LEXINGTON,KY,40517
1300,620 PERIMETER DR,LEXINGTON,KY,40517
1301,620 PERIMETERE DRIVE,LEXINGTON,KY,40517
1302,3145 CUSTER DRIVE,LEXINGTON,KY,40517
1303,699 PERIMETER DRIVE,LEXINGTON,KY,40517
1304,620 PERIMETER DR.,LEXINGTON,KY,40517
1305,4071 TATES CREEK CENTRE DR STE 306,LEXINGTON,KY,40517
1306,1156 APPIAN CROSSING WAY,LEXINGTON,KY,40517
1307,200 E REYNOLDS RD,LEXINGTON,KY,40517
1308,200 EAST REYNOLDS RD,LEXINGTON,KY,40517
1309,228 E REYNOLDS RD,LEXINGTON,KY,40517
1310,3620 WALDEN DR,LEXINGTON,KY,40517
1311,431 REDDING RD # 110,LEXINGTON,KY,40517
1312,4071 TATES CREEK CENTRE DR,LEXINGTON,KY,40517
1313,2335 STERLINGTON RD,LEXINGTON,KY,40517
1314,3122 CUSTER DR,LEXINGTON,KY,40517
1315,3138 CUSTER DR,LEXINGTON,KY,40517
1316,3138 CUSTER DRIVE,LEXINGTON,KY,40517
1317,620 PERIMETER DR STE 201,LEXINGTON,KY,40517
1318,620 PERIMETER DR STE 103,LEXINGTON,KY,40517
1319,698 PERIMETER DR,LEXINGTON,KY,40517
1320,698 PERIMETER DR STE 200,LEXINGTON,KY,40517
1321,2393 ALUMNI DR,LEXINGTON,KY,40517
1322,2393 ALUMNI DR STE 102,LEXINGTON,KY,40517
1323,1230 US HIGHWAY 127 S,FRANKFORT,KY,40601
1324,103 C MICHAEL DAVENPORT BLVD,FRANKFORT,KY,40601
1325,103 C. MICHAEL DAVENPORT DRIVE,FRANKFORT,KY,40601
1326,105 DIAGNOSTIC DR,FRANKFORT,KY,40601
1327,1230 US 127,FRANKFORT,KY,40601
1328,110 DIAGNOSTIC DR,FRANKFORT,KY,40601
1329,1006 LEAWOOD DR.,FRANKFORT,KY,40601
1330,370A KINGS DAUGHTERS DR,FRANKFORT,KY,40601
1331,938 LOUISVILLE RD,FRANKFORT,KY,40601
1332,630 COMANCHE TR,FRANKFORT,KY,40601
1333,101 JETT BLVD.,FRANKFORT,KY,40601
1334,110 DIAGNOSTIC DR STE A,FRANKFORT,KY,40601
1335,1230 US HWY 127,FRANKFORT,KY,40601
1336,206 W MAIN ST,FRANKFORT,KY,40601
1337,5 PHYSICIANS PARK DRIVE,FRANKFORT,KY,40601
1338,635 COMANCHE TRL,FRANKFORT,KY,40601
1339,630 COMMANCHE TRL STE A,FRANKFORT,KY,40601
1340,690 TETON TRL,FRANKFORT,KY,40601
1341,17 FOUNTAIN PL,FRANKFORT,KY,40601
1342,571 E MAIN ST,FRANKFORT,KY,40601
1343,878 E MAIN ST,FRANKFORT,KY,40601
1344,220 CONWAY ST,FRANKFORT,KY,40601
1345,104 W MAIN ST,FRANKFORT,KY,40601
1346,1006 LEAWOOD DR STE 200,FRANKFORT,KY,40601
1347,5 PHYSICIANS PARK,FRANKFORT,KY,40601
1348,160 KINGS DAUGHTERS DR,FRANKFORT,KY,40601
1349,200 KINGS DAUGHTERS DR,FRANKFORT,KY,40601
1350,330 LEONARDWOOD RD,FRANKFORT,KY,40601
1351,315 LEONARDWOOD RD,FRANKFORT,KY,40601
1352,315 LEONARDWOOD RD STE 5,FRANKFORT,KY,40601
1353,130 WAYNE FRYE DR,MANCHESTER,OH,45144
1354,101 JETT BLVD STE 100,FRANKFORT,KY,40601
1355,2111 NW CACHE RD,LAWTON,OK,73505
1356,129 S HIGHWAY 1223,CORBIN,KY,40701
1357,109 N MAIN ST,CORBIN,KY,40701
1358,107 BRENTWOOD PL,CORBIN,KY,40701
1359,727 W CUMBERLAND GAP PKWY STE D,CORBIN,KY,40701
1360,129 S. HWY 1223,CORBIN,KY,40701
1361,1001 CUMBERLAND FALLS HWY,CORBIN,KY,40701
1362,1100 FLORIDA AVE,NEW ORLEANS,LA,70119
1363,1368 HIGHWAY 192 E,LONDON,KY,40741
1364,406 MASTER ST,CORBIN,KY,40701
1365,212 N MAIN ST,CORBIN,KY,40701
1366,213 S MAIN ST,CORBIN,KY,40701
1367,1507 S MAIN ST,CORBIN,KY,40701
1368,1200 MASTER ST,CORBIN,KY,40701
1369,1040 CUMBERLAND FALLS HWY,CORBIN,KY,40701
1370,1608 CUMBERLAND FALLS HWY,CORBIN,KY,40701
1371,1400 CUMBERLAND FALLS HWY,CORBIN,KY,40701
1372,727 W CUMBERLAND GAP PKWY,CORBIN,KY,40701
1373,40 MOONBOW PLZ,CORBIN,KY,40701
1374,2725 US HWY 25 N,EAST BERNSTADT,KY,40729
1375,2725 US HWY 25 NORTH,E. BERNSTADT,KY,40729
1376,39 CUMBERLAND GAP PLZ,GRAY,KY,40734
1377,1221 W 5TH ST,LONDON,KY,40741
1378,324 HOLLY LANE,LONDON,KY,40741
1379,1675 SOUTH MAIN STREET,LONDON,KY,40741
1380,307 NORTH BROAD STREET,LONDON,KY,40741
1381,828 SOUTH MAIN STREET,LONDON,KY,40741
1382,823 SOUTH MAIN STREET,LONDON,KY,40741
1383,1106 B SOUTH MAIN STREET,LONDON,KY,40741
1384,118 W 8TH ST,LONDON,KY,40741
1385,301 W 1ST ST,LONDON,KY,40741
1386,1675 S MAIN ST,LONDON,KY,40741
1387,1545 S MAIN ST,LONDON,KY,40741
1388,1106 S MAIN ST STE B,LONDON,KY,40741
1389,908 W 5TH ST,LONDON,KY,40741
1390,615 MEYERS BAKER RD,LONDON,KY,40741
1391,735 MEYERS BAKER RD,LONDON,KY,40741
1392,200 CITY HILL DR,LONDON,KY,40741
1393,803 MEYERS BAKER RD,LONDON,KY,40741
1394,1368 E HIGHWAY 192 BYP,LONDON,KY,40741
1395,130 THOMPSON POYNTER RD,LONDON,KY,40741
1396,39 WACO DR,LONDON,KY,40741
1397,1303 S LAUREL RD,LONDON,KY,40744
1398,821 W. HWY 25W,WILLIAMSBURG,KY,40769
1399,821 SOUTH HWY 25 W,WILLIAMSBURG,KY,40769
1400,212 N 4TH ST,WILLIAMSBURG,KY,40769
1401,317 MAIN ST,WILLIAMSBURG,KY,40769
1402,432 MAIN STREET,WILLIAMSBURG,KY,40769
1403,841. S. HWY 25W SUITE 9,WILLIAMSBURG,KY,40769
1404,821 S HWY 25W,WILLIAMSBURG,KY,40769
1405,640 W HIGHWAY 92,WILLIAMSBURG,KY,40769
1406,821 S HIGHWAY 25 W,WILLIAMSBURG,KY,40769
1407,640 W HIGHWAY 92 STE 3,WILLIAMSBURG,KY,40769
1408,1000 MAIN ST,WILLIAMSBURG,KY,40769
1409,550 SUNSET TRL,JELLICO,TN,37762
1410,402 CUMBERLAND AVE,WILLIAMSBURG,KY,40769
1411,110 MYERS STREET,CUMBERLAND,KY,40823
1412,1620 E MAIN ST,CUMBERLAND,KY,40823
1413,CLOVER FORK CLINIC,EVARTS,KY,40828
1414,303 MOUND ST,HARLAN,KY,40831
1415,301 E CENTRAL ST,HARLAN,KY,40831
1416,118 S 1ST ST,HARLAN,KY,40831
1417,106 RAILROAD ST,HARLAN,KY,40831
1418,110 PROFESSIONAL LN,HARLAN,KY,40831
1419,646 MANCHESTER ST,BARBOURVILLE,KY,40906
1420,240 CUMBERLAND AVE,BARBOURVILLE,KY,40906
1421,608 KNOX ST,BARBOURVILLE,KY,40906
1422,201 N ALLISON AVE,BARBOURVILLE,KY,40906
1423,119 PINE ST,BARBOURVILLE,KY,40906
1424,96 KY 3439,BARBOURVILLE,KY,40906
1425,16 WINDBURN DR,BARBOURVILLE,KY,40906
1426,53 QUEENDALE CENTER,BEVERLY,KY,40913
1427,350 MANCHESTER SQUARE,MANCHESTER,KY,40962
1428,269 WHITE ST,MANCHESTER,KY,40962
1429,1 FAYETTE PROPERTIES RD,MANCHESTER,KY,40962
1430,3602 W CUMBERLAND AVE,MIDDLESBORO,KY,40965
1431,2004 CUMBERLAND AVENUE,MIDDLESBORO,KY,40965
1432,1517 CUMBERLAND AVE,MIDDLESBORO,KY,40965
1433,106 S 10TH ST,MIDDLESBORO,KY,40965
1434,2004 CUMBERLAND AVE,MIDDLESBORO,KY,40965
1435,714 EXETER AVENUE,MIDDLESBORO,KY,40965
1436,123 N 19TH STREET,MIDDLESBORO,KY,40965
1437,2205 CUMBERLAND AVE,MIDDLESBORO,KY,40965
1438,123 N 19TH ST,MIDDLESBORO,KY,40965
1439,121 W VIRGINIA AVE,PINEVILLE,KY,40977
1440,850 RIVERVIEW RD,PINEVILLE,KY,40977
1441,10156 US HIGHWAY 25 E,PINEVILLE,KY,40977
1442,7577 ALEXANDRIA PIKE,ALEXANDRIA,KY,41001
1443,7827 ALEXANDRIA PIKE,ALEXANDRIA,KY,41001
1444,1 PAUL LN,ALEXANDRIA,KY,41001
1445,8105 ALEXANDRIA PIKE,ALEXANDRIA,KY,41001
1446,224 FRANKFORT STREET,BROOKSVILLE,KY,41004
1447,224 FRANKFORT ST,BROOKSVILLE,KY,41004
1448,1821 FLORENCE PIKE STE 2,BURLINGTON,KY,41005
1449,2618 BURLINGTON PIKE,BURLINGTON,KY,41005
1450,1820 FLORENCE PIKE,BURLINGTON,KY,41005
1451,1779 PATRICK DR,BURLINGTON,KY,41005
1452,4468 MONTGOMERY RD,CINCINNATI,OH,45212
1453,6022 TAYLOR DR,BURLINGTON,KY,41005
1454,6026 TAYLOR DR,BURLINGTON,KY,41005
1455,5495 N BEND RD,BURLINGTON,KY,41005
1456,5495 N BEND RD STE 102,BURLINGTON,KY,41005
1457,220 THOMAS MORE PKWY,CRESTVIEW HILLS,KY,41017
1458,6862 LIBERTY PLAZA DR STE 500,LIBERTY TOWNSHIP,OH,45044
1459,2608 BURLINGTON PIKE,BURLINGTON,KY,41005
1460,10178 HIGHWAY 27 NORTH,BUTLER,KY,41006
1461,2482 HWY 227,CARROLLTON,KY,41008
1462,2551 US HIGHWAY 27,CARROLLTON,KY,41008
1463,1714 HIGHLAND AVE.,CARROLLTON,KY,41008
1464,2482 US HIGHWAY 227,CARROLLTON,KY,41008
1465,1209 HIGHLAND AVE STE L,CARROLLTON,KY,41008
1466,530 DOE RUN RD,CORINTH,KY,41010
1467,640 SCOTT ST,COVINGTON,KY,41011
1468,324 GREENUP ST,COVINGTON,KY,41011
1469,2078 DIXIE HWY,FORT MITCHELL,KY,41011
1470,300 PIKE ST,COVINGTON,KY,41011
1471,300 WEST PIKE STREET,COVINGTON,KY,41011
1472,2011 DIXIE HWY,FT MITCHELL,KY,41011
1473,1846 BEACON HILL AVE,FORT WRIGHT,KY,41011
1474,1401 MADISON AVE,COVINGTON,KY,41011
1475,1983 DIXIE HWY,FT MITCHELL,KY,41011
1476,409 HALLAM AVE,ERLANGER,KY,41018
1477,118 W 5TH ST,COVINGTON,KY,41011
1478,801 SCOTT ST,COVINGTON,KY,41011
1479,1862 ASHWOOD CIR,FT WRIGHT,KY,41011
1480,1671 PARK RD,FT WRIGHT,KY,41011
1481,1518 DIXIE HWY,PARK HILLS,KY,41011
1482,1044 SCOTT ST,COVINGTON,KY,41011
1483,1132 GREENUP ST,COVINGTON,KY,41011
1484,9415 FIELDS ERTEL RD,CINCINNATI,OH,45249
1485,35 AUGUSTA AVE,FT WRIGHT,KY,41011
1486,1900 MADISON AVE,COVINGTON,KY,41014
1487,2519 MADISON AVE,COVINGTON,KY,41014
1488,5150 TAYLOR MILL ROAD,TAYLOR MILL,KY,41015
1489,17 E SOUTHERN AVE,COVINGTON,KY,41015
1490,15 W SOUTHERN AVE,COVINGTON,KY,41015
1491,2 W SOUTHERN AVE,COVINGTON,KY,41015
1492,5150 TAYLOR MILL RD,TAYLOR MILL,KY,41015
1493,2503 CHELSEA DR,FT MITCHELL,KY,41017
1494,330 THOMAS MORE PARKWAY,CRESTVIEW HILLS,KY,41017
1495,330 THOMAS MORE PKWY,CRESTVIEW HILLS,KY,41017
1496,2220 GRANDVIEW DRIVE,FT MITCHELL,KY,41017
1497,3005 DIXIE HWY,EDGEWOOD,KY,41017
1498,2325 BUTTERMILK CROSSING,CRESCENT SPRINGS,KY,41017
1499,155 BARNWOOD DRIVE,EDGEWOOD,KY,41017
1500,599 FREEDOM PARK DR STE 100,CRESTVIEW HILLS,KY,41017
1501,599 FREEDOM PARK DR,EDGEWOOD,KY,41017
1502,220 THOMAS MORE PARK,CRESTVIEW HILLS,KY,41017
1503,618 BUTTERMILK PIKE,CRESCENT SPRINGS,KY,41017
1504,2446 ANDERSON RD,CRESCENT SPRINGS,KY,41017
1505,2325 BUTTERMILK XING,CRESCENT SPRINGS,KY,41017
1506,2370 GRANDVIEW DR,FT MITCHELL,KY,41017
1507,2220 GRANDVIEW DR,FORT MITCHELL,KY,41017
1508,2465 DIXIE HWY,FT MITCHELL,KY,41017
1509,2617 LEGENDS WAY,CRESTVIEW HILLS,KY,41017
1510,25 TOWN CENTER BLVD,CRESTVIEW HILLS,KY,41017
1511,155 BARNWOOD DR,EDGEWOOD,KY,41017
1512,2523 DIXIE HWY,FT MITCHELL,KY,41017
1513,12 ORPHANAGE RD,FT MITCHELL,KY,41017
1514,12 ORPHANAGE RD,FORT MITCHELL,KY,41017
1515,8111 CHEVIOT RD,CINCINNATI,OH,45247
1516,465 CENTRE VIEW BLVD,CRESTVIEW HILLS,KY,41017
1517,320 THOMAS MORE PKWY,CRESTVIEW HILLS,KY,41017
1518,2765 CHAPEL PL,CRESTVIEW HILLS,KY,41017
1519,610 MEDICAL VILLAGE DR,EDGEWOOD,KY,41017
1520,225 THOMAS MORE PKWY,CRESTVIEW HILLS,KY,41017
1521,234 THOMAS MORE PKWY,CRESTVIEW HILLS,KY,41017
1522,232 THOMAS MORE PKWY,CRESTVIEW HILLS,KY,41017
1523,2865 CHANCELLOR DR,CRESTVIEW HILLS,KY,41017
1524,"NORTHERN KENTUCKY DENTAL CENTERS, 2446 ANDERSON ROAD",CRESCENT SPRINGS,KY,41017
1525,340 THOMAS MORE PKWY,CRESTVIEW HILLS,KY,41017
1526,340 THOMAS MORE PKWY STE 130,CRESTVIEW HILLS,KY,41017
1527,599 FREEDOM PARK DR,CRESTVIEW HILLS,KY,41017
1528,20 MEDICAL VILLAGE DR,EDGEWOOD,KY,41017
1529,18 COMMONWEALTH AVE,ERLANGER,KY,41018
1530,4207 DIXIE HWY,ELSMERE,KY,41018
1531,3211 DIXIE HWY,ERLANGER,KY,41018
1532,3309 DIXIE HWY,ERLANGER,KY,41018
1533,800 VIOLET RD STE 1,CRITTENDEN,KY,41030
1534,520 VIOLET ROAD,CRITTENDEN,KY,41030
1535,114 S MAIN ST,CYNTHIANA,KY,41031
1536,107 E PIKE ST,CYNTHIANA,KY,41031
1537,218 S MAIN ST,CYNTHIANA,KY,41031
1538,210 E PIKE ST,CYNTHIANA,KY,41031
1539,1606 US HIGHWAY 27 N,CYNTHIANA,KY,41031
1540,111 KY HIGHWAY 32 W STE 2,CYNTHIANA,KY,41031
1541,101 QUAIL DR,CYNTHIANA,KY,41031
1542,300 ARBORS DRIVE,DRY RIDGE,KY,41035
1543,99 S MAIN ST,DRY RIDGE,KY,41035
1544,139 S MAIN ST,DRY RIDGE,KY,41035
1545,300 ARBOR DR STE 5,DRY RIDGE,KY,41035
1546,211 W SHELBY STREET,FALMOUTH,KY,41040
1547,211 W SHELBY ST,FALMOUTH,KY,41040
1548,303 S MAIN CROSS ST,FLEMINGSBURG,KY,41041
1549,46 ASHBROOK DRIVE,FLEMINGSBURG,KY,41041
1550,708 ELIZAVILLE AVE,FLEMINGSBURG,KY,41041
1551,813 ELIZAVILLE AVE,FLEMINGSBURG,KY,41041
1552,UNIVERSITY OF KENTUCKY 800 ROSE ST,LEXINGTON,KY,40536
1553,6616 DIXIE HWY,FLORENCE,KY,41042
1554,7033 BURLINGTON PIKE,FLORENCE,KY,41042
1555,7766 EWING BLVD,FLORENCE,KY,41042
1556,6905 BURLINGTON PIKE,FLORENCE,KY,41042
1557,265 MAIN ST,FLORENCE,KY,41042
1558,8433 US HIGHWAY 42,FLORENCE,KY,41042
1559,7000 HOUSTON ROAD,FLORENCE,KY,41042
1560,8136 MALL ROAD,FLORENCE,KY,41042
1561,280 MT ZION RD,FLORENCE,KY,41042
1562,7400 HWY 42,FLORENCE,KY,41042
1563,84737 HIGHWAY 42,FLORENCE,KY,41042
1564,1481 CAVALRY DRIVE,FLORENCE,KY,41042
1565,7901 MALL RD,FLORENCE,KY,41042
1566,6961 BURLINGTON PIKE,FLORENCE,KY,41042
1567,59 CAVALIER BLVD,FLORENCE,KY,41042
1568,1120 BOONE AIRE RD,FLORENCE,KY,41042
1569,7559A MALL RD,FLORENCE,KY,41042
1570,8197 MALL RD,FLORENCE,KY,41042
1571,8197 MALL RD STE 200,FLORENCE,KY,41042
1572,8076 US ROUTE 42,FLORENCE,KY,41042
1573,8076 US 42,FLORENCE,KY,41042
1574,7901 MALL RD STE 200,FLORENCE,KY,41042
1575,1035 14TH AVE N,NASHVILLE,TN,37208
1576,7668 MALL RD UNIT B,FLORENCE,KY,41042
1577,7033 BURLINGTON PIKE STE 1,FLORENCE,KY,41042
1578,6909 BURLINGTON PIKE,FLORENCE,KY,41042
1579,6909 BURLINGTON PIKE STE B,FLORENCE,KY,41042
1580,8136 MALL RD,FLORENCE,KY,41042
1581,40 N GRAND AVE,FORT THOMAS,KY,41075
1582,7303 US HIGHWAY 42,FLORENCE,KY,41042
1583,7400 US 42,FLORENCE,KY,41042
1584,7699 US HIGHWAY 42,FLORENCE,KY,41042
1585,7536 US ROUTE 42,FLORENCE,KY,41042
1586,7348 US 42,FLORENCE,KY,41042
1587,7348 US HIGHWAY 42 STE 101,FLORENCE,KY,41042
1588,6620 DIXIE HWY,FLORENCE,KY,41042
1589,7208 DIXIE HWY,FLORENCE,KY,41042
1590,7205 DIXIE HWY,FLORENCE,KY,41042
1591,7710 WALNUT CREEK DR,FLORENCE,KY,41042
1592,7607 DIXIE HWY,FLORENCE,KY,41042
1593,280 MOUNT ZION RD,FLORENCE,KY,41042
1594,7901 MALL RD STE 500,FLORENCE,KY,41042
1595,7000 HOUSTON RD STE 35,FLORENCE,KY,41042
1596,4960 HOUSTON RD,FLORENCE,KY,41042
1597,7348 US HIGHWAY 42,FLORENCE,KY,41042
1598,8780 US HIGHWAY 42 STE B,FLORENCE,KY,41042
1599,8449 US HIGHWAY 42,FLORENCE,KY,41042
1600,1481 CAVALRY LN STE 100,FLORENCE,KY,41042
1601,8544 US HIGHWAY 42,FLORENCE,KY,41042
1602,4845 RIALTO RD STE A,WEST CHESTER,OH,45069
1603,4440 GLEN ESTE WITHAMSVILLE RD STE 1400,CINCINNATI,OH,45245
1604,8050 HOSBROOK RD STE 310,CINCINNATI,OH,45236
1605,2161 N BEND RD STE A,HEBRON,KY,41048
1606,515 DELAWARE ST SE,MINNEAPOLIS,MN,55455
1607,1811 HIGHWAY 287 N STE 160,MANSFIELD,TX,76063
1608,6405 GLENWAY AVE,CINCINNATI,OH,45211
1609,4353 E STATE ROUTE 73,WAYNESVILLE,OH,45068
1610,1335 HANSEL AVE,FLORENCE,KY,41042
1611,1960 N BEND RD,HEBRON,KY,41048
1612,2300 CONNER RD,HEBRON,KY,41048
1613,1930 PETERSBURG RD,HEBRON,KY,41048
1614,2940 HEBRON PARK DR,HEBRON,KY,41048
1615,1986 WALTON NICHOLSON PIKE,INDEPENDENCE,KY,41051
1616,2047 CENTENNIAL BLVD,INDEPENDENCE,KY,41051
1617,2052 HARRIS PIKE,INDEPENDENCE,KY,41051
1618,2052 HARRIS PIKE # 54,INDEPENDENCE,KY,41051
1619,1984 WALTON NICHOLSON PIKE,INDEPENDENCE,KY,41051
1620,2025 DECLARATION DR STE B,INDEPENDENCE,KY,41051
1621,5302 MADISON PIKE,INDEPENDENCE,KY,41051
1622,4205 RICHARDSON RD,INDEPENDENCE,KY,41051
1623,6565 TAYLOR MILL ROAD,INDEPENDENCE,KY,41051
1624,123 WEST SECOND STREET PO 217,MAYSVILLE,KY,41056
1625,123 W 2ND ST,MAYSVILLE,KY,41056
1626,507 MARKET PLACE DRIVE,MAYSVILLE,KY,41056
1627,124 W 3RD ST,MAYSVILLE,KY,41056
1628,19 E 3RD ST,MAYSVILLE,KY,41056
1629,1 W MCDONALD PKWY,MAYSVILLE,KY,41056
1630,507 MARKETPLACE DR,MAYSVILLE,KY,41056
1631,1907 OLD MAIN ST,MAYSVILLE,KY,41056
1632,927 KENTON STATION DR,MAYSVILLE,KY,41056
1633,40 E 9TH ST,NEWPORT,KY,41071
1634,23 E 8TH ST,NEWPORT,KY,41071
1635,701 OVERTON ST,NEWPORT,KY,41071
1636,215 E 11TH ST,NEWPORT,KY,41071
1637,1847 MONMOUTH ST # A,NEWPORT,KY,41071
1638,148 PAVILION PKWY,NEWPORT,KY,41071
1639,335 YORK ST,NEWPORT,KY,41071
1640,103 LANDMARK DR,BELLEVUE,KY,41073
1641,340 FAIRFIELD AVE,BELLEVUE,KY,41073
1642,625 6TH AVE,DAYTON,KY,41074
1643,1118 S FT THOMAS AVE,FT THOMAS,KY,41075
1644,1230 N FORT THOMAS AVE,FORT THOMAS,KY,41075
1645,14 N FORT THOMAS AVE,FORT THOMAS,KY,41075
1646,627 HIGHLAND AVE,FORT THOMAS,KY,41075
1647,637 HIGHLAND AVE,FORT THOMAS,KY,41075
1648,20 N GRANDE AVE STE 10,FORT THOMAS,KY,41075
1649,20 N GRAND AVE STE 10,FORT THOMAS,KY,41075
1650,1136 SO. FT. THOMAS AVE,FT. THOMAS,KY,41075
1651,725 ALEXANDRIA PIKE STE 100,FORT THOMAS,KY,41075
1652,1227 S FORT THOMAS AVE,FORT THOMAS,KY,41075
1653,1463 S FORT THOMAS AVE,FORT THOMAS,KY,41075
1654,18 N FORT THOMAS AVE,FORT THOMAS,KY,41075
1655,20 N GRAND AVE,FORT THOMAS,KY,41075
1656,20 N GRAND AVE STE 10AND11,FORT THOMAS,KY,41075
1657,1809 ALEXANDRIA PIKE,HIGHLAND HEIGHTS,KY,41076
1658,1807 ALEXANDRIA PIKE,HIGHLAND HEIGHTS,KY,41076
1659,1809 ALEXANDRIA PIKE STE A,HIGHLAND HEIGHTS,KY,41076
1660,800 ROSE STREET D 538,LEXINGTON,KY,40536
1661,2600 ALEXANDRIA PIKE,HIGHLAND HEIGHTS,KY,41076
1662,3760 ALEXANDRIA PIKE,COLD SPRING,KY,41076
1663,6 HIGHLAND MEADOWS DR,HIGHLAND HEIGHTS,KY,41076
1664,8667 US HIGHWAY 42 STE 100,UNION,KY,41091
1665,1982 MOUNT ZION RD,UNION,KY,41091
1666,9031 HWY 42 WEST,UNION,KY,41091
1667,9031 US HIGHWAY 42 STE A,UNION,KY,41091
1668,2004 CALLIE WAY,UNION,KY,41091
1669,9031 HWY 42 W,UNION,KY,41091
1670,75 NORTH MAIN STREET,WALTON,KY,41094
1671,11089 CLAY DR,WALTON,KY,41094
1672,100 W HIGH ST,WARSAW,KY,41095
1673,111 HUMES RIDGE RD,WILLIAMSTOWN,KY,41097
1674,929 29TH ST,ASHLAND,KY,41101
1675,2741 WINCHESTER AVE,ASHLAND,KY,41101
1676,708 13TH STREET,ASHLAND,KY,41101
1677,1330 CENTRAL AVENUE,ASHLAND,KY,41101
1678,441 21ST ST,ASHLAND,KY,41101
1679,2301 LEXINGTON AVE STE 120,ASHLAND,KY,41101
1680,1215 VIRGINIA ST E,CHARLESTON,WV,25301
1681,700 SAINT CHRISTOPHER DRIVE,ASHLAND,KY,41101
1682,2844 CARTER AVE,ASHLAND,KY,41101
1683,1124 BATH AVE,ASHLAND,KY,41101
1684,708 13TH ST,ASHLAND,KY,41101
1685,1205 MONTGOMERY AVE,ASHLAND,KY,41101
1686,2301 LEXINGTON AVE,ASHLAND,KY,41101
1687,1301 MORNINGSIDE DR,ASHLAND,KY,41101
1688,700 SAINT CHRISTOPHER DR,ASHLAND,KY,41101
1689,500 WINCHESTER AVE STE 420,ASHLAND,KY,41101
1690,29 TANYARD STATION DR,BARBOURSVILLE,WV,25504
1691,1330 CENTRAL AVE,ASHLAND,KY,41101
1692,1408 CENTRAL AVE,ASHLAND,KY,41101
1693,1616 CENTRAL AVE,ASHLAND,KY,41101
1694,1800 CARTER AVE,ASHLAND,KY,41101
1695,2179 CARTER AVE,ASHLAND,KY,41101
1696,2000 CARTER AVE,ASHLAND,KY,41101
1697,2154 CARTER AVE,ASHLAND,KY,41101
1698,1616 13TH AVE STE 200,HUNTINGTON,WV,25701
1699,1937 CENTRAL AVE,ASHLAND,KY,41101
1700,4330 13 ST,ASHLAND,KY,41102
1701,4330 13TH ST,ASHLAND,KY,41102
1702,1101 STATE ROUTE 716,ASHLAND,KY,41102
1703,928 STATE ROUTE 716,ASHLAND,KY,41102
1704,16005 US-23,CATLETTSBURG,KY,41129
1705,16005 US-23 SOUTH,CATLETTSBURG,KY,41129
1706,3161 OAKLAND AVE,CATLETTSBURG,KY,41129
1707,16005 US 23 SOUTH,CATLETTSBURG,KY,41129
1708,2135 ARGILLITE RD STE O,FLATWOODS,KY,41139
1709,1402 ARGILLITE ROAD,FLATWOODS,KY,41139
1710,909 POWELL LANE,FLATWOODS,KY,41139
1711,1917 ARGILLITE RD,FLATWOODS,KY,41139
1712,2104 ARGILLITE RD,FLATWOODS,KY,41139
1713,909 POWELL LN,FLATWOODS,KY,41139
1714,138 S CAROL MALONE BLVD,GRAYSON,KY,41143
1715,132 INTERSTATE DR STE 2,GRAYSON,KY,41143
1716,102 WALL ST,LEXINGTON,MS,39095
1717,360 E MULBERRY ST,DURANT,MS,39063
1718,500 NORTH CAROL MALONE BLVD,GRAYSON,KY,41143
1719,219 MAIN ST,GREENUP,KY,41144
1720,1121 SEATON AVE,GREENUP,KY,41144
1721,437 S KY 706,ISONVILLE,KY,41149
1722,154 SCOTT ST,OLIVE HILL,KY,41164
1723,154 SCOTT ST.,OLIVE HILL,KY,41164
1724,413 BLEVINS HOLW,OLIVE HILL,KY,41164
1725,1452 DIEDERICH BLVD,RUSSELL,KY,41169
1726,1592 DIEDERICH BLVD,RUSSELL,KY,41169
1727,1409 DIEDERICH BLVD,RUSSELL,KY,41169
1728,972 DIEDERICH BLVD,RUSSELL,KY,41169
1729,3306 ANDREWS HWY,MIDLAND,TX,79703
1730,38 J F GREEN ST,SANDY HOOK,KY,41171
1731,HIGHWAY 7 & 32,SANDY HOOK,KY,41171
1732,60 CENTER ST,BEATTYVILLE,KY,41311
1733,1484 LAKESIDE DR,JACKSON,KY,41339
1734,672 MAIN ST,WEST LIBERTY,KY,41472
1735,126 BIGGS LANE,SOUTH SHORE,KY,41175
1736,472 MAIN STREET,SOUTH SHORE,KY,41175
1737,126 BIGGS LN,SOUTH SHORE,KY,41175
1738,142 DEPOT DR,SOUTH SHORE,KY,41175
1739,ROUTE 3037,VANCEBURG,KY,41179
1740,RURAL ROUTE 3037,VANCEBURG,KY,41179
1741,570 CLARKSBURG ROAD,VANCEBURG,KY,41179
1742,253 HAGER BRANCH,EAST POINT,KY,41216
1743,253 HAGER BR,EAST POINT,KY,41216
1744,RT. 3 NORTH,INEZ,KY,41224
1745,178 DOUGLAS PKWY,PIKEVILLE,KY,41501
1746,7629 KY ROUTE 979,GRETHEL,KY,41631
1747,940 PARKWAY DR,SALYERSVILLE,KY,41465
1748,6500 HIGHWAY 645,INEZ,KY,41224
1749,202 WATER STREET,LOUISA,KY,41230
1750,201 WATER STREET,LOUISA,KY,41230
1751,203 S. WATER ST,LOUISA,KY,41230
1752,405 E PERRY STREET,LOUISA,KY,41230
1753,405 E PERRY ST,LOUISA,KY,41230
1754,122 N RICE ST,LOUISA,KY,41230
1755,455 MAIN ST,PAINTSVILLE,KY,41240
1756,853 S MAYO TRL,PAINTSVILLE,KY,41240
1757,816 FM STAFFORD AVE,PAINTSVILLE,KY,41240
1758,325 BROADWAY ST,PAINTSVILLE,KY,41240
1759,261 PLUMMER ST,CAMPTON,KY,41301
1760,60 CENTER STREET,BEATTYVILLE,KY,41311
1761,125 E MAIN ST,BEATTYVILLE,KY,41311
1762,706 NORTH COURTHOUSE SQUARE,BOONEVILLE,KY,41314
1763,826 KY 11 N,BOONEVILLE,KY,41314
1764,787 LAKESIDE DR,JACKSON,KY,41339
1765,1484 LAKESIDE DRIVE,JACKSON,KY,41339
1766,1462 HIGHWAY 15 N,JACKSON,KY,41339
1767,221 HIGHWAY 15 S,JACKSON,KY,41339
1768,401 EAST MOUNTAIN PARKWAY,SALYERSVILLE,KY,41465
1769,128 CARDINAL CT,SALYERSVILLE,KY,41465
1770,835 PARKWAY DR,SALYERSVILLE,KY,41465
1771,761 PARKWAY DRIVE,SALYERSVILLE,KY,41465
1772,903 MAIN ST,WEST LIBERTY,KY,41472
1773,629 MAIN STREET,WEST LIBERTY,KY,41472
1774,629 MAIN ST,WEST LIBERTY,KY,41472
1775,777 BROADWAY ST,WEST LIBERTY,KY,41472
1776,384 N MAYO TRL,PIKEVILLE,KY,41501
1777,419 TOWN MTN RD,PIKEVILLE,KY,41501
1778,153 HIBBARD ST,PIKEVILLE,KY,41501
1779,1144 SOUTH MAYO TRAIL,PIKEVILLE,KY,41501
1780,1144 SOUTH MAYO TRAIL SUITE 101,PIKEVILLE,KY,41501
1781,1152 S MAYO TRAIL,PIKEVILLE,KY,41501
1782,384 NORTH MAYO TRAIL,PIKEVILLE,KY,41501
1783,1144 S MAYO TRAIL,PIKEVILLE,KY,41501
1784,126 TRIVETTE DR STE 103,PIKEVILLE,KY,41501
1785,126 TRIVETTE DR,PIKEVILLE,KY,41501
1786,308 HAMBLEY BLVD,PIKEVILLE,KY,41501
1787,126 TRIVETTE DR STE 303,PIKEVILLE,KY,41501
1788,126 WILLIAMS DR,PIKEVILLE,KY,41501
1789,1098 S MAYO TRL,PIKEVILLE,KY,41501
1790,300 N MAYO TRL,PIKEVILLE,KY,41501
1791,180 TOWN MOUNTAIN RD STE 111,PIKEVILLE,KY,41501
1792,419 TOWN MOUNTAIN RD,PIKEVILLE,KY,41501
1793,419 TOWN MOUNTAIN RD STE 201,PIKEVILLE,KY,41501
1794,387 TOWN MOUNTAIN RD,PIKEVILLE,KY,41501
1795,387 TOWN MOUNTAIN ROAD,PIKEVILLE,KY,41501
1796,119 RIVER DR,PIKEVILLE,KY,41501
1797,911 BYPASS RD,PIKEVILLE,KY,41501
1798,238 CASSIDY BLVD,PIKEVILLE,KY,41501
1799,161 HIBBARD ST,PIKEVILLE,KY,41501
1800,157 HIBBARD ST,PIKEVILLE,KY,41501
1801,161 HIBBARD ST STE 201,PIKEVILLE,KY,41501
1802,4159 N MAYO TRL,PIKEVILLE,KY,41501
1803,129 LORAINE ST,PIKEVILLE,KY,41501
1804,161 COLLEGE ST,PIKEVILLE,KY,41501
1805,161 COLLEGE ST STE 3,PIKEVILLE,KY,41501
1806,5006 COLLINS HWY,PIKEVILLE,KY,41501
1807,79 SOUTH SIDE MALL RD,SOUTH WILLIAMSON,KY,41503
1808,306 HOSPITAL DR,SOUTH WILLIAMSON,KY,41503
1809,534 CENTRAL AVE,SOUTH WILLIAMSON,KY,41503
1810,215 VIRGINIA AVE,SOUTH WILLIAMSON,KY,41503
1811,155 E MAIN ST,ELKHORN CITY,KY,41522
1812,807 PARK AVE NE,NORTON,VA,24273
1813,170 WEST FIFTH STREET,ELKHORN CITY,KY,41522
1814,919 ELKHORN CREEK ROAD,ELKHORN CITY,KY,41522
1815,155 EAST MAIN STREET,ELKHORN CITY,KY,41522
1816,184 NORTH LEVISA ROAD,MOUTHCARD,KY,41548
1817,6363 KENTUCKY ROUTE 1428,ALLEN,KY,41601
1818,30 COURT STREET,ALLEN,KY,41601
1819,6363 KY ROUTE 1428,ALLEN,KY,41601
1820,US 23 HAYES COMPLEX,BETSY LAYNE,KY,41605
1821,292 HIGHWAY 550,EASTERN,KY,41622
1822,95 STONECOAL ROAD,GARRETT,KY,41630
1823,7629 KY RT 979,GRETHEL,KY,41631
1824,88 CHURCH RD,HAROLD,KY,41635
1825,196 KY HWY 3188,LANGLEY,KY,41645
1826,27 TURKEY CRK,LANGLEY,KY,41645
1827,RT 122 TACKETT COMPLEX,MCDOWELL,KY,41647
1828,196 KY HWY 3188,MARTIN,KY,41649
1829,415 NORTH LAKE DRIVE,PRESTONSBURG,KY,41653
1830,83 OAK RIDGE CT,PRESTONSBURG,KY,41653
1831,400 UNIVERSITY DR,PRESTONSBURG,KY,41653
1832,415 N LAKE DR,PRESTONSBURG,KY,41653
1833,38 GRACE DRIVE,PRESTONSBURG,KY,41653
1834,274 S LAKE DR,PRESTONSBURG,KY,41653
1835,781 S LAKE DR,PRESTONSBURG,KY,41653
1836,306 WRIGHTS LN,PRESTONSBURG,KY,41653
1837,309 MAPLE AVE,PRESTONSBURG,KY,41653
1838,1709 KY ROUTE 321,PRESTONSBURG,KY,41653
1839,4807 KY ROUTE 321,PRESTONSBURG,KY,41653
1840,5230 KY ROUTE 321,PRESTONSBURG,KY,41653
1841,116 VETERANS DRIVE,HAZARD,KY,41701
1842,1724 12 NORTH MAIN STREET,HAZARD,KY,41701
1843,359 NORTH HIGHWAY,HAZARD,KY,41701
1844,750 MORTON BLVD,HAZARD,KY,41701
1845,1724 N MAIN ST,HAZARD,KY,41701
1846,145 CITIZENS LN,HAZARD,KY,41701
1847,279 E MAIN ST,HAZARD,KY,41701
1848,1908 N MAIN ST,HAZARD,KY,41701
1849,285 BLACK GOLD BLVD,HAZARD,KY,41701
1850,305 MORTON BLVD,HAZARD,KY,41701
1851,100 MEDICAL CENTER DRIVE,HAZARD,KY,41701
1852,200 MEDICAL CENTER DR,HAZARD,KY,41701
1853,59 COWTOWN RD,HINDMAN,KY,41822
1854,118 HAYES ST,WHITESBURG,KY,41858
1855,251 MORTON BLVD,HAZARD,KY,41701
1856,116 VETERANS DR,HAZARD,KY,41701
1857,101 TOWN AND COUNTRY LN,HAZARD,KY,41701
1858,100 AIRPORT GARDENS RD,HAZARD,KY,41701
1859,562 HWY 80 W.,COMBS,KY,41729
1860,8 DOGWOOD ST,HYDEN,KY,41749
1861,120 HIGHWAY 80,HYDEN,KY,41749
1862,22728 HIGHWAY 421,HYDEN,KY,41749
1863,35 LONGFIELD CIRCLE,VICCO,KY,41773
1864,7154 HIGHWAY 7 S,BLACKEY,KY,41804
1865,566 HIGHWAY 899,HINDMAN,KY,41822
1866,1970 HIGHWAY 160 SOUTH,HINDMAN,KY,41822
1867,358 HINDMAN BYPASS,HINDMAN,KY,41822
1868,1970 HIGHWAY 160 S,HINDMAN,KY,41822
1869,388 EAST HIGHWAY 80,HINDMAN,KY,41822
1870,59 COWTOWN ROAD,HINDMAN,KY,41822
1871,HWY 317,NEON,KY,41840
1872,861 HWY 317,NEON,KY,41840
1873,172 PARKWAY PLAZA LOOP,WHITESBURG,KY,41858
1874,353 MAIN ST,WHITESBURG,KY,41858
1875,226 MEDICAL PLAZA LN,WHITESBURG,KY,41858
1876,1836 BROADWAY ST,PADUCAH,KY,42001
1877,2418 NEW HOLT RD,PADUCAH,KY,42001
1878,2018 BROADWAY,PADUCAH,KY,42001
1879,4975 ALBEN BARKLEY DRIVE,PADUCAH,KY,42001
1880,467 JORDAN DR,PADUCAH,KY,42001
1881,467 JORDAN DRIVE,PADUCAH,KY,42001
1882,100 FOUNTAIN AVE,PADUCAH,KY,42001
1883,1401 BROADWAY ST,PADUCAH,KY,42001
1884,1602 WESTEN ST,BOWLING GREEN,KY,42104
1885,3011 BROADWAY ST,PADUCAH,KY,42001
1886,250 LONE OAK RD STE B,PADUCAH,KY,42001
1887,150 N FRIENDSHIP RD,PADUCAH,KY,42001
1888,166 N FRIENDSHIP RD,PADUCAH,KY,42001
1889,80 LAKEVIEW DR,PADUCAH,KY,42001
1890,3008 OREGON ST,PADUCAH,KY,42001
1891,4570 PECAN DR STE D,PADUCAH,KY,42001
1892,4975 ALBEN BARKLEY DR STE 4,PADUCAH,KY,42001
1893,1097 WESTON DR,MT JULIET,TN,37122
1894,105 KIANA CT,PADUCAH,KY,42001
1895,2018 BROADWAY ST,PADUCAH,KY,42001
1896,4155 N MOUNT JULIET RD,MOUNT JULIET,TN,37122
1897,2136 BROADWAY ST,PADUCAH,KY,42001
1898,2315 BROADWAY ST,PADUCAH,KY,42001
1899,2333 BROADWAY ST,PADUCAH,KY,42001
1900,4570 PECAN DRIVE,PADUCAH,KY,42001
1901,4616 VILLAGE SQUARE DR,PADUCAH,KY,42001
1902,312 WYATT DR,MAYFIELD,KY,42066
1903,3170 NEW HOLT RD,PADUCAH,KY,42001
1904,5154 VILLAGE SQUARE DR,PADUCAH,KY,42001
1905,3235 OLIVET CHURCH RD,PADUCAH,KY,42001
1906,5183 HINKLEVILLE RD,PADUCAH,KY,42001
1907,3116 SADDLE DR STE 1,HELENA,MT,59601
1908,6045 KENTUCKY DAM RD,PADUCAH,KY,42003
1909,5504 REIDLAND RD,PADUCAH,KY,42003
1910,2913 LONE OAK RD,PADUCAH,KY,42003
1911,2850 LONE OAK RD.,PADUCAH,KY,42003
1912,3429 LONE OAK RD,PDUCAH,KY,42003
1913,614 KENTUCKY AVE,PADUCAH,KY,42003
1914,1927 IRVIN COBB DR,PADUCAH,KY,42003
1915,1927 IRVIN COBB DR STE 1,PADUCAH,KY,42003
1916,2107 KENTUCKY AVE,PADUCAH,KY,42003
1917,2307 KENTUCKY AVE,PADUCAH,KY,42003
1918,2307 KENTUCKY AVE.,PADUCAH,KY,42003
1919,2605 KENTUCKY AVE,PADUCAH,KY,42003
1920,408 S 28TH ST,PADUCAH,KY,42003
1921,657 LONE OAK RD,PADUCAH,KY,42003
1922,657 LONE OAK RD STE 5,PADUCAH,KY,42003
1923,3435 LONE OAK RD,PADUCAH,KY,42003
1924,3429 LONE OAK RD,PADUCAH,KY,42003
1925,200 MEDICAL CENTER DR,PADUCAH,KY,42003
1926,2850 LONE OAK RD,PADUCAH,KY,42003
1927,2850 LONE OAK RD STE #5,PADUCAH,KY,42003
1928,2850 LONE OAK RD STE 1,PADUCAH,KY,42003
1929,2850 LONE OAK RD STE #6,PADUCAH,KY,42003
1930,2850 LONE OAK RD STE 5,PADUCAH,KY,42003
1931,1306 N. 6TH ST,PHILADELPHIA,PA,19122
1932,268 HWY 62,BARDWELL,KY,42023
1933,78 VINE ST,BENTON,KY,42025
1934,267 SLICKBACK RD,BENTON,KY,42025
1935,117 W 5TH ST,BENTON,KY,42025
1936,1301 OLIVE ST,BENTON,KY,42025
1937,978 US HIGHWAY 68 E,BENTON,KY,42025
1938,UK DENTISTRY WEST REGIONAL CLINIC,BENTON,KY,42025
1939,404 FIFTH AVENUE,CALVERT CITY,KY,42029
1940,404 FIFTH AVE.,CALVERT CITY,KY,42029
1941,41 INDUSTRIAL PWY,CALVERT CITY,KY,42029
1942,41 INDUSTRIAL LN,CALVERT CITY,KY,42029
1943,201 S WASHINGTON ST,CLINTON,KY,42031
1944,201A S WASHINGTON ST,CLINTON,KY,42031
1945,252 COMMERCE ST,EDDYVILLE,KY,42038
1946,700 FAIRVIEW AVE,EDDYVILLE,KY,42038
1947,260 COMMERCE ST,EDDYVILLE,KY,42038
1948,309 MAIN ST,FULTON,KY,42041
1949,148 E KY DRIVE,LA CENTER,KY,42056
1950,"148 EAST KENTUCKY DR,",LA CENTER,KY,42056
1951,1654 US 60 W,LEDBETTER,KY,42058
1952,913 B SOUTH MAIN STREET,MARION,KY,42064
1953,317 SOUTH 9TH STREET,MAYFIELD,KY,42066
1954,236 N. 6TH ST.,MAYFIELD,KY,42066
1955,236 N 6TH ST,MAYFIELD,KY,42066
1956,203 E NORTH ST,MAYFIELD,KY,42066
1957,212 N 7TH ST,MAYFIELD,KY,42066
1958,329 SOUTH 9TH STREET,MAYFIELD,KY,42066
1959,315 S 6TH ST,MAYFIELD,KY,42066
1960,107 E WALNUT ST,MAYFIELD,KY,42066
1961,822 PARIS RD,MAYFIELD,KY,42066
1962,720 S 7TH ST,MAYFIELD,KY,42066
1963,1201 INDUSTRIAL PARK RD,SOUTH FULTON,TN,38257
1964,1711 N. 121 BYPASS,MURRAY,KY,42071
1965,1711 ST RTE 121 N,MURRAY,KY,42071
1966,1653 CALLOWAY AVE,MURRAY,KY,42071
1967,1210 JOHNSON BLVD,MURRAY,KY,42071
1968,1109 POPLAR STREET,MURRAY,KY,42071
1969,1405 DUDLEY DRIVE,MURRAY,KY,42071
1970,700 WHITNELL AVENUE,MURRAY,KY,42071
1971,1710 HWY 121 N. BYP. STE A,MURRAY,KY,42071
1972,706 MAIN ST,MURRAY,KY,42071
1973,1712- E ST RT 121 N.,MURRAY,KY,42071
1974,111 S 13TH ST,MURRAY,KY,42071
1975,1109 POPLAR ST,MURRAY,KY,42071
1976,1304 JOHNSON BLVD,MURRAY,KY,42071
1977,1302 JOHNSON BLVD,MURRAY,KY,42071
1978,700 WHITNELL ST,MURRAY,KY,42071
1979,7630 OLD HINKLEVILLE RD,WEST PADUCAH,KY,42086
1980,727 US 31W BYP STE 101,BOWLING GREEN,KY,42101
1981,952 31W BY PASS,BOWLING GREEN,KY,42101
1982,546 PARK ST,BOWLING GREEN,KY,42101
1983,727 31W BYPASS,BOWLING GREEN,KY,42101
1984,1146 KENTON STREET,BOWLING GREEN,KY,42101
1985,1721 US 31W BYPASS,BOWLING GREEN,KY,42101
1986,727 US 31 W BY PASS,BOWLING GREEN,KY,42101
1987,1146 KENTON ST,BOWLING GREEN,KY,42101
1988,725 A KENTON STREET,BOWLING GREEN,KY,42101
1989,1906 COLLEGE HEIGHTS BLVD # 21038,BOWLING GREEN,KY,42101
1990,1906 COLLEGE HEIGHTS BLVD,BOWLING GREEN,KY,42101
1991,546 PARK ST STE 400,BOWLING GREEN,KY,42101
1992,948 ELM ST,BOWLING GREEN,KY,42101
1993,940 US 31W BYP,BOWLING GREEN,KY,42101
1994,740 E 10TH AVE,BOWLING GREEN,KY,42101
1995,1030 US 31W BYP,BOWLING GREEN,KY,42101
1996,1064 U S 31 WEST BY PASS,BOWLING GREEN,KY,42101
1997,1109 STATE ST,BOWLING GREEN,KY,42101
1998,2601 NASHVILLE RD,BOWLING GREEN,KY,42101
1999,725A KENTON ST,BOWLING GREEN,KY,42101
2000,727 US 31W BYP,BOWLING GREEN,KY,42101
2001,727 US 31W BYP STE 106 B,BOWLING GREEN,KY,42101
2002,727 U.S. 31 W BY PASS,BOWLING GREEN,KY,42101
2003,431 MAIN ST,EVANSVILLE,IN,47708
2004,740 S LIMESTONE ROOM A262,LEXINGTON,KY,40536
2005,777 BANNOCK ST,DENVER,CO,80204
2006,952 US 31 W BYPASS,BOWLING GREEN,KY,42102
2007,120 CALLAWAY COURT,BOWLING GREEN,KY,42103
2008,120 CALLAWAY CT,BOWLING GREEN,KY,42103
2009,895 WILKINSON TRACE,BOWLING GREEN,KY,42103
2010,940 US 31 W BYPASS,BOWLING GREEN,KY,42103
2011,996 WILKINSON TACE,BOWLING GREEN,KY,42103
2012,628 EASTWOOD ST,BOWLING GREEN,KY,42103
2013,640 WRIGHT AVE,BOWLING GREEN,KY,42103
2014,1042 FAIRVIEW AVE,BOWLING GREEN,KY,42103
2015,1042 FAIRVIEW AVE # C,BOWLING GREEN,KY,42103
2016,627 EASTWOOD AVE,BOWLING GREEN,KY,42103
2017,627 EASTWOOD ST,BOWLING GREEN,KY,42103
2018,901 WILKINSON TRCE,BOWLING GREEN,KY,42103
2019,895 WILKINSON TRCE STE B,BOWLING GREEN,KY,42103
2020,895 WILKINSON TRCE,BOWLING GREEN,KY,42103
2021,1337 N RACE ST STE B,GLASGOW,KY,42141
2022,2918 S REED RD,KOKOMO,IN,46902
2023,1025 ASHLEY ST,BOWLING GREEN,KY,42103
2024,996 WILKINSON TRCE,BOWLING GREEN,KY,42103
2025,1430 JENNY CT,BOWLING GREEN,KY,42103
2026,234 NATCHEZ TRACE AVE,BOWLING GREEN,KY,42103
2027,280 BURLEY AVE,HOPKINSVILLE,KY,42240
2028,717 S WHITE STATION RD STE 8,MEMPHIS,TN,38117
2029,2939 ESSARY DR STE 2,KNOXVILLE,TN,37918
2030,694 S WILLOW AVE,COOKEVILLE,TN,38501
2031,1421 ARMOUR ST,CHATTANOOGA,TN,37412
2032,75 GRAND AVE,COPPERHILL,TN,37317
2033,625 MORRISON SPRINGS RD,CHATTANOOGA,TN,37415
2034,410 N PARRISH PL STE 1000,HENDERSONVILLE,TN,37075
2035,996 WILKINSON TRCE STE B6,BOWLING GREEN,KY,42103
2036,610 CARLTON DR,OWENSBORO,KY,42303
2037,775 E BROOKHAVEN CIR,MEMPHIS,TN,38117
2038,306 E COLLEGE ST,DICKSON,TN,37055
2039,7640 HIGHWAY 70 S STE 205,NASHVILLE,TN,37221
2040,1360 S ELLINGTON PKWY,LEWISBURG,TN,37091
2041,6502B CHAPMAN HWY,KNOXVILLE,TN,37920
2042,1212 ASHLEY CIR,BOWLING GREEN,KY,42104
2043,1830 DESTINY LN,BOWLING GREEN,KY,42104
2044,1658 CAMPBELL LANE,BOWLING GREEN,KY,42104
2045,625 THREE SPRINGS RD,BOWLING GREEN,KY,42104
2046,1640 SCOTTSVILLE RD. SUITE 300,BOWLING GREEN,KY,42104
2047,1720 DESTINY LN,BOWLING GREEN,KY,42104
2048,1711 DESTINY LN,BOWLING GREEN,KY,42104
2049,1830 DESTINY LN STE 119,BOWLING GREEN,KY,42104
2050,1785 CAMPBELL LN STE 100,BOWLING GREEN,KY,42104
2051,1640 SCOTTSVILLE RD,BOWLING GREEN,KY,42104
2052,1938 LYDA AVE,BOWLING GREEN,KY,42104
2053,2400 PATTERSON STREET,NASHVILLE,TN,37203
2054,1802 ROCKINGHAM AVE,BOWLING GREEN,KY,42104
2055,1848 LYDA AVE,BOWLING GREEN,KY,42104
2056,1716 ASHLEY CIR,BOWLING GREEN,KY,42104
2057,1209 WOODHURST ST,BOWLING GREEN,KY,42104
2058,1724 ROCKINGHAM AVE,BOWLING GREEN,KY,42104
2059,2425 SCOTTSVILLE RD,BOWLING GREEN,KY,42104
2060,2425 SCOTTSVILLE RD STE 120,BOWLING GREEN,KY,42104
2061,1711 ASHLEY CIR,BOWLING GREEN,KY,42104
2062,894 FRED LIVELY RD,BOWLING GREEN,KY,42104
2063,221 TRELLIS ST,ALVATON,KY,42122
2064,395 STONE BLUFF LN,ALVATON,KY,42122
2065,203 S DIXIE HWY,CAVE CITY,KY,42127
2066,212 BROADWAY,CAVE CITY,KY,42127
2067,706 WEST STOCKTON STREET,EDMONTON,KY,42129
2068,108 ELMORE STREET,EDMONTON,KY,42129
2069,201 PLEASANT VALLEY RD,FRANKLIN,KY,42134
2070,112 MORGANTOWN RD,FRANKLIN,KY,42134
2071,320 MCLENDON RD,FRANKLIN,KY,42134
2072,927 BROOKHAVEN RD,FRANKLIN,KY,42134
2073,1027 BROOKHAVEN RD,FRANKLIN,KY,42134
2074,120 MEMORIAL DR,FRANKLIN,KY,42134
2075,1010 A GLENVIEW DR,GLASGOW,KY,42141
2076,101 STATE AVE,GLASGOW,KY,42141
2077,400 S. BROADWAY,GLASGOW,KY,42141
2078,501 W MAIN ST,GLASGOW,KY,42141
2079,104 HATCHETT CT,GLASGOW,KY,42141
2080,400 E MAIN ST,GLASGOW,KY,42141
2081,614 COLUMBIA AVE,GLASGOW,KY,42141
2082,203 PROFESSIONAL PARK DR,GLASGOW,KY,42141
2083,207 PROFESSIONAL PARK DR,GLASGOW,KY,42141
2084,199 W MAIN ST,SCOTTSVILLE,KY,42164
2085,306 B NORTH COURT STREET,SCOTTSVILLE,KY,42164
2086,1046 VETERANS MEMORIAL HIGHWAY,SCOTTSVILLE,KY,42164
2087,106 E PUBLIC SQ,SCOTTSVILLE,KY,42164
2088,5186 BOWLING GREEN RD,SCOTTSVILLE,KY,42164
2089,204 W PAIGE STREET,TOMPKINSVILLE,KY,42167
2090,42 EXECUTIVE DRIVE,TOMPKINSVILLE,KY,42167
2091,449 CAPP HARLAN ROAD,TOMPKINSVILLE,KY,42167
2092,101 W 4TH ST,TOMPKINSVILLE,KY,42167
2093,103 E 2ND ST,TOMPKINSVILLE,KY,42167
2094,865 S DIXIE HWY,MUNFORDVILLE,KY,42765
2095,42 EXECUTIVE DR,TOMPKINSVILLE,KY,42167
2096,148 VINCENT STREET,SMITHS GROVE,KY,42171
2097,148 VINCENT ST.,SMITHS GROVE,KY,42171
2098,148 VINCENT ST,SMITHS GROVE,KY,42171
2099,141 S MAIN ST,SMITHS GROVE,KY,42171
2100,104 EAST MAIN STREET,AUBURN,KY,42206
2101,1427 KY 259N,BROWNSVILLE,KY,42210
2102,520 SOUTH MAIN STREET,BROWNSVILLE,KY,42210
2103,1427 KY HIGHWAY 259 N,BROWNSVILLE,KY,42210
2104,5269 HOPKINSVILLE RD,CADIZ,KY,42211
2105,51 SOUTH ROAD,CADIZ,KY,42211
2106,254 MAIN ST,CADIZ,KY,42211
2107,136 EAST PRINCETON ST,CROFTON,KY,42217
2108,115 E MILL ST,CROFTON,KY,42217
2109,620 S. MAIN ST.,ELKTON,KY,42220
2110,BLDG 2441 21ST STREET,FORT CAMPBELL,KY,42223
2111,2441 21ST STREET,FORT CAMPBELL,KY,42223
2112,2441 21ST ST,FORT CAMPBELL,KY,42223
2113,2441 21 ST.,FORT CAMPBELL,KY,42223
2114,300 TWINING ST BLDG 760,MAXWELL AFB,AL,36112
2115,2840 BASTOGNE AVE,FORT CAMPBELL,KY,42223
2116,BLDG 2441 21ST ST,FORT CAMPBELL,KY,42223
2117,21ST STREET,FT CAMPBELL,KY,42223
2118,21ST STREET,FORT CAMPBELL,KY,42223
2119,2441 21ST STREET,FT CAMPBELL,KY,42223
2120,BLDG 2441,FORT CAMPBELL,KY,42223
2121,DENTAC BLDG 2441 21ST STREET,FORT CAMPBELL,KY,42223
2122,U S A DENTAC BLDG 2441,FORT CAMPBELL,KY,42223
2123,USA DENTAC 21ST STREET,FORT CAMPBELL,KY,42223
2124,120 W. 1250 N.,LOGAN,UT,84341
2125,803 OHIO ST,WEBSTER CITY,IA,50595
2126,1631 WETZEL AVE BLDG 815,FORT CARSON,CO,80913
2127,5516 RIVER POINT COVE RD,KNOXVILLE,TN,37919
2128,2601 C AVE,FORT LEE,VA,23801
2129,1032 RUSHMORE RD,CLARKSVILLE,TN,37042
2130,US ARMY DENTAC BLDG 9900 LINCOLN ST,TACOMA,WA,98431
2131,618TH DENTAL COMPANY (AS),SEOUL,YONGSAN,96025
2132,40 BURTON HILLS BLVD STE 200,NASHVILLE,TN,37215
2133,4004 PEACH CT STE A,COLUMBIA,MO,65203
2134,1724 NEBRASKA AVE,FORT LEONARD WOOD,MO,65473
2135,1 JARRETT WHITE RD,TRIPLER AMC,HI,96859
2136,600 CAISSON HILL ROAD,FT. RILEY,KS,66442
2137,3603 INDIANA AVE,FORT CAMPBELL,KY,42223
2138,BLDG 38801 ACADEMIC DRIVE,FORT GORDON,GA,30905
2139,560 MILL ST,GREEN LAKE,WI,54941
2140,9995 GATE PKWY N STE 310,JACKSONVILLE,FL,32246
2141,2292 DALTON DR STE F,CLARKSVILLE,TN,37043
2142,2700 MARTIN LUTHER KING JR BLVD,DETROIT,MI,48208
2143,"466 TINY TOWN RD, STE A",CLARKSVILLE,TN,37042
2144,3820 S FREMONT AVE,SPRINGFIELD,MO,65804
2145,CDR U S ARMY DENTAL ACTIVITY,FORT CAMPBELL,KY,42223
2146,4911 HARMON AVE,AUSTIN,TX,78751
2147,1060 GAFFNEY RD. #7440,FT. WAINWRIGHT,AK,99703
2148,BLDG 128 CHAFFE RD.,FORT BLISS,TX,79916
2149,"618TH DENTAL CO. USAG HUMPHREYS, CARIUS DENTAL CLINIC",APO,AP,96271
2150,6111 N DAVIS HWY STE B,PENSACOLA,FL,32504
2151,577 STERNBERG AVE,FORT EUSTIS,VA,23604
2152,1667 COCHRANE CIR BLDG 7495,FORT CARSON,CO,80913
2153,2901 CASSIDY RD,FORT BLISS,TX,79916
2154,USA DENTAL HEALTH ACTIVITY FORT BRAGG,FORT BRAGG,NC,28310
2155,1 JARRETT WHITE RD BLDG 160,TRIPLER ARMY MEDICAL CENTER,HI,96859
2156,"LANDSTUHL DENTAL ACTIVITY, HQ",LANDSTUHL,KIRCHBERG,09180
2157,36000 DARNALL LOOP STE 1048,FORT HOOD,TX,76544
2158,652 HAMILTON RD,FORT SILL,OK,73503
2159,1060 GAFFNEY RD,FT WAINWRIGHT,AK,99703
2160,300 COOL WATER COURT,HOPKINSVILLE,KY,42240
2161,522 B NOEL AVE,HOPKINSVILLE,KY,42240
2162,300 COOL WATER CT,HOPKINSVILLE,KY,42240
2163,319 COOL WATER COURT,HOPKINSVILLE,KY,42240
2164,520 NOEL AVENUE,HOPKINSVILLE,KY,42240
2165,520 NOEL DR,HOPKINSVILLE,KY,42240
2166,542 NOEL DR,HOPKINSVILLE,KY,42240
2167,542 NOEL AVE,HOPKINSVILLE,KY,42240
2168,1910 S VIRGINIA ST STE 109,HOPKINSVILLE,KY,42240
2169,1610 S MAIN ST,HOPKINSVILLE,KY,42240
2170,318 COOL WATER CT STE B,HOPKINSVILLE,KY,42240
2171,311 W 9TH ST,HOPKINSVILLE,KY,42240
2172,440 E 18TH ST,HOPKINSVILLE,KY,42240
2173,1910 S VIRGINIA ST,HOPKINSVILLE,KY,42240
2174,623 MILLBROOKE DR,HOPKINSVILLE,KY,42240
2175,4131 FORT CAMPBELL BLVD,HOPKINSVILLE,KY,42240
2176,319 COOL WATER CT,HOPKINSVILLE,KY,42240
2177,320 COOL WATER CT,HOPKINSVILLE,KY,42240
2178,288 N MAIN ST,LEWISBURG,KY,42256
2179,304 WEST OHIO ST.,MORGANTOWN,KY,42261
2180,304 MAIN ST.,MORGANTOWN,KY,42261
2181,222 W PORTER ST,MORGANTOWN,KY,42261
2182,204 EAST FOURTH ST,RUSSELLVILLE,KY,42276
2183,248 EAST 5TH STREET,RUSSELLVILLE,KY,42276
2184,204 MARKET SQ,RUSSELLVILLE,KY,42276
2185,981 FRANKLIN RD,RUSSELLVILLE,KY,42276
2186,1123 SCHERM RD,OWENSBORO,KY,42301
2187,920 FREDERICA STREET,OWENSBORO,KY,42301
2188,3723 SOUTH GRIFFITH,OWENSBORO,KY,42301
2189,920 FREDERICA ST,OWENSBORO,KY,42301
2190,745 SCHERM ROAD,OWENSBORO,KY,42301
2191,4921 GOETZ DR.,OWENSBORO,KY,42301
2192,5035 FREDERICA STREET,OWENSBORO,KY,42301
2193,3062 W PARRISH AVE,OWENSBORO,KY,42301
2194,730 W 12TH ST,OWENSBORO,KY,42301
2195,1100 WALNUT ST,OWENSBORO,KY,42301
2196,1221 FREDERICA ST,OWENSBORO,KY,42301
2197,920 FREDERICA ST STE 204,OWENSBORO,KY,42301
2198,3720 W PARRISH AVE,OWENSBORO,KY,42301
2199,2315 MAYFAIR DR,OWENSBORO,KY,42301
2200,1605 SCHERM RD,OWENSBORO,KY,42301
2201,745 SCHERM RD,OWENSBORO,KY,42301
2202,909 SCHERM RD,OWENSBORO,KY,42301
2203,722 HARVARD DR,OWENSBORO,KY,42301
2204,1115 TAMARACK RD,OWENSBORO,KY,42301
2205,1300 SOUTHTOWN BLVD,OWENSBORO,KY,42301
2206,5035 FREDERICA ST,OWENSBORO,KY,42301
2207,5035 FREDERICA ST STE 3,OWENSBORO,KY,42301
2208,1901 VETERANS MEMORIAL DR,TEMPLE,TX,76504
2209,4921 GOETZ LN,OWENSBORO,KY,42301
2210,438 S EMERSON AVE STE 230,GREENWOOD,IN,46143
2211,2315 MAYFAIR DR STE 32,OWENSBORO,KY,42301
2212,922 TRIPLETT ST STE 9,OWENSBORO,KY,42303
2213,2200 E PARRISH AVE,OWENSBORO,KY,42303
2214,2816 VEACH RD,OWENSBORO,KY,42303
2215,2817 VEACH ROAD,OWENSBORO,KY,42303
2216,922 TRIPLETT ST,OWENSBORO,KY,42303
2217,2816 VEACH RD.,OWENSBORO,KY,42303
2218,2200 E PARRISH AVE STE 103C,OWENSBORO,KY,42303
2219,505 N GREEN ST,BROWNSBURG,IN,46112
2220,3310 PROFESSIONAL PARK DR.,OWENSBORO,KY,42303
2221,2862 FARRELL CRES,OWENSBORO,KY,42303
2222,3310 PROFESSIONAL PARK DRIVE,OWENSBORO,KY,42303
2223,2824B FARRELL CRES,OWENSBORO,KY,42303
2224,2868 FARRELL CRES,OWENSBORO,KY,42303
2225,2880 FARRELL CRES,OWENSBORO,KY,42303
2226,2200 E PARRISH AVE STE 202C,OWENSBORO,KY,42303
2227,2200 EAST PARRISH AVENUE,OWENSBORO,KY,42303
2228,3164 ALVEY PARK DR E,OWENSBORO,KY,42303
2229,2594 CALUMET TRCE STE 1&2A,OWENSBORO,KY,42303
2230,2816 VEACH ROAD,OWENSBORO,KY,42303
2231,2816 VEACH RD STE 301A,OWENSBORO,KY,42303
2232,2816 VEACH RD STE 301,OWENSBORO,KY,42303
2233,2816 VEACH RD STE 201,OWENSBORO,KY,42303
2234,1208 E BYERS AVE,OWENSBORO,KY,42303
2235,1208 EAST BYERS AVE,OWENSBORO,KY,42303
2236,445 STABLEFORD CIR,OWENSBORO,KY,42303
2237,1269 DUVALL RD,BEAVER DAM,KY,42320
2238,1042 N MAIN ST,BEAVER DAM,KY,42320
2239,1221 N MAIN ST,BEAVER DAM,KY,42320
2240,1317 N MAIN ST,BEAVER DAM,KY,42320
2241,300 WEST BROAD ST,CENTRAL CITY,KY,42330
2242,200 W RESERVOIR,CENTRAL CITY,KY,42330
2243,200 WEST RESERVOIR,CENTRAL CITY,KY,42330
2244,1603 W EVERLY BROS BLVD SUITE 2A,CENTRAL CITY,KY,42330
2245,200 W RESERVOIR AVE,CENTRAL CITY,KY,42330
2246,145 W BROAD ST,CENTRAL CITY,KY,42330
2247,300 W BROAD ST,CENTRAL CITY,KY,42330
2248,203 S CHERRY ST,GREENVILLE,KY,42345
2249,113 OBRIEN ST,GREENVILLE,KY,42345
2250,132 E MAIN CROSS ST,GREENVILLE,KY,42345
2251,132 EAST MAIN CROSS ST,GREENVILLE,KY,42345
2252,112 MCMURTRY AVE,HARTFORD,KY,42347
2253,904 MAIN STREET,HARTFORD,KY,42347
2254,1117 S MAIN ST,HARTFORD,KY,42347
2255,501 MAIN STREET,HAWESVILLE,KY,42348
2256,140 MAIN CROSS STREET,HAWESVILLE,KY,42348
2257,140 MAIN CROSS ST,HAWESVILLE,KY,42348
2258,8340 U.S. 60 WEST,LEWISPORT,KY,42351
2259,222 MAIN ST.,LIVERMORE,KY,42352
2260,511 W MAIN ST,POWDERLY,KY,42367
2261,115 WEST MUNN STREET,DAWSON SPRINGS,KY,42408
2262,308 E ARCADIA AVE,DAWSON SPRINGS,KY,42408
2263,122 S LEE TROVER TODD JR HWY,EARLINGTON,KY,42410
2264,730 N GREEN ST,HENDERSON,KY,42420
2265,716 2ND ST,HENDERSON,KY,42420
2266,616 BARRETT BLVD,HENDERSON,KY,42420
2267,107 N MAIN ST,HENDERSON,KY,42420
2268,716 SECOND STREET,HENDERSON,KY,42420
2269,100 MYRENE DR,HENDERSON,KY,42420
2270,2869 HIGHWAY 41 N,HENDERSON,KY,42420
2271,801 N. ELM STREET,HENDERSON,KY,42420
2272,801 N ELM ST,HENDERSON,KY,42420
2273,1000 N ELM ST,HENDERSON,KY,42420
2274,110 3RD ST,HENDERSON,KY,42420
2275,481 KLUTEY PARK PLAZA DR,HENDERSON,KY,42420
2276,401 HOFFMAN DR STE C,HENDERSON,KY,42420
2277,342 STARLITE DR.,HENDERSON,KY,42420
2278,2660 S GREEN ST,HENDERSON,KY,42420
2279,700A BARRETT BLVD,HENDERSON,KY,42420
2280,704 BARRETT BLVD,HENDERSON,KY,42420
2281,32 EAST BROADWAY,MADISONVILLE,KY,42431
2282,1250 THORNBERRY DR,MADISONVILLE,KY,42431
2283,412 NORTH KENTUCKY AVE,MADISONVILLE,KY,42431
2284,77 E NORTH ST,MADISONVILLE,KY,42431
2285,200 CLINIC DR,MADISONVILLE,KY,42431
2286,412 N KENTUCKY AVE,MADISONVILLE,KY,42431
2287,344 E ARCH ST,MADISONVILLE,KY,42431
2288,1175 S MAIN ST,MADISONVILLE,KY,42431
2289,1340 S MAIN ST,MADISONVILLE,KY,42431
2290,70 CORNWALL DR,MADISONVILLE,KY,42431
2291,95 YMCA DR,MADISONVILLE,KY,42431
2292,2100 N MAIN ST,MADISONVILLE,KY,42431
2293,1410 PRIDE AVE STE C,MADISONVILLE,KY,42431
2294,1410 PRIDE AVE,MADISONVILLE,KY,42431
2295,1400 PRIDE AVENUE,MADISONVILLE,KY,42431
2296,114 N BRADY ST,MORGANFIELD,KY,42437
2297,2302 U.S. HIGHWAY 60 EAST,MORGANFIELD,KY,42437
2298,124 S BRADY ST,MORGANFIELD,KY,42437
2299,825 US HIGHWAY 60 E,MORGANFIELD,KY,42437
2300,406 W WASHINGTON ST,PRINCETON,KY,42445
2301,202 E MAIN ST,PRINCETON,KY,42445
2302,110 SOUTH CAVE STREET,PRINCETON,KY,42445
2303,400 W WASHINGTON ST,PRINCETON,KY,42445
2304,110 BARRETT ST,PROVIDENCE,KY,42450
2305,125 E MAIN ST,PROVIDENCE,KY,42450
2306,1107 N. MAIN ST.,STURGIS,KY,42459
2307,501 COLLEGE STREET,SOMERSET,KY,42501
2308,3876 S HWY 27,SOMERSET,KY,42501
2309,3876 SOUTH HWY 27,SOMERSET,KY,42501
2310,501 COLLEGE ST,SOMERSET,KY,42501
2311,110 N CENTRAL AVE,SOMERSET,KY,42501
2312,152 PARKERS MILL RD,SOMERSET,KY,42501
2313,515 OGDEN STREET,SOMERSET,KY,42501
2314,250 BELMONT AVENUE,SOMERSET,KY,42501
2315,224 LANGDON STREET,SOMERSET,KY,42501
2316,125 BARNETT STREET,SOMERSET,KY,42501
2317,3810 SOUTH HWY 27,SOMERSET,KY,42501
2318,125 BARNETT ST,SOMERSET,KY,42501
2319,1060 GAFFNEY ROAD 7400,FORT WAINWRIGHT,AK,99703
2320,133 E RIDGE LN,SOMERSET,KY,42501
2321,515 OGDEN ST,SOMERSET,KY,42501
2322,500 BOURNE AVE,SOMERSET,KY,42501
2323,224 LANGDON ST,SOMERSET,KY,42501
2324,370 S HIGHWAY 27,SOMERSET,KY,42501
2325,2911 S HIGHWAY 27,SOMERSET,KY,42501
2326,3810 S HIGHWAY 27 STE 5,SOMERSET,KY,42501
2327,152 PARKERS MILL RD UNIT A,SOMERSET,KY,42501
2328,29 EURY LN,SOMERSET,KY,42501
2329,176 SOUTHPORT DRIVE,SOMERSET,KY,42501
2330,23 COMMERCIAL DR,SOMERSET,KY,42501
2331,7333 SHALLOWFORD RD,CHATTANOOGA,TN,37421
2332,100 HARDIN LN,SOMERSET,KY,42503
2333,296 MEDPARK DRIVE,SOMERSET,KY,42503
2334,47 SARAHS LN,SOMERSET,KY,42503
2335,313 LANGDON ST,SOMERSET,KY,42503
2336,100 HARDIN LN STE B,SOMERSET,KY,42503
2337,54 IMAGING DRIVE,SOMERSET,KY,42503
2338,221 EAST SOMERSET CHURCH ROAD,SOMERSET,KY,42503
2339,54 IMAGING DR,SOMERSET,KY,42503
2340,101 SARAHS LN,SOMERSET,KY,42503
2341,79 SARAHS LN,SOMERSET,KY,42503
2342,87 SARAHS LN,SOMERSET,KY,42503
2343,14 BOGLE OFFICE PARK DR,SOMERSET,KY,42503
2344,401 BOGLE ST STE 204,SOMERSET,KY,42503
2345,401 BOGLE ST,SOMERSET,KY,42503
2346,296 MEDPARK DR,SOMERSET,KY,42503
2347,100 HARDIN LN STE A,SOMERSET,KY,42503
2348,110 HARDIN LN,SOMERSET,KY,42503
2349,110 HARDIN LANE,SOMERSET,KY,42503
2350,127 WELL PARK LN,CAMPBELLSVILLE,KY,42718
2351,650 GLENMARY DR STE 2,COLUMBIA,KY,42728
2352,39 BOGLE OFFICE PARK DR,SOMERSET,KY,42503
2353,650 WHIPP AVE.,LIBERTY,KY,42539
2354,650 WHIPP AVENUE,LIBERTY,KY,42539
2355,428 HUSTONVILLE ST,LIBERTY,KY,42539
2356,8536 W HIGHWAY 80,NANCY,KY,42544
2357,105 FOOTHILLS AVENUE,ALBANY,KY,42602
2358,111 CROSS ST,ALBANY,KY,42602
2359,108 PLAZA DR,ALBANY,KY,42602
2360,43 FRUIT OF THE LOOM DRIVE,JAMESTOWN,KY,42629
2361,108 TOWN SQUARE,JAMESTOWN,KY,42629
2362,1225 N. MAIN ST.,MONTICELLO,KY,42633
2363,650 N MAIN ST,MONTICELLO,KY,42633
2364,1225 N MAIN ST,MONTICELLO,KY,42633
2365,1313 N MAIN ST,MONTICELLO,KY,42633
2366,1293 N MAIN ST STE 108,MONTICELLO,KY,42633
2367,1500 N MAIN ST STE 162,MONTICELLO,KY,42633
2368,216 CUMBERLAND XING,MONTICELLO,KY,42633
2369,458 N MAIN ST,RUSSELL SPRINGS,KY,42642
2370,519 MAIN STREET,RUSSELL SPRINGS,KY,42642
2371,24 CADEN WAY STE. 3,RUSSELL SPRINGS,KY,42642
2372,2289 LAKEWAY DR.,RUSSELL SPRINGS,KY,42642
2373,54 MEDICAL LANE,WHITLEY CITY,KY,42653
2374,100 1ST BAPTIST CHURCH RD.,WHITLEY CITY,KY,42653
2375,19 MEDICAL LOOP STE 3,WHITLEY CITY,KY,42653
2376,8340 COLERAIN AVE,CINCINNATI,OH,45239
2377,2407 RING RD,ELIZABETHTOWN,KY,42701
2378,2110 N DIXIE HWY,ELIZABETHTOWN,KY,42701
2379,520 N MILES ST,ELIZABETHTOWN,KY,42701
2380,1107 CROWN POINTE DR STE 210,ELIZABETHTOWN,KY,42701
2381,1602 LAKEWOOD DR,ELIZABETHTOWN,KY,42701
2382,1107 CROWNE POINTE BUSINESS CENTER,ELIZABETHTOWN,KY,42701
2383,1345 WOODLAND DRIVE,ELIZABETHTOWN,KY,42701
2384,610 N MILES ST,ELIZABETHTOWN,KY,42701
2385,1602 LAKEWOOD DRIVE,ELIZABETHTOWN,KY,42701
2386,950 NORTH MULBERRY STREET,ELIZABETHTOWN,KY,42701
2387,2405 RING ROAD,ELIZABETHTOWN,KY,42701
2388,2030 N DIXIE HWY,ELIZABETHTOWN,KY,42701
2389,2736 RING ROAD,ELIZABETHTOWN,KY,42701
2390,3100 RING RD # 104,ELIZABETHTOWN,KY,42701
2391,238 W DIXIE AVE,ELIZABETHTOWN,KY,42701
2392,326 N MULBERRY ST,ELIZABETHTOWN,KY,42701
2393,520 NORTH MILES STREET,ELIZABETHTOWN,KY,42701
2394,804 N MULBERRY ST,ELIZABETHTOWN,KY,42701
2395,501 W POPLAR ST,ELIZABETHTOWN,KY,42701
2396,611 W POPLAR ST,ELIZABETHTOWN,KY,42701
2397,914 N DIXIE AVE,ELIZABETHTOWN,KY,42701
2398,1345 WOODLAND DR,ELIZABETHTOWN,KY,42701
2399,1102 WOODLAND DR,ELIZABETHTOWN,KY,42701
2400,551 WESTPORT RD,ELIZABETHTOWN,KY,42701
2401,535 WESTPORT RD,ELIZABETHTOWN,KY,42701
2402,551 WESTPORT RD STE A,ELIZABETHTOWN,KY,42701
2403,120 HELMWOOD PLAZA DR STE 135,ELIZABETHTOWN,KY,42701
2404,950 N MULBERRY ST,ELIZABETHTOWN,KY,42701
2405,103 FINANCIAL PL STE 101,ELIZABETHTOWN,KY,42701
2406,1705 N DIXIE AVE STE 111,ELIZABETHTOWN,KY,42701
2407,1107 CROWN POINTE DR,ELIZABETHTOWN,KY,42701
2408,151 DREXLER CIR # A,ELIZABETHTOWN,KY,42701
2409,151 DREXLER CIR,ELIZABETHTOWN,KY,42701
2410,3333 BURNET AVE,CINCINNATI,OH,45229
2411,2900 RING RD,ELIZABETHTOWN,KY,42701
2412,2401 RING RD,ELIZABETHTOWN,KY,42701
2413,2405 RING RD,ELIZABETHTOWN,KY,42701
2414,1105 MARY T MEAGHER RD,ELIZABETHTOWN,KY,42701
2415,806 GREENVIEW CIR,ELIZABETHTOWN,KY,42701
2416,2101 N DIXIE HWY,ELIZABETHTOWN,KY,42701
2417,2865 RING RD,ELIZABETHTOWN,KY,42701
2418,2736 RING RD,ELIZABETHTOWN,KY,42701
2419,2030 N DIXIE AVE,ELIZABETHTOWN,KY,42701
2420,5104 CHARLESTOWN RD,NEW ALBANY,IN,47150
2421,4100 WOEHRLE RD,JEFFERSONVILLE,IN,47130
2422,5520 E HIGHWAY 62,JEFFERSONVILLE,IN,47130
2423,2500 COMO AVE,SAINT PAUL,MN,55108
2424,2900 RING RD # 7934,ELIZABETHTOWN,KY,42701
2425,234 GOODMAN ST,CINCINNATI,OH,45219
2426,1436 LOCUST ST,TERRE HAUTE,IN,47807
2427,405 NORTH MAIN STREET,BURKESVILLE,KY,42717
2428,360 KEEN ST,BURKESVILLE,KY,42717
2429,105 MEDICAL PARK DR,CAMPBELLSVILLE,KY,42718
2430,2065 MEADOW CREEK RD,CAMPBELLSVILLE,KY,42718
2431,227 W MAIN ST,CAMPBELLSVILLE,KY,42718
2432,1485 OLD LEBANON RD,CAMPBELLSVILLE,KY,42718
2433,108 MEDICAL PARK DR,CAMPBELLSVILLE,KY,42718
2434,230 WARREN PL,CAMPBELLSVILLE,KY,42718
2435,1880 OLD LEBANON RD,CAMPBELLSVILLE,KY,42718
2436,528 EAST MAPLE STREET,CANEYVILLE,KY,42721
2437,6541 LEITCHFIELD RD,CECILIA,KY,42724
2438,318 PUBLIC SQ,COLUMBIA,KY,42728
2439,318 PUBLIC SQUARE,COLUMBIA,KY,42728
2440,933 RUSSELL RD STE 103,COLUMBIA,KY,42728
2441,125 HEALTHY WAY,GREENSBURG,KY,42743
2442,105 W COURT ST,GREENSBURG,KY,42743
2443,2619 CAMPBELLSVILLE RD,GREENSBURG,KY,42743
2444,104 N WALTERS AVE,HODGENVILLE,KY,42748
2445,123 W WATER ST,HODGENVILLE,KY,42748
2446,1031 OLD ELIZABETHTOWN RD,HODGENVILLE,KY,42748
2447,311 S DIXIE ST,HORSE CAVE,KY,42749
2448,711 MILL ST,LEITCHFIELD,KY,42754
2449,1919 ELIZABETHTOWN RD,LEITCHFIELD,KY,42754
2450,1713 ELIZABETHTOWN RD,LEITCHFIELD,KY,42754
2451,2471 ELIZABETHTOWN RD,LEITCHFIELD,KY,42754
2452,663 MAIN ST,MUNFORDVILLE,KY,42765
2453,309 CALDWELL ST,MUNFORDVILLE,KY,42765
