,address_1,city,state,postal_code
0,17300 OUTER FORTY ROAD NORTH,CHESTERFIELD,MO,63005
1,"150 LONG ROAD, SUITE 100",CHESTERFIELD,MO,63005
2,6 MCBRIDE AND SON CORPORATE CENTER,CHESTERFIELD,MO,63005
3,109 LONG RD,CHESTERFIELD,MO,63005
4,6 MCBRIDE AND SON CORPORATE CENTER DR,CHESTERFIELD,MO,63005
5,#6 MCBRIDE AND SON CORPORATE CENTER DRIVE,CHESTERFIELD,MO,63005
6,383 SHETLAND VALLEY CT.,CHESTERFIELD,MO,63005
7,100 THF BLVD.,CHESTERFIELD,MO,63005
8,150 LONG ROAD STE 100,CHESTERFIELD,MO,63005
9,139 LONG RD,CHESTERFIELD,MO,63005
10,132 CHESTERFIELD TOWNE CTR,CHESTERFIELD,MO,63005
11,125 CHESTERFIELD BUSINESS PKWY,CHESTERFIELD,MO,63005
12,17300 N OUTER 40,CHESTERFIELD,MO,63005
13,6 MCBRIDE AND SON CENTER DR,CHESTERFIELD,MO,63005
14,6 MCBRIDE & SON CORPORATE CENTER DRIVE,CHESTERFIELD,MO,63005
15,16889 CHESTERFIELD AIRPORT RD,CHESTERFIELD,MO,63005
16,4451 VENETUCCI BLVD UNIT 160,COLORADO SPRINGS,CO,80906
17,810 O'FALLON RD,WELDON SPRINGS,MO,63304
18,7934 N LINDBERGH BLVD STE B,HAZELWOOD,MO,63042
19,1904 RICHARDSON RD,ARNOLD,MO,63010
20,3613 RICHARDSON SQUARE DR,ARNOLD,MO,63010
21,124 RICHARDSON XING,ARNOLD,MO,63010
22,JEFFERSON COUNTY HEALTH DEPARTMENT,ARNOLD,MO,63010
23,2071 OLD HWY 21,ARNOLD,MO,63010
24,1333 W OUTER 21 RD,ARNOLD.,MO,63010
25,2231 MICHIGAN AVENUE,ARNOLD,MO,63010
26,849 JEFFCO BLVD,ARNOLD,MO,63010
27,6 MUNICIPAL DR,ARNOLD,MO,63010
28,1818 LONEDELL RD,ARNOLD,MO,63010
29,937 JEFFCO BLVD,ARNOLD,MO,63010
30,1708 MISSOURI STATE RD,ARNOLD,MO,63010
31,1200 BIG BILL RD,ARNOLD,MO,63010
32,1819 S HANLEY RD,BRENTWOOD,MO,63144
33,2231 MICHIGAN AVE,ARNOLD,MO,63010
34,1333 W OUTER 21 RD,ARNOLD,MO,63010
35,3876 VOGEL RD,ARNOLD,MO,63010
36,3901 VOGEL RD,ARNOLD,MO,63010
37,3608 JEFFCO BLVD,ARNOLD,MO,63010
38,3540 JEFFCO BLVD,ARNOLD,MO,63010
39,3540 JEFFCO BLVD STE 110,ARNOLD,MO,63010
40,4123 JEFFCO BLVD,ARNOLD,MO,63010
41,4051 JEFFCO BLVD,ARNOLD,MO,63010
42,28 FOX VALLEY CENTER,ARNOLD,MO,63010
43,3855 W OUTER RD,ARNOLD,MO,63010
44,3500 JEFFCO BLVD,ARNOLD,MO,63010
45,3500 JEFFCO BLVD STE 100,ARNOLD,MO,63010
46,112 S 2ND ST,FESTUS,MO,63028
47,4 HICKORY RIDGE RD STE 600,HILLSBORO,MO,63050
48,4300 GRAVOIS RD,HOUSE SPRINGS,MO,63051
49,3024 SOUTH IL-159,GLEN CARBON,IL,62034
50,1809 HOMER M ADAMS PKWY STE A,ALTON,IL,62002
51,6650 CHIPPEWA ST,SAINT LOUIS,MO,63109
52,943 AVENIDA PICO UNIT A,SAN CLEMENTE,CA,92673
53,15208 MANCHESTER RD,BALLWIN,MO,63011
54,16429 VILLAGE PLAZA VIEW DR,WILDWOOD,MO,63011
55,277 CLARKSON RD STE 100,ELLISVILLE,MO,63011
56,485 WILDWOOD PARKWAY,BALLWIN,MO,63011
57,16111 MANCHESTER ROAD,ELLISVILLE,MO,63011
58,"277 CLARKSON RD, STE 100",ELLISVILLE,MO,63011
59,164 CLARKSON EXECUTIVE PARK,ELLISVILLE,MO,63011
60,14615 MANCHESTER RD. STE. 201,MANCHESTER,MO,63011
61,14738 MANCHESTER ROAD,BALLWIN,MO,63011
62,14738 MANCHESTER RD,BALLWIN,MO,63011
63,14560 MANCHESTER RD,WINCHESTER,MO,63011
64,956 KEHRS MILL ROAD,BALLWIN,MO,63011
65,355 OZARK TRAIL DR,ELLISVILLE,MO,63011
66,269 CLARKSON RD,ELLISVILLE,MO,63011
67,8005 BIG BEND BLVD,WEBSTER GROVES,MO,63119
68,9016 PHOENIX PKWY,O FALLON,MO,63368
69,1201 N STONEWALL AVE,OKLAHOMA CITY,OK,73117
70,14335 MANCHESTER ROAD,BALLWIN,MO,63011
71,508 STRECKER RD,BALLWIN,MO,63011
72,15925 MANCHESTER RD,ELLISVILLE,MO,63011
73,15991 MANCHESTER RD,ELLISVILLE,MO,63011
74,300 OZARK TRAIL DR,ELLISVILLE,MO,63011
75,1302 CLARKSON CLAYTON CTR,ELLISVILLE,MO,63011
76,165 CLARKSON EXECUTIVE PARK,ELLISVILLE,MO,63011
77,333 OZARK TRAIL DR,ELLISVILLE,MO,63011
78,265 CLARKSON RD,ELLISVILLE,MO,63011
79,184 CLARKSON RD,ELLISVILLE,MO,63011
80,980 KEHRS MILL RD,BALLWIN,MO,63011
81,964 KEHRS MILL RD,BALLWIN,MO,63011
82,16 N JACKSON ST,BELLEVILLE,IL,62220
83,485 WILDWOOD PKWY,BALLWIN,MO,63011
84,761 CLUBHOUSE DR,BALLWIN,MO,63011
85,923 MANSIONHILL DR,BALLWIN,MO,63011
86,15459 CLAYTON RD,BALLWIN,MO,63011
87,15421 CLAYTON RD STE 203,BALLWIN,MO,63011
88,15421 CLAYTON RD,BALLWIN,MO,63011
89,145 LOG TRAIL DR,BALLWIN,MO,63011
90,133 BAXTER SHOPS,MANCHESTER,MO,63011
91,121 BAXTER SHOPS,MANCHESTER,MO,63011
92,121 BAXTER SHOPS,BALLWIN,MO,63011
93,143 COUNTRY CREEK CT,BALLWIN,MO,63011
94,14560 MANCHESTER RD,BALLWIN,MO,63011
95,453 LAFAYETTE CTR,MANCHESTER,MO,63011
96,453 LAFAYETTE CENTER,MANCHESTER,MO,63011
97,14335 MANCHESTER RD,MANCHESTER,MO,63011
98,2552 LEMAY FERRY RD,SAINT LOUIS,MO,63125
99,14397 MANCHESTER RD,MANCHESTER,MO,63011
100,14399 MANCHESTER RD,MANCHESTER,MO,63011
101,1314 TURTLE CV,BALLWIN,MO,63011
102,1001 BRITTANY PARKWAY DR,MANCHESTER,MO,63011
103,410 SOVEREIGN CT,MANCHESTER,MO,63011
104,13975 MANCHESTER RD,BALLWIN,MO,63011
105,13759 MANCHESTER RD,BALLWIN,MO,63011
106,12 HUTCHINSON RD,ELLISVILLE,MO,63011
107,16 HAMPTON VILLAGE PLZ,SAINT LOUIS,MO,63109
108,20390 LORAIN RD,FAIRVIEW PARK,OH,44126
