,address_1,city,state,postal_code
0,24585 STONE CARVER DRIVE,ALDIE,VA,20105
1,24560 SOUTHPOINT DR STE 210,ALDIE,VA,20105
2,24560 SOUTHPOINT DR STE 160,ALDIE,VA,20105
3,42010 VILLAGE CENTER PLZ,STONE RIDGE,VA,20105
4,24600 MILLSTREAM DR,STONE RIDGE,VA,20105
5,24585 STONE CARVER DR STE 225,ALDIE,VA,20105
6,24560 SOUTHPOINT DR STE 240,ALDIE,VA,20105
7,4141 N HENDERSON RD,ARLINGTON,VA,22203
8,24600 MILLSTREAM DR UNIT 440,ALDIE,VA,20105
9,24600 MILLSTREAM DR # 440,ALDIE,VA,20105
10,24600 MILLSTREAM DR,ALDIE,VA,20105
11,24600 MILLSTREAM DR STE 480,ALDIE,VA,20105
12,24600 MILLSTREAM DR STE 470,ALDIE,VA,20105
13,608 ANDERSON AVE,CLIFFSIDE PARK,NJ,07010
14,1100 ALABAMA AVE SE,WASHINGTON,DC,20032
15,10695 SUDLEY MANOR DR STE 102,MANASSAS,VA,20109
16,8551 RIXLEW LN STE 130,MANASSAS,VA,20109
17,9940 SOWDER VILLAGE SQ,MANASSAS,VA,20109
18,10600 CRESTWOOD DR,MANASSAS,VA,20109
19,10610B CRESTWOOD DRIVE,MANASSAS,VA,20109
20,10753 B AMBASSADOR DR,MANASSAS,VA,20109
21,10684 CRESTWOOD DR,MANASSAS,VA,20109
22,9940 SOWDER VILLAGE SQUARE,MANASSAS,VA,20109
23,"10555 CRESTWOOD DR., UNIT B",MANASSAS,VA,20109
24,10482 SUDLEY MANOR DRIVE,MANASSAS,VA,20109
25,"10432 BALLS FORD RD, SUITE 300",MANASSAS,VA,20109
26,10050 SOWDER VILLAGE SQUARE,MANASSAS,VA,20109
27,10751 AMBASSADOR DR # 101,MANASSAS,VA,20109
28,7518 A DIPLOMAT DRIVE,MANASSAS,VA,20109
29,7800 SUDLEY RD,MANASSAS,VA,20109
30,7800 SUDLEY RD # 7810,MANASSAS,VA,20109
31,7800 SUDLEY RD STE 7810,MANASSAS,VA,20109
32,9942 MAIN ST,FAIRFAX,VA,22031
33,14520 SMOKETOWN RD,WOODBRIDGE,VA,22192
34,11670 SUDLEY MANOR DR,MANASSAS,VA,20109
35,7806 SUDLEY RD,MANASSAS,VA,20109
36,7740 DONEGAN DR,MANASSAS,VA,20109
37,9701 NEW CHURCH ST,DAMASCUS,MD,20872
38,7806 SUDLEY RD STE 210,MANASSAS,VA,20109
39,10563 CRESTWOOD DR,MANASSAS,VA,20109
40,10635 CRESTWOOD DR,MANASSAS,VA,20109
41,10682 CRESTWOOD DR STE C,MANASSAS,VA,20109
42,11503 SUNRISE VALLEY DR,RESTON,VA,20191
43,10620 CRESTWOOD DR STE A,MANASSAS,VA,20109
44,10630 CRESTWOOD DR,MANASSAS,VA,20109
45,10670 CRESTWOOD DR STE A,MANASSAS,VA,20109
46,10670 CRESTWOOD DR STE B,MANASSAS,VA,20109
47,10555 CRESTWOOD DR,MANASSAS,VA,20109
48,10529 CRESTWOOD DR,MANASSAS,VA,20109
49,1934 CHANCELLOR RIDGE RD,PRATTVILLE,AL,36066
50,8100 ASHTON AVE,MANASSAS,VA,20109
51,8100 ASHTON AVE STE 212,MANASSAS,VA,20109
52,1001 COVINGTON AVE.,YOUNGSTOWN,OH,44504
53,7804 LAKE PLEASANT DRIVE,SPRINGFIELD,VA,22153
54,1001 COVINGTON ST,YOUNGSTOWN,OH,44510
55,10408 PORTSMOUTH RD,MANASSAS,VA,20109
56,3114 GOLANSKY BLVD STE 101,WOODBRIDGE,VA,22192
57,10630 CRESTWOOD DR STE B,MANASSAS,VA,20109
58,3925 OLD LEE HWY STE 51C,FAIRFAX,VA,22030
59,4300 PLANK RD,FREDERICKSBURG,VA,22407
60,10630 CRESTWOOD DR STE A,MANASSAS,VA,20109
61,6468 TRADING SQ,HAYMARKET,VA,20169
62,8577 SUDLEY RD STE B,MANASSAS,VA,20110
63,8707 DIGGES RD,MANASSAS,VA,20110
64,9380 FORESTWOOD LN STE E,MANASSAS,VA,20110
65,8719 STONEWALL RD,MANASSAS,VA,20110
66,9528 LIBERIA AVE,MANASSAS,VA,20110
67,9301 LEE AVE,MANASSAS,VA,20110
68,8557 SUDLEY RD,MANASSAS,VA,20110
69,9625 SURVEYOR COURT,MANASSAS,VA,20110
70,8719 PLANTATION LN,MANASSAS,VA,20110
71,8739 PLANTATION LANE,MANASSAS,VA,20110
72,10068 DUMFRIES,MANASSAS,VA,20110
73,8711 DIGGES RD,MANASSAS,VA,20110
74,8659 SUDLEY RD,MANASSAS,VA,20110
75,8404 DORSEY CIRCLE,MANASSAS,VA,20110
76,8705 DIGGES ROAD,MANASSAS,VA,20110
77,9161 LIBERIA AVE.,MANASSAS,VA,20110
78,8557 SUDLEY ROAD,MANASSAS,VA,20110
79,10081 MARKET CIRLCE,MANASSAS,VA,20110
80,8715 STONEWALL ROAD,MANASSAS,VA,20110
81,8719 PLANTATION LANE,MANASSAS,VA,20110
82,9675 LIBERIA AVE STE 101,MANASSAS,VA,20110
83,8559 SUDLEY ROAD,MANASSAS,VA,20110
84,8719 STONEWALL ROAD,MANASSAS,VA,20110
85,9613 CHAMPION CT,MANASSAS,VA,20110
86,9675 LIBERIA AVE,MANASSAS,VA,20110
87,10051 MARKET CIR,MANASSAS,VA,20110
88,10081 MARKET CIR,MANASSAS,VA,20110
89,8559 SUDLEY RD,MANASSAS,VA,20110
90,8567 SUDLEY RD STE A,MANASSAS,VA,20110
91,8725 DIGGES RD,MANASSAS,VA,20110
92,8705 DIGGES RD,MANASSAS,VA,20110
93,8714 SUDLEY RD,MANASSAS,VA,20110
94,9001 DIGGES RD STE 202,MANASSAS,VA,20110
95,9001 DIGGES RD,MANASSAS,VA,20110
96,9625 SURVEYOR CT,MANASSAS,VA,20110
97,8739 PLANTATION LN,MANASSAS,VA,20110
98,8715 STONEWALL RD,MANASSAS,VA,20110
99,8404 DORSEY CIR,MANASSAS,VA,20110
100,9378 FORESTWOOD LN STE A,MANASSAS,VA,20110
101,9420 FORESTWOOD LN STE 201,MANASSAS,VA,20110
102,9216 CENTREVILLE RD,MANASSAS,VA,20110
103,9012 MATHIS AVE,MANASSAS,VA,20110
104,8669 PHOENIX DR,MANASSAS,VA,20110
105,9003 CHURCH ST,MANASSAS,VA,20110
106,9822 LIBERIA AVE,MANASSAS,VA,20110
107,9806 LIBERIA AVE,MANASSAS,VA,20110
108,9954 LIBERIA AVE,MANASSAS,VA,20110
109,10068 DUMFRIES RD,MANASSAS,VA,20110
110,8428 DORSEY CIR STE 102,MANASSAS,VA,20110
111,8428 DORSEY CIR STE 201,MANASSAS,VA,20110
112,2343 DULLES STATION BLVD APT 43,HERNDON,VA,20171
113,8609 SUDLEY RD,MANASSAS,VA,20110
114,540 FORT EVANS RD STE 100,LEESBURG,VA,20176
115,43170 SOUTHERN WALK PLZ STE 116,BROADLANDS,VA,20148
116,9625 SURVEYOR CT STE 101,MANASSAS,VA,20110
117,3701 S GEORGE MASON DR UNIT C7N,FALLS CHURCH,VA,22041
118,14007 MINNIEVILLE RD,WOODBRIDGE,VA,22193
119,46169 WESTLAKE DR STE 300,STERLING,VA,20165
120,9110 RAILROAD DRIVE,MANASSAS PARK,VA,20111
121,8393 CENTREVILLE ROAD,MANASSAS,VA,20111
122,8393 CENTREVILLE RD,MANASSAS,VA,20111
123,9110 RAILROAD DR,MANASSAS PARK,VA,20111
124,7806 CENTREVILLE ROAD,MANASSAS,VA,20111
125,7704 WELL ST,MANASSAS,VA,20111
126,7806 CENTREVILLE RD,MANASSAS,VA,20111
127,9921 LAKE OCCOQUAN DR,MANASSAS,VA,20111
128,6954 JEREMIAH CT,MANASSAS,VA,20111
129,9110 RAILROAD DR STE 201,MANASSAS PARK,VA,20111
130,1867 JONESBORO RD STE 6,MCDONOUGH,GA,30253
131,9094 BELO GATE DR,MANASSAS PARK,VA,20111
132,9337 BRANDON ST,MANASSAS PARK,VA,20111
133,9115 ANDREW DR,MANASSAS PARK,VA,20111
134,12701 GALVESTON CT,MANASSAS,VA,20112
135,12109 POLO DR APT 122,FAIRFAX,VA,22033
136,6312 HOADLY RD,MANASSAS,VA,20112
137,13489 CARAPACE CT,MANASSAS,VA,20112
138,7409 SILENT WILLOW CT,MANASSAS,VA,20112
139,18043 DUMFRIES SHOPPING PLZ,DUMFRIES,VA,22026
140,8360 WEST MAIN STREET,MARSHALL,VA,20115
141,4199 WINCHESTER ROAD,MARSHALL,VA,20115
142,4199 WINCHESTER RD,MARSHALL,VA,20115
143,14 W. MARSHALL ST.,MIDDLEBURG,VA,20117
144,14 W. MARSHALL STREET,MIDDLEBURG,VA,20117
145,204 E. FEDERAL ST.,MIDDLEBURG,VA,20117
